,service_name,store_name,on,address_1,address_2,gu,dong,lat,lng
0,골프연습장업,톰스크린골프(401),영업중,서울특별시 강남구 역삼동 838-11번지 미진빌딩 지층,서울특별시 강남구 도곡로 111,강남구,역삼동,37.49012829999999,127.0326539
1,골프연습장업,학동스크린골프(406),영업중,서울특별시 강남구 논현동 209번지 2층,"서울특별시 강남구 학동로 224 (논현동, 삼환아르누보3)",강남구,논현동,37.51445880000001,127.0332712
2,골프연습장업,장안골프(378)(스크린),영업중,서울특별시 강남구 역삼동 688-5번지 장안빌딩 3층,"서울특별시 강남구 언주로 550 (역삼동,장안빌딩 3층)",강남구,역삼동,37.5072744,127.0404417
3,골프연습장업,제이슨골프(379),영업중,서울특별시 강남구 삼성동 69번지 지층,"서울특별시 강남구 삼성로 626  (삼성동,지층)",강남구,삼성동,37.51397499999999,127.0561274
4,골프연습장업,세종스크린골프(380),영업중,서울특별시 강남구 수서동 712번지 수서한아름(아)상가 지층,"서울특별시 강남구 광평로51길 22 (수서동,수서한아름(아)상가 지층)",강남구,수서동,37.48915760000001,127.1032373
5,골프연습장업,논현골프연구소,영업중,서울특별시 강남구 논현동 267-1번지 제이케이빌딩 지층,"서울특별시 강남구 선릉로119길 5 (논현동,제이케이빌딩 지층)",강남구,논현동,37.5173944,127.0233285
6,골프연습장업,더핀(381),영업중,서울특별시 강남구 청담동 3-7번지 지층,"서울특별시 강남구 도산대로 430 (청담동, 서림빌딩)",강남구,청담동,37.5195969,127.0202723
7,골프연습장업,골프존파크역삼위너스크린점,영업중,서울특별시 강남구 역삼동 834-34 홍우빌딩 지층,"서울특별시 강남구 역삼로8길 15 (역삼동,홍우빌딩 지층)",강남구,역삼동,37.4930726,127.0340772
8,골프연습장업,조이앤푸드(스크린)(383),영업중,서울특별시 강남구 삼성동 154-8번지 지하2층,"서울특별시 강남구 테헤란로87길 35 (삼성동,지하2층)",강남구,삼성동,37.5098916,127.0575145
9,골프연습장업,이글(스크린)(384),영업중,서울특별시 강남구 역삼동 747-3번지 4호 지층,"서울특별시 강남구 역삼로 169 (역삼동,4호 지층)",강남구,역삼동,37.49557739999999,127.0374409
10,골프연습장업,플레잇골프(375),영업중,"서울특별시 강남구 역삼동 784-6번지 2,3층","서울특별시 강남구 언주로 309  (역삼동,2,3층)",강남구,역삼동,37.4951214,127.0458188
11,골프연습장업,필스크린골프(376)[3스크린 포함],영업중,서울특별시 강남구 삼성동 35-5번지 지층,"서울특별시 강남구 선릉로 616 (삼성동,지층)",강남구,삼성동,37.51397499999999,127.0561274
12,골프연습장업,브라보스크린골프(386),영업중,"서울특별시 강남구 대치동 935-36번지 신농플라자 지층103,102일부","서울특별시 강남구 도곡로63길 12 (대치동, 신농플라자)",강남구,대치동,37.4978196,127.0546022
13,골프연습장업,대치스크린골프(388),영업중,서울특별시 강남구 대치동 987-17번지 대치프라자2 지하1층,"서울특별시 강남구 도곡로 521, 지하1층 (대치동, 대치프라자2)",강남구,대치동,37.5000321,127.0632277
14,골프연습장업,원스스크린골프,영업중,서울특별시 강남구 논현동 39-18번지 지하2층,서울특별시 강남구 논현로131길 30 (논현동),강남구,논현동,37.5118856,127.0306633
15,골프연습장업,에이스타 골프 트랙맨 아카데미,영업중,서울특별시 강남구 대치동 912-31번지 지층,"서울특별시 강남구 삼성로71길 18 (대치동,지층)",강남구,대치동,37.498122,127.0745615
16,골프연습장업,클럽300(394),영업중,서울특별시 강남구 대치동 890-36번지 60 오이타워 지층,"서울특별시 강남구 테헤란로70길 12  (대치동,60 오이타워 지층)",강남구,대치동,37.5047023,127.0531444
17,골프연습장업,골프존 스카이(398),영업중,서울특별시 강남구 삼성동 69-14번지 15번지 지층,"서울특별시 강남구 삼성로 622 (삼성동, 대명빌딩)",강남구,삼성동,37.5152142,127.0524102
18,골프연습장업,에이원에스지(397),영업중,서울특별시 강남구 논현동 87-3번지 해바라기빌딩 지층,"서울특별시 강남구 논현로132길 8  (논현동,해바라기빌딩 지층)",강남구,논현동,37.5184932,127.0278352
19,골프연습장업,신사스크린골프(371),영업중,서울특별시 강남구 논현동 16번지 소망빌딩 3층,"서울특별시 강남구 강남대로150길 6 (논현동, 논현동 K 빌딩)",강남구,논현동,37.5176728,127.0246382
20,골프연습장업,P스크린골프,영업중,서울특별시 강남구 도곡동 957-11번지 극동스타클래스,"서울특별시 강남구 남부순환로 2615 (도곡동, 극동스타클래스)",강남구,도곡동,37.4851013,127.035744
21,골프연습장업,대청spo5,영업중,서울특별시 강남구 개포동 13-3번지 대청타워,"서울특별시 강남구 개포로 623, 대청타워 3층 (개포동)",강남구,개포동,37.4940992,127.0796795
22,골프연습장업,비다펠리즈(VIDA FELIZ),영업중,서울특별시 강남구 삼성동 161-17번지 경진빌딩,"서울특별시 강남구 영동대로106길 17, 경진빌딩 지하1층 (삼성동)",강남구,삼성동,37.5137461,127.0624848
23,골프연습장업,ARAM GOLF STUDIO,영업중,서울특별시 강남구 청담동 109-1,"서울특별시 강남구 도산대로85길 50-18, B1층 (청담동)",강남구,청담동,37.5271973,127.0516895
24,골프연습장업,YU Golf Studio,영업중,서울특별시 강남구 논현동 213-4번지,"서울특별시 강남구 논현로128길 18, 지하1층 (논현동)",강남구,논현동,37.5136255,127.0325865
25,골프연습장업,골프에비뉴,영업중,서울특별시 강남구 논현동 249-6 논현로얄팰리스,"서울특별시 강남구 언주로 626, 논현로얄팰리스 지하1층 1호 (논현동)",강남구,논현동,37.5124591,127.0359654
26,골프연습장업,키움골프 GDR 아카데미 역삼점,영업중,서울특별시 강남구 역삼동 755번지 한솔필리아,"서울특별시 강남구 역삼로 310, 한솔필리아 2층 33호 (역삼동)",강남구,역삼동,37.4991554,127.0483257
27,골프연습장업,(주)유디알 지에프,영업중,서울특별시 강남구 역삼동 722번지 경남아파트,"서울특별시 강남구 언주로85길 13, 지하1층 (역삼동, 경남아파트)",강남구,역삼동,37.5004607,127.0424651
28,골프연습장업,에어골프 스튜디오 청담,영업중,서울특별시 강남구 청담동 87-4번지 S&S TOWER,"서울특별시 강남구 도산대로 409, S&S TOWER 지하2층 (청담동)",강남구,청담동,37.5237032,127.0404847
29,골프연습장업,(주)오너스스포츠,영업중,서울특별시 강남구 논현동 221-13번지,"서울특별시 강남구 논현로 628, 지하2층 (논현동)",강남구,논현동,37.5098201,127.0331008
30,골프연습장업,2X 골프 아카데미,영업중,서울특별시 강남구 일원동 717 삼성생명 일원역 빌딩,"서울특별시 강남구 일원로 115, 삼성생명 일원역 빌딩 103-2호 (일원동)",강남구,일원동,37.4890175,127.0824833
31,골프연습장업,2x 골프연습장,영업중,서울특별시 강남구 일원동 717 삼성생명 일원역 빌딩,"서울특별시 강남구 일원로 115, 삼성생명 일원역 빌딩 103-3호 (일원동)",강남구,일원동,37.4890175,127.0824833
32,골프연습장업,레인지엑스 가로수점,영업중,서울특별시 강남구 신사동 528-4번지 화인빌딩,"서울특별시 강남구 압구정로 110, 화인빌딩 지하1층 (신사동)",강남구,신사동,37.5229557,127.0208697
33,골프연습장업,EST Golf,영업중,서울특별시 강남구 역삼동 606-28번지,서울특별시 강남구 논현로 561 (역삼동),강남구,역삼동,37.5061352,127.0340687
34,골프연습장업,(주)더프라자 청담,영업중,서울특별시 강남구 신사동 652-16번지,"서울특별시 강남구 도산대로 327, 지하1층 (신사동)",강남구,신사동,37.5231166,127.0375869
35,골프연습장업,(주)제이지에스 골프,영업중,서울특별시 강남구 신사동 579-6번지,"서울특별시 강남구 논현로175길 18, 지하2층 (신사동)",강남구,신사동,37.5259907,127.0271404
36,골프연습장업,엑스원 골프 아카데미,영업중,서울특별시 강남구 논현동 244-4번지,"서울특별시 강남구 선릉로127길 27, 지하1층 (논현동)",강남구,논현동,37.514937,127.0395139
37,골프연습장업,주식회사 두댓,영업중,서울특별시 강남구 신사동 656-4번지 우진빌딩,"서울특별시 강남구 선릉로155길 23, 우진빌딩 지하1층 (신사동)",강남구,신사동,37.5255395,127.0377357
38,골프연습장업,모션골프,영업중,서울특별시 강남구 역삼동 720-9번지 스타팅빌딩,"서울특별시 강남구 테헤란로38길 5, 스타팅빌딩 지하2층 (역삼동)",강남구,역삼동,37.5016355,127.0416703
39,골프연습장업,기어스랩,영업중,서울특별시 강남구 삼성동 9-22 서경빌딩,"서울특별시 강남구 선릉로 642, 서경빌딩 1층 (삼성동)",강남구,삼성동,37.5139798,127.0428133
40,골프연습장업,메타골프엔터테인먼트,영업중,서울특별시 강남구 삼성동 113-4 PARK L9,"서울특별시 강남구 봉은사로 426, PARK L9 지하1층 (삼성동)",강남구,삼성동,37.5107567,127.0467103
41,골프연습장업,주식회사 더블지에프,영업중,서울특별시 강남구 논현동 209 삼환아르누보3,"서울특별시 강남구 학동로 224, 삼환아르누보3 203,204,206,207,208,209,210호 (논현동)",강남구,논현동,37.51445880000001,127.0332712
42,골프연습장업,수목토 골프클럽,영업중,서울특별시 강남구 청담동 87-8 갤러리제이씨,"서울특별시 강남구 도산대로 415, 갤러리제이씨 지하1층 (청담동)",강남구,청담동,37.5238058,127.040914
43,골프연습장업,72골프연습장,영업중,서울특별시 강남구 삼성동 141-3번지 세웅타워,"서울특별시 강남구 선릉로94길 12, 세웅타워 지하2층 (삼성동)",강남구,삼성동,37.5058116,127.0494848
44,골프연습장업,킹덤골프스튜디오,영업중,서울특별시 강남구 논현동 7-4번지 큐빅타워,"서울특별시 강남구 도산대로 170, 큐빅타워 지하1층 (논현동)",강남구,논현동,37.5189454,127.0272714
45,골프연습장업,알로하골프 개포,영업중,서울특별시 강남구 개포동 1219,"서울특별시 강남구 논현로16길 30, 2층 (개포동)",강남구,개포동,37.4771083,127.0487315
46,골프연습장업,GBL 골프연구소,영업중,서울특별시 강남구 논현동 95-14 동성빌딩,"서울특별시 강남구 선릉로145길 16, 동성빌딩 지하1층 (논현동)",강남구,논현동,37.5215728,127.0380753
47,골프연습장업,주식회사 스트로크플레이 대치점,영업중,서울특별시 강남구 대치동 908-20번지 대치 EM 프라자,"서울특별시 강남구 선릉로 340, 대치 EM 프라자 B2층 (대치동)",강남구,대치동,37.5001553,127.0513254
48,골프연습장업,S&H웰빙휘트니스,영업중,서울특별시 강남구 도곡동 543 동신빌딩,"서울특별시 강남구 도곡로 204, 동신빌딩 지하1층 (도곡동)",강남구,도곡동,37.4921532,127.0413973
49,골프연습장업,TGX GOLF ACADEMY,영업중,서울특별시 강남구 삼성동 159 코엑스,"서울특별시 강남구 영동대로 513, 코엑스 지하2층 (삼성동)",강남구,삼성동,37.5116828,127.059151
50,골프연습장업,올바디골프,영업중,서울특별시 강남구 청담동 130 청담아이파크,"서울특별시 강남구 영동대로142길 25 (청담동, 청담아이파크)",강남구,청담동,37.5252409,127.0552177
51,골프연습장업,레인지엑스 삼성,영업중,서울특별시 강남구 대치동 945 삼안빌딩,"서울특별시 강남구 테헤란로 520, 삼안빌딩 지하1층 (대치동)",강남구,대치동,37.5078052,127.0610787
52,골프연습장업,골프플래닛,영업중,서울특별시 강남구 역삼동 830-41 네스빌,"서울특별시 강남구 역삼로7길 17, 네스빌 지하1층 (역삼동)",강남구,역삼동,37.4953252,127.032531
53,골프연습장업,웰씨짐,영업중,서울특별시 강남구 역삼동 765-2 백림빌딩,"서울특별시 강남구 선릉로63길 9, 백림빌딩 5층 (역삼동)",강남구,역삼동,37.4971002,127.051381
54,골프연습장업,S.S골프클럽,영업중,서울특별시 강남구 청담동 30-33 대림아파트,"서울특별시 강남구 학동로77길 27, 상가동 2층 (청담동, 대림아파트)",강남구,청담동,37.5205036,127.0478363
55,골프연습장업,버핏그라운드 역삼별관,영업중,서울특별시 강남구 역삼동 648-9,"서울특별시 강남구 테헤란로 129, 지하2층 (역삼동)",강남구,역삼동,37.50011740000001,127.0322218
56,골프연습장업,미나모토 골프 스튜디오,영업중,서울특별시 강남구 도곡동 465 우성4차아파트,"서울특별시 강남구 언주로 117, 2층 (도곡동, 우성4차아파트)",강남구,도곡동,37.4853084,127.0494848
57,골프연습장업,히든랩 골프 연습장,영업중,서울특별시 강남구 역삼동 784-6 기성빌딩,"서울특별시 강남구 언주로 309, 기성빌딩 B101호 (역삼동)",강남구,역삼동,37.4951214,127.0458188
58,골프연습장업,송경서 골프아카데미 골프스타점,영업중,서울특별시 강남구 삼성동 150-19 코배가든,"서울특별시 강남구 삼성로 550, 코배가든 지하1층 (삼성동)",강남구,삼성동,37.5108515,127.0548085
59,골프연습장업,청담GDR아카데미,영업중,서울특별시 강남구 청담동 71-25 성호빌딩,"서울특별시 강남구 학동로97길 20, 성호빌딩 지하1층 (청담동)",강남구,청담동,37.5212011,127.0554736
60,골프연습장업,원골프(HGA_CR),영업중,서울특별시 강남구 역삼동 727-14 프라임빌딩,"서울특별시 강남구 논현로 412, 프라임빌딩 지하1층 (역삼동)",강남구,역삼동,37.4969835,127.0391287
61,골프연습장업,원 골프 아카데미,영업중,서울특별시 강남구 역삼동 727-14 프라임빌딩,"서울특별시 강남구 논현로 412, 프라임빌딩 지하1층 (역삼동)",강남구,역삼동,37.4969835,127.0391287
62,골프연습장업,메타아이골프,영업중,서울특별시 강남구 삼성동 113-4 PARK L9,"서울특별시 강남구 봉은사로 426, PARK L9 지하2층 (삼성동)",강남구,삼성동,37.5107567,127.0467103
63,골프연습장업,리더스VSE골프,영업중,서울특별시 강남구 세곡동 581,"서울특별시 강남구 헌릉로 569, 강남리더스프라자 5층 (세곡동)",강남구,세곡동,37.4657816,127.1011914
64,골프연습장업,노바골프,영업중,서울특별시 강남구 일원동 683-9,"서울특별시 강남구 일원로3길 20, 지하1층 (일원동)",강남구,일원동,37.4915285,127.0822079
65,골프연습장업,주식회사 라이언앳,영업중,서울특별시 강남구 논현동 237 논현 237,"서울특별시 강남구 언주로113길 7, 논현 237 2층 (논현동)",강남구,논현동,37.5093192,127.0367059
66,골프연습장업,G-labo Studio(지라보 스튜디오),영업중,서울특별시 강남구 신사동 638-10,"서울특별시 강남구 언주로174길 11, 지하1층 (신사동)",강남구,신사동,37.5285966,127.0348072
67,골프연습장업,(주)글뤽골프,영업중,서울특별시 강남구 청담동 46-11 근정 빌딩,"서울특별시 강남구 삼성로133길 15, 근정 빌딩 4,5층 (청담동)",강남구,청담동,37.5191852,127.048579
68,골프연습장업,최완욱 골프 연구소,영업중,서울특별시 강남구 논현동 211-15 한솔빌딩,"서울특별시 강남구 언주로 639, 한솔빌딩 지하1층 (논현동)",강남구,논현동,37.5136178,127.0349761
69,골프연습장업,공감 골프,영업중,서울특별시 강남구 청담동 125-14 RNF537,"서울특별시 강남구 도산대로 537, RNF537 지하1층 (청담동)",강남구,청담동,37.5251955,127.052372
70,골프연습장업,그린(224),영업중,서울특별시 강남구 도곡동 422번지 광명빌딩 지하1층,"서울특별시 강남구 논현로28길 48  (도곡동,광명빌딩 지하1층)",강남구,도곡동,37.4843183,127.045718
71,골프연습장업,탑스크린(334),영업중,서울특별시 강남구 삼성동 1-1번지 천마빌딩 지층,"서울특별시 강남구 학동로 402 (삼성동,천마빌딩 지층)",강남구,삼성동,37.516955,127.0417748
72,골프연습장업,휘슬러휘트니스(227),영업중,서울특별시 강남구 역삼동 837-11번지 유니온센타 지하2층,서울특별시 강남구 강남대로 310 (역삼동),강남구,역삼동,37.5000776,127.0385419
73,골프연습장업,삼성강남스크린골프(323),영업중,서울특별시 강남구 삼성동 127-13번지 Bk-Tower,"서울특별시 강남구 삼성로 547, Bk-Tower (삼성동)",강남구,삼성동,37.5103477,127.0543392
74,골프연습장업,아인스 휘트니스,영업중,서울특별시 강남구 논현동 221-5 M빌딩 B2,"서울특별시 강남구 논현로 626 (논현동,M빌딩 B2)",강남구,논현동,37.5095391,127.0332328
75,골프연습장업,아이골프연습장(327),영업중,"서울특별시 강남구 삼성동 58번지 F2,3","서울특별시 강남구 학동로 522 (삼성동,F2,3)",강남구,삼성동,37.5195566,127.0560193
76,골프연습장업,"재형골프시스템[328,스크린1포함]",영업중,서울특별시 강남구 도곡동 964번지 현대그린아파트 상가동 지하1층,"서울특별시 강남구 논현로51길 25 (도곡동,현대그린아파트 상가동 지하1층)",강남구,도곡동,37.4887954,127.0392435
77,골프연습장업,드림라인(329)[스크린],영업중,서울특별시 강남구 대치동 912-31번지 니츠빌딩 지하,"서울특별시 강남구 삼성로71길 18 (대치동,니츠빌딩 지하)",강남구,대치동,37.498122,127.0745615
78,골프연습장업,한티비전스크린골프(332),영업중,서울특별시 강남구 대치동 922-1번지 한림빌딩 지하1층,"서울특별시 강남구 선릉로 324 (대치동,한림빌딩 지하1층)",강남구,대치동,37.506127,127.0600466
79,골프연습장업,엠클럽골프,영업중,서울특별시 강남구 대치동 901-67번지 성도빌딩,"서울특별시 강남구 역삼로77길 23, 성도빌딩 지하1층 (대치동)",강남구,대치동,37.5039449,127.0558684
80,골프연습장업,주식회사 더프라자,영업중,서울특별시 강남구 논현동 86-1번지 아이캐슬빌딩,"서울특별시 강남구 논현로 706, 아이캐슬빌딩 B1층 (논현동)",강남구,논현동,37.5152829,127.0307399
81,골프연습장업,토마토스크린골프존,영업중,서울특별시 강남구 역삼동 721-9번지 산정빌딩 지하1층,"서울특별시 강남구 언주로81길 8 (역삼동,산정빌딩 지하1층)",강남구,역삼동,37.500366,127.042869
82,골프연습장업,역삼지앤에프(스크린)(333),영업중,서울특별시 강남구 역삼동 727-8 운기빌딩 지하2층,"서울특별시 강남구 논현로 416 (역삼동,운기빌딩 지하2층)",강남구,역삼동,37.4974055,127.0388822
83,골프연습장업,정우스크린골프(341),영업중,서울특별시 강남구 역삼동 738-40번지 지하1층,"서울특별시 강남구 논현로81길 11 (역삼동,지하1층)",강남구,역삼동,37.4979174,127.0371327
84,골프연습장업,디에스지(스크린)(344),영업중,서울특별시 강남구 도곡동 544번지 신호빌딩 지층102호~103호,"서울특별시 강남구 도곡로 184, 지하1층 102~103호 (도곡동)",강남구,도곡동,37.4916885,127.0397809
85,골프연습장업,지프라자스크린골프(346),영업중,서울특별시 강남구 도곡동 515-4번지 2층,서울특별시 강남구 논현로 148 (도곡동),강남구,도곡동,37.4917248,127.0459398
86,골프연습장업,은성(201),영업중,서울특별시 강남구 논현동 240-14번지,서울특별시 강남구 선릉로129길 24  (논현동),강남구,논현동,37.5141659,127.023239
87,골프연습장업,에스비에스(202),영업중,서울특별시 강남구 신사동 536-16번지 지하1층,"서울특별시 강남구 도산대로13길 15 (신사동,지하1층)",강남구,신사동,37.5253465,127.0383259
88,골프연습장업,강남(205),영업중,서울특별시 강남구 삼성동 169번지,서울특별시 강남구 영동대로96길 20  (삼성동),강남구,삼성동,37.5180056,127.0633824
89,골프연습장업,삼성골프장,영업중,서울특별시 강남구 일원동 626번지,서울특별시 강남구 개포로124길 27 (일원동),강남구,일원동,37.4868475,127.0819426
90,골프연습장업,그린 (212),영업중,서울특별시 강남구 역삼동 754-2번지 지상2층,"서울특별시 강남구 역삼로52길 14 (역삼동, 도곡프라자)",강남구,역삼동,37.4985444,127.0479369
91,골프연습장업,리버골프(300),영업중,서울특별시 강남구 개포동 1237-16번지,서울특별시 강남구 논현로18길 15 (개포동),강남구,개포동,37.4779931,127.0462243
92,골프연습장업,에이스골프연습장(301),영업중,서울특별시 강남구 신사동 528-3번지 덕산빌딩 지하1층,"서울특별시 강남구 압구정로 108 (신사동,덕산빌딩 지하1층)",강남구,신사동,37.5229191,127.0205789
93,골프연습장업,채플린이지골프(224),영업중,서울특별시 강남구 도곡동 422 광명빌딩 지하1층,"서울특별시 강남구 논현로28길 48  (도곡동,광명빌딩 지하1층)",강남구,도곡동,37.4843183,127.045718
94,골프연습장업,로지골프(주)(304),영업중,서울특별시 강남구 대치동 962-22번지 한림빌딩 지하1층,"서울특별시 강남구 삼성로 336 (대치동,한림빌딩 지하1층)",강남구,대치동,37.506127,127.0600466
95,골프연습장업,(주)강남스파(306),영업중,서울특별시 강남구 논현동 74-7번지,서울특별시 강남구 논현로 732  (논현동),강남구,논현동,37.5136787,127.0317124
96,골프연습장업,듀얼라이프골프,영업중,서울특별시 강남구 개포동 1193,서울특별시 강남구 논현로 34,강남구,개포동,37.4741531,127.0487826
97,골프연습장업,프라이어휘트니스 논현점(308),영업중,서울특별시 강남구 논현동 175-4번지 지하 1층,"서울특별시 강남구 논현로 633  (논현동,지하 1층)",강남구,논현동,37.5100075,127.0321634
98,골프연습장업,빅스골프아카데미 (309),영업중,서울특별시 강남구 개포동 170-1번지 석주빌딩 지하1층,"서울특별시 강남구 선릉로12길 5  (개포동,석주빌딩 지하1층)",강남구,개포동,37.4836477,127.0602969
99,골프연습장업,명인갤러리,영업중,서울특별시 강남구 역삼동 751-1번지 지하1층,"서울특별시 강남구 역삼로11길 6, 지하1층 (역삼동)",강남구,역삼동,37.4947163,127.0344691
100,골프연습장업,수서스크린골프존(357),영업중,서울특별시 강남구 수서동 714-4번지 문암빌딩 B1,"서울특별시 강남구 광평로51길 6-11 (수서동,문암빌딩 B1)",강남구,수서동,37.4885196,127.1032564
101,골프연습장업,탱크(스크린골프)(359),영업중,서울특별시 강남구 역삼동 700-33번지 지층,"서울특별시 강남구 테헤란로43길 17 (역삼동,지층)",강남구,역삼동,37.5044415,127.0436869
102,골프연습장업,골프아이(360),영업중,서울특별시 강남구 도곡동 552-6번지 삼송빌딩 지층,"서울특별시 강남구 도곡로 146  (도곡동,삼송빌딩 지층)",강남구,도곡동,37.5065712,127.0497698
103,골프연습장업,피지에이골프아카데미,영업중,서울특별시 강남구 역삼동 833-2번지 성보역삼빌딩,"서울특별시 강남구 역삼로 120, 성보역삼빌딩 지하1층 (역삼동)",강남구,역삼동,37.4935577,127.0327193
104,골프연습장업,덕산(179),영업중,서울특별시 강남구 역삼동 787번지,서울특별시 강남구 도곡로27길 6 (역삼동),강남구,역삼동,37.4934356,127.0423424
105,골프연습장업,골프사랑(스크린)(361),영업중,서울특별시 강남구 삼성동 144-4번지 ES타워 지층,"서울특별시 강남구 테헤란로77길 14 (삼성동,ES타워 지층)",강남구,삼성동,37.5074912,127.0546738
106,골프연습장업,707스크린골프존(364),영업중,서울특별시 강남구 역삼동 707-15번지 우정에쉐르3(B1),서울특별시 강남구 언주로86길 25 (역삼동),강남구,역삼동,37.5024872,127.045021
107,골프연습장업,한국(181),영업중,서울특별시 강남구 역삼동 747-5번지 브라운스톤역삼아파트,"서울특별시 강남구 역삼로 171 (역삼동, 브라운스톤역삼아파트)",강남구,역삼동,37.4957049,127.0378621
108,골프연습장업,르카프,영업중,서울특별시 강남구 대치동 982-10번지,서울특별시 강남구 역삼로98길 28 (대치동),강남구,대치동,37.5028983,127.0646392
109,골프연습장업,도곡(실외)(123),영업중,서울특별시 강남구 도곡동 515-10번지,서울특별시 강남구 남부순환로370길 33 (도곡동),강남구,도곡동,37.4883724,127.0442027
110,골프연습장업,위너스빌(315),영업중,서울특별시 강남구 삼성동 151-7번지 지하2층,"서울특별시 강남구 삼성로 534  (삼성동,지하2층)",강남구,삼성동,37.5097337,127.0556437
111,골프연습장업,러빙유골프존(삼성점),영업중,"서울특별시 강남구 삼성동 119-9번지 4,5층","서울특별시 강남구 삼성로 571 (삼성동,4,5층)",강남구,삼성동,37.5176485,127.0452699
112,골프연습장업,공브라더스골프아카데미(313),영업중,서울특별시 강남구 논현동 231-4번지 원일빌딩 지하1층,"서울특별시 강남구 봉은사로37길 22 (논현동,원일빌딩 지하1층)",강남구,논현동,37.5097779,127.0363394
113,골프연습장업,(주)건강과 땀,영업중,서울특별시 강남구 수서동 715번지,"서울특별시 강남구 광평로 281 (수서동, 수서빌딩)",강남구,수서동,37.4880028,127.1026639
114,골프연습장업,예 골프 아카데미,영업중,서울특별시 강남구 역삼동 756-14번지 지하1층,"서울특별시 강남구 선릉로 323, 지하1층 (역삼동)",강남구,역삼동,37.498365,127.0515642
115,골프연습장업,주식회사 애플짐역삼,영업중,"서울특별시 강남구 역삼동 755번지 한솔필리아, 지하1층","서울특별시 강남구 역삼로 310 (역삼동, 한솔필리아)",강남구,역삼동,37.4991554,127.0483257
116,골프연습장업,이즈 골프존 파크,영업중,"서울특별시 강남구 대치동 994-6번지 수안빌딩, 지하1층","서울특별시 강남구 영동대로 223 (대치동, 수안빌)",강남구,대치동,37.4991887,127.0633458
117,골프연습장업,로얄 골프아카데미,영업중,서울특별시 강남구 대치동 62-8번지 지하1층,"서울특별시 강남구 영동대로50길 10 (대치동, 지하1층)",강남구,대치동,37.4985403,127.0699374
118,골프연습장업,비타스크린 골프존[스크린룸5],영업중,서울특별시 강남구 삼성동 170번지,"서울특별시 강남구 영동대로96길 34 (삼성동, 대윤빌딩)",강남구,삼성동,37.5126471,127.0437688
119,골프연습장업,에이스휘트니스 (310),영업중,서울특별시 강남구 역삼동 823-21번지 대공빌딩 지하1층,"서울특별시 강남구 테헤란로 126  (역삼동,대공빌딩 지하1층)",강남구,역삼동,37.4990532,127.0323061
120,골프연습장업,삼성래미안스크린골프(424),영업중,서울특별시 강남구 대치동 1014번지 지층 101호,"서울특별시 강남구 도곡로78길 22 (대치동,지층 101호)",강남구,대치동,37.4963866,127.058402
121,골프연습장업,오너스스크린골프(425),영업중,서울특별시 강남구 논현동 175-14번지 지층,"서울특별시 강남구 논현로 627 (논현동, 유현빌딩)",강남구,논현동,37.50973460000001,127.0322053
122,골프연습장업,리스(219),영업중,서울특별시 강남구 신사동 548-5번지 지하1층,"서울특별시 강남구 논현로175길 78 (신사동,지하1층)",강남구,신사동,37.5237141,127.0226746
123,골프연습장업,4D(213),영업중,서울특별시 강남구 대치동 932-2번지 지하1층,"서울특별시 강남구 도곡로77길 14  (대치동,지하1층)",강남구,대치동,37.4992943,127.0585913
124,골프연습장업,파골프연습장(256)[스크린 3실 포함],영업중,서울특별시 강남구 삼성동 8-1번지,서울특별시 강남구 선릉로 664 (삼성동),강남구,삼성동,37.51397499999999,127.0561274
125,골프연습장업,슬림핏휘트니스(259),영업중,서울특별시 강남구 대치동 891-49번지,"서울특별시 강남구 테헤란로78길 14-13 (대치동, 포스타 빌딩)",강남구,대치동,37.5048669,127.0545864
126,골프연습장업,청담스포피아(실외)(121),영업중,서울특별시 강남구 청담동 66-4번지,서울특별시 강남구 학동로95길 51 (청담동),강남구,청담동,37.5219622,127.0520455
127,골프연습장업,두성골프연습장(204),영업중,서울특별시 강남구 청담동 44-12번지,서울특별시 강남구 학동로 419 (청담동),강남구,청담동,37.5183507,127.0459641
128,골프연습장업,비젼(229),영업중,서울특별시 강남구 역삼동 734-15번지,서울특별시 강남구 역삼로 205 (역삼동),강남구,역삼동,37.4998901,127.0488377
129,골프연습장업,효원골프크럽(194),영업중,서울특별시 강남구 대치동 941-24번지,서울특별시 강남구 도곡로 447  (대치동),강남구,대치동,37.4987688,127.0593926
130,골프연습장업,임진한골프(55),영업중,서울특별시 강남구 신사동 530번지 지하1층,"서울특별시 강남구 압구정로 120  (신사동,지하1층)",강남구,신사동,37.52356899999999,127.0219182
131,골프연습장업,청담쎄븐골프죤,영업중,서울특별시 강남구 청담동 68-5번지 B3층,"서울특별시 강남구 영동대로 731, B3층 (청담동, 신영빌딩)",강남구,청담동,37.5230137,127.0547411
132,골프연습장업,파인스크린골프(427),영업중,서울특별시 강남구 개포동 186-13번지 지층,"서울특별시 강남구 개포로 504 (개포동, 신일빌딩)",강남구,개포동,37.48896250000001,127.0671019
133,골프연습장업,박종현골프아카데미(428),영업중,서울특별시 강남구 대치동 66번지 쌍용종합상가 지하2층 243호,"서울특별시 강남구 영동대로 210 (대치동, 쌍용아파트)",강남구,대치동,37.498221,127.069278
134,골프연습장업,클럽케이 서울 휘트니스,영업중,서울특별시 강남구 삼성동 140-3번지 선릉대림아크로텔 B201호,"서울특별시 강남구 선릉로 524, B201호 (삼성동,선릉대림아크로텔)",강남구,삼성동,37.5064879,127.048381
135,골프연습장업,훈골프아카데미,영업중,서울특별시 강남구 도곡동 895-8번지 도곡한신아파트 상가 B1,"서울특별시 강남구 논현로 205 (도곡동, 도곡한신아파트)",강남구,도곡동,37.4870456,127.0407157
136,골프연습장업,태연스크린골프존(430),영업중,서울특별시 강남구 역삼동 641-3번지 노바빌딩 B1,"서울특별시 강남구 논현로 523 (역삼동,노바빌딩 B1)",강남구,역삼동,37.5030584,127.035436
137,골프연습장업,쵸이스골프연습장(312),영업중,서울특별시 강남구 논현동 181-6번지 지하 1층,"서울특별시 강남구 강남대로120길 42  (논현동,지하 1층)",강남구,논현동,37.5076934,127.0267382
138,골프연습장업,도토리짐(319),영업중,서울특별시 강남구 논현동 152-5번지 B02,"서울특별시 강남구 논현로 641  (논현동,B02)",강남구,논현동,37.5108647,127.0317827
139,골프연습장업,나라(214),영업중,서울특별시 강남구 신사동 638-13번지 지하1층,"서울특별시 강남구 언주로 874  (신사동,지하1층)",강남구,신사동,37.5285838,127.0343031
140,골프연습장업,필라테스골프(216),영업중,서울특별시 강남구 삼성동 35-5번지 지하1층,"서울특별시 강남구 선릉로 616 (삼성동,지하1층)",강남구,삼성동,37.5118646,127.0435795
141,골프연습장업,포이골프(158),영업중,서울특별시 강남구 개포동 1259-3번지 지하1층,"서울특별시 강남구 개포로 241, 지하1층 (개포동)",강남구,개포동,37.4791472,127.0489508
142,골프연습장업,한솔(191),영업중,서울특별시 강남구 일원동 731번지 한솔상가 지하1층,"서울특별시 강남구 광평로10길 6 (일원동,한솔상가 지하1층)",강남구,일원동,37.4818897,127.0775108
143,골프연습장업,랜드(476)(스크린골프),영업중,서울특별시 강남구 논현동 239-4번지 신우빌딩 지하1층,"서울특별시 강남구 학동로 320 (논현동,신우빌딩 지하1층)",강남구,논현동,37.5160194,127.0380873
144,골프연습장업,파크 힐(477)[스크린],영업중,서울특별시 강남구 삼성동 78-3번지 지하1층 103호,"서울특별시 강남구 영동대로 644 (삼성동, 원일빌딩)",강남구,삼성동,37.5194309,127.0580464
145,골프연습장업,GDR골프존아카데미(542)[스크린],영업중,서울특별시 강남구 역삼동 840-8번지 지하1층,서울특별시 강남구 도곡로 151 (역삼동),강남구,역삼동,37.4913117,127.0364996
146,골프연습장업,바운싱휘트니스[544],영업중,서울특별시 강남구 신사동 638-13번지 쌍봉빌딩  지하1층,서울특별시 강남구 언주로 874 (신사동),강남구,신사동,37.5285838,127.0343031
147,골프연습장업,아이 골프 앤 코[545],영업중,서울특별시 강남구 청담동 87-8번지 지하1층,"서울특별시 강남구 도산대로 415, 지하동 1층 (청담동)",강남구,청담동,37.5238058,127.040914
148,골프연습장업,파인골프,영업중,서울특별시 강남구 역삼동 706-20,"서울특별시 강남구 언주로86길 11, 우정에쉐르 지하동 1층 제비101호, 제비102호호 (역삼동)",강남구,역삼동,37.5019556,127.0442424
149,골프연습장업,에스엠스크린골프,영업중,서울특별시 강남구 일원동 615-1번지 기호빌딩 B02호,서울특별시 강남구 개포로110길 43 (일원동),강남구,일원동,37.4833002,127.0767652
150,골프연습장업,원일(125),영업중,서울특별시 강남구 논현동 231-4번지,서울특별시 강남구 봉은사로37길 22 (논현동),강남구,논현동,37.5097779,127.0363394
151,골프연습장업,원골프 삼성점,영업중,서울특별시 강남구 삼성동 127-9번지,"서울특별시 강남구 삼성로 535 (삼성동, 삼화빌딩)",강남구,삼성동,37.5101779,127.0446225
152,골프연습장업,다이내스티(129),영업중,서울특별시 강남구 논현동 198-6번지,서울특별시 강남구 강남대로114길 14 (논현동),강남구,논현동,37.5160833,127.0236918
153,골프연습장업,파인(143),영업중,서울특별시 강남구 역삼동 701-1번지,"서울특별시 강남구 언주로 506 (역삼동, 역삼 아르누보씨티)",강남구,역삼동,37.5033786,127.0428441
154,골프연습장업,크리스탈(144),영업중,서울특별시 강남구 신사동 528번지,"서울특별시 강남구 압구정로 104 (신사동, 보암빌딩)",강남구,신사동,37.5225687,127.0199945
155,골프연습장업,힐링짐(523),영업중,서울특별시 강남구 역삼동 721-13번지 지하1층,서울특별시 강남구 언주로 425 (역삼동),강남구,역삼동,37.5000776,127.0385419
156,골프연습장업,골프텍(524),영업중,서울특별시 강남구 논현동 97번지 싸이칸빌딩 2층,서울특별시 강남구 언주로 734 (논현동),강남구,논현동,37.5136787,127.0317124
157,골프연습장업,청담파크휘트니스(일반)(525),영업중,서울특별시 강남구 청담동 71-25번지 지하1층,서울특별시 강남구 학동로97길 20 (청담동),강남구,청담동,37.5212011,127.0554736
158,골프연습장업,함스짐(HAMS GYM) 2호점,영업중,서울특별시 강남구 대치동 891-28번지 B2,"서울특별시 강남구 삼성로85길 38 (대치동,B2)",강남구,대치동,37.5045439,127.0542093
159,골프연습장업,로지골프[548][개방형 타석 스크린],영업중,서울특별시 강남구 역삼동 797-26번지 지하2층,서울특별시 강남구 논현로 317 (역삼동),강남구,역삼동,37.493555,127.0399369
160,골프연습장업,ILD swing lab[551],영업중,서울특별시 강남구 신사동 637-15번지,"서울특별시 강남구 언주로172길 7, 지하층 (신사동, 대명빌딩)",강남구,신사동,37.5279017,127.0345484
161,골프연습장업,모던골프(552),영업중,서울특별시 강남구 도곡동 457-4,"서울특별시 강남구 논현로26길 46-8, 지하1층 (도곡동)",강남구,도곡동,37.4835216,127.0461073
162,골프연습장업,주식회사 라자로골프,영업중,서울특별시 강남구 역삼동 725-24번지 지하1층,"서울특별시 강남구 논현로86길 32, 지하1층 (역삼동)",강남구,역삼동,37.5002952,127.04009
163,골프연습장업,골프존파크 논현 강남을지사거리점,영업중,서울특별시 강남구 논현동 59-8 지하2층,"서울특별시 강남구 논현로 752, 지하2층 (논현동, 구산빌딩)",강남구,논현동,37.5189305,127.0346042
164,골프연습장업,멤버쉽 휘트니스 플레이 바이 어스,영업중,서울특별시 강남구 개포동 1197-2번지 5층,"서울특별시 강남구 논현로10길 29, 5층 (개포동, 강남친환경식품유통센터)",강남구,개포동,37.4752892,127.0504113
165,골프연습장업,대모체육클럽[실외](557),영업중,서울특별시 강남구 일원동 736 대모초등학교,"서울특별시 강남구 광평로20길 27 (일원동, 대모초등학교)",강남구,일원동,37.4811396,127.0862343
166,골프연습장업,"도곡SG스크린골프(실내, 실외)",영업중,서울특별시 강남구 도곡동 515-10번지 1층,"서울특별시 강남구 남부순환로370길 33, 1층 (도곡동)",강남구,도곡동,37.4836643,127.0431527
167,골프연습장업,오로스크린골프(526),영업중,서울특별시 강남구 역삼동 823-33번지 지하2층,"서울특별시 강남구 논현로85길 58 (역삼동, 백림빌딩)",강남구,역삼동,37.4979886,127.0332439
168,골프연습장업,V6 golf(527)(스크린4실 포함),영업중,서울특별시 강남구 개포동 1193번지 지하1층,서울특별시 강남구 논현로 34 (개포동),강남구,개포동,37.4802905,127.0626272
169,골프연습장업,피팝,영업중,서울특별시 강남구 신사동 635-7 지하1층,"서울특별시 강남구 언주로170길 8, 지하1층 (신사동, 스페이스데코)",강남구,신사동,37.5269317,127.0342396
170,골프연습장업,수서그린골프[스크린룸2포함],영업중,서울특별시 강남구 수서동 589-3번지,"서울특별시 강남구 광평로34길 30, 지하2층 (수서동)",강남구,수서동,37.482202,127.0941635
171,골프연습장업,공브라더스 역삼점,영업중,서울특별시 강남구 역삼동 831-18번지,"서울특별시 강남구 강남대로 342, 지하2층 (역삼동, 역삼빌딩)",강남구,역삼동,37.4936784,127.0301909
172,골프연습장업,SG스크린골프,영업중,서울특별시 강남구 일원동 615번지 우성7차아파트,"서울특별시 강남구 개포로110길 15, 지하1층 101, 103호 (일원동, 우성7차아파트)",강남구,일원동,37.4922926,127.0783273
173,골프연습장업,이민영골프아카데미,영업중,서울특별시 강남구 역삼동 651-3번지 한솔빌딩,"서울특별시 강남구 봉은사로 214, 한솔빌딩 지하1층 (역삼동)",강남구,역삼동,37.5075422,127.0357834
174,골프연습장업,JGS golf studio,영업중,서울특별시 강남구 신사동 579-6번지,"서울특별시 강남구 논현로175길 18, 지하1층 (신사동)",강남구,신사동,37.5259907,127.0271404
175,골프연습장업,골프72,영업중,서울특별시 강남구 대치동 947-2번지 신아빌딩,"서울특별시 강남구 테헤란로98길 23, 신아빌딩 지하1층 (대치동)",강남구,대치동,37.5069494,127.0630899
176,골프연습장업,캡틴골프스튜디오,영업중,서울특별시 강남구 도곡동 543-7번지 도곡1차 I PARK,"서울특별시 강남구 도곡로28길 8, 지하1층 109-1호 (도곡동, 도곡1차 I PARK)",강남구,도곡동,37.4921212,127.0432091
177,골프연습장업,은마 골프존(198)[5실 5타석],영업중,서울특별시 강남구 대치동 990번지 삼성상가 지하102호,"서울특별시 강남구 도곡로 516 (대치동, 삼성상가)",강남구,대치동,37.4992034,127.0630995
178,골프연습장업,제임스짐(207),영업중,서울특별시 강남구 삼성동 159-9번지 지하2층,서울특별시 강남구 테헤란로87길 36 (삼성동),강남구,삼성동,37.5125207,127.0588194
179,골프연습장업,PGA(209),영업중,서울특별시 강남구 일원동 615번지 개포우성7차 상가B01호,"서울특별시 강남구 개포로110길 15  (일원동,개포우성7차 상가B01호)",강남구,일원동,37.4916476,127.0784943
180,골프연습장업,스타프로퍼티(245),영업중,서울특별시 강남구 역삼동 737번지,"서울특별시 강남구 테헤란로 152 (역삼동, 강남파이낸스센터)",강남구,역삼동,37.499927,127.036789
181,골프연습장업,PGA(271),영업중,서울특별시 강남구 개포동 1259-2번지 지하1층,서울특별시 강남구 개포로 239 (개포동),강남구,개포동,37.4791282,127.0487703
182,골프연습장업,엔지에프(70),영업중,서울특별시 강남구 대치동 909-1번지,서울특별시 강남구 역삼로 420 (대치동),강남구,대치동,37.5010257,127.0528917
183,골프연습장업,남도(80),영업중,서울특별시 강남구 역삼동 823-24번지,"서울특별시 강남구 테헤란로14길 6 (역삼동, 남도빌딩)",강남구,역삼동,37.4990106,127.0328414
184,골프연습장업,YMCA(천장만 뚫려있고 벽으로 둘러싸임)(101),영업중,서울특별시 강남구 논현동 225-6번지,"서울특별시 강남구 언주로 615 (논현동, 강남YMCA)",강남구,논현동,37.5105414,127.0359456
185,골프연습장업,한양(124),영업중,서울특별시 강남구 청담동 131-15번지,서울특별시 강남구 영동대로138길 9 (청담동),강남구,청담동,37.5221885,127.0478896
186,골프연습장업,K.스크린골프(467),영업중,서울특별시 강남구 자곡동 302-6번지 지하1층,서울특별시 강남구 밤고개로14길 13 (자곡동),강남구,자곡동,37.4814213,127.1040343
187,골프연습장업,골프72(스크린)(469),영업중,서울특별시 강남구 대치동 947-2번지 신아빌딩 지하1층 101호,"서울특별시 강남구 테헤란로98길 23 (대치동,신아빌딩 지하1층 101호)",강남구,대치동,37.5069494,127.0630899
188,골프연습장업,MK스크린골프(471),영업중,서울특별시 강남구 청담동 2-6번지 유니텍 전자빌딩 지하1층,서울특별시 강남구 도산대로 410 (청담동),강남구,청담동,37.5228776,127.0405018
189,골프연습장업,곰스크린골프(470),영업중,"서울특별시 강남구 수서동 726-4번지 EM빌딩 지하1, 지상2층, 지상3층",서울특별시 강남구 밤고개로5길 11-4 (수서동),강남구,수서동,37.4867483,127.1038556
190,골프연습장업,아이(233),영업중,서울특별시 강남구 대치동 905-11번지,서울특별시 강남구 역삼로 435 (대치동),강남구,대치동,37.5020124,127.0545664
191,골프연습장업,청호(실외)(234),영업중,서울특별시 강남구 논현동 98-12번지,서울특별시 강남구 언주로148길 14 (논현동),강남구,논현동,37.5108551,127.0270863
192,골프연습장업,베스트(236),영업중,서울특별시 강남구 대치동 941-16번지 지하1층,"서울특별시 강남구 삼성로 307 (대치동,지하1층)",강남구,대치동,37.4994104,127.0602933
193,골프연습장업,그랑프리골프클럽(240)[스크린 2실 포함],영업중,서울특별시 강남구 대치동 500번지 센트럴500소핑몰 지하1층,"서울특별시 강남구 남부순환로 2912 (대치동,센트럴500소핑몰 지하1층)",강남구,대치동,37.4908388,127.0572409
194,골프연습장업,압구정훼미리(241),영업중,서울특별시 강남구 신사동 643-2번지 지하1층,"서울특별시 강남구 언주로172길 22 (신사동,지하1층)",강남구,신사동,37.5274643,127.0354743
195,골프연습장업,한양(231),영업중,서울특별시 강남구 신사동 638-5번지 지하1층3호,"서울특별시 강남구 압구정로 310 (신사동,지하1층3호)",강남구,신사동,37.5287785,127.0352862
196,골프연습장업,에이스골프연습장(493),영업중,서울특별시 강남구 대치동 989-6번지 지하1층,"서울특별시 강남구 삼성로58길 11  (대치동,지하1층)",강남구,대치동,37.4987999,127.0622312
197,골프연습장업,명성(132),영업중,서울특별시 강남구 청담동 8-2번지,서울특별시 강남구 삼성로145길 6 (청담동),강남구,청담동,37.523749,127.0465456
198,골프연습장업,정석(153),영업중,서울특별시 강남구 삼성동 108-9번지,"서울특별시 강남구 봉은사로 613 (삼성동, ADT캡스 제1빌딩)",강남구,삼성동,37.5148445,127.0621004
199,골프연습장업,지에스(155),영업중,서울특별시 강남구 역삼동 769-1번지,"서울특별시 강남구 역삼로 204 (역삼동, 삼환 아르누보)",강남구,역삼동,37.4958292,127.0398369
200,골프연습장업,프라이어 휘트니스(6 스크린 포함)(495),영업중,서울특별시 강남구 도곡동 957-11번지 스타클래스 지하2층,"서울특별시 강남구 남부순환로 2615 (도곡동, 극동스타클래스)",강남구,도곡동,37.4851013,127.035744
201,골프연습장업,피스크린골프 양재점(494),영업중,서울특별시 강남구 도곡동 957-11번지 스타클래스 지하2층,"서울특별시 강남구 남부순환로 2615 (도곡동, 극동스타클래스)",강남구,도곡동,37.4851013,127.035744
202,골프연습장업,애플짐 휘트니스(496),영업중,서울특별시 강남구 대치동 908-20번지 대치EM프라자 B202호,"서울특별시 강남구 선릉로 340 (대치동, 대치 EM 프라자)",강남구,대치동,37.5001553,127.0513254
203,골프연습장업,김프로골프스쿨,영업중,서울특별시 강남구 대치동 1014-3번지 B1,"서울특별시 강남구 도곡로78길 22 (대치동, 삼성아파트)",강남구,대치동,37.4965682,127.0588507
204,골프연습장업,골프존파크 대치점(499)(스크린),영업중,서울특별시 강남구 대치동 984번지,서울특별시 강남구 도곡로99길 16 (대치동),강남구,대치동,37.5018594,127.0660032
205,골프연습장업,제스트(501),영업중,서울특별시 강남구 논현동 97번지 3층,"서울특별시 강남구 언주로 734 (논현동, 성주그룹빌딩 본관)",강남구,논현동,37.5207172,127.0345718
206,골프연습장업,비스포레 스크린골프,영업중,"서울특별시 강남구 대치동 962-21 지하1,2층",서울특별시 강남구 삼성로 334 (대치동),강남구,대치동,37.5015069,127.0599056
207,골프연습장업,티스크린골프(418),영업중,"서울특별시 강남구 삼성동 113-6번지 1,2층","서울특별시 강남구 봉은사로 430 (삼성동,1,2층)",강남구,삼성동,37.51087709999999,127.0471163
208,골프연습장업,프리마스크린골프(417),영업중,서울특별시 강남구 청담동 52-16번지 정화빌딩,"서울특별시 강남구 도산대로94길 19 (청담동,정화빌딩)",강남구,청담동,37.5240819,127.0516007
209,골프연습장업,골프존파크 역삼강남역점,영업중,서울특별시 강남구 역삼동 648 지층,서울특별시 강남구 테헤란로7길 12 (역삼동),강남구,역삼동,37.5000258,127.0309455
210,골프연습장업,제이 스크린 골프존,영업중,서울특별시 강남구 대치동 938번지 삼환아르누보2(B2),서울특별시 강남구 도곡로 405 (대치동),강남구,대치동,37.4974385,127.0546376
211,골프연습장업,더플레이어스(스크린)(354),영업중,서울특별시 강남구 삼성동 151-5번지 세원빌딩 지층,"서울특별시 강남구 삼성로 540 (삼성동,세원빌딩 지층)",강남구,삼성동,37.5100709,127.0553525
212,골프연습장업,신일골프연습장(33),영업중,서울특별시 강남구 개포동 186-13번지,"서울특별시 강남구 개포로 504 (개포동, 신일빌딩)",강남구,개포동,37.48896250000001,127.0671019
213,골프연습장업,효성(실외)(113),영업중,서울특별시 강남구 청담동 3번지,"서울특별시 강남구 도산대로 420 (청담동, LG청담빌딩)",강남구,청담동,37.5230411,127.0419873
214,골프연습장업,다우리(154),영업중,서울특별시 강남구 역삼동 837-36번지,"서울특별시 강남구 강남대로 308 (역삼동, 랜드마크타워)",강남구,역삼동,37.4906685,127.0317917
215,골프연습장업,역삼골프아카데미(368),영업중,서울특별시 강남구 역삼동 834-40번지 지층,"서울특별시 강남구 역삼로8길 11  (역삼동,지층)",강남구,역삼동,37.4934298,127.0339598
216,골프연습장업,프로(166),영업중,서울특별시 강남구 대치동 511번지 미도상가2층,"서울특별시 강남구 남부순환로 3032 (대치동, 대치지구대)",강남구,대치동,37.494831,127.062743
217,골프연습장업,이동철골프교실(297),영업중,서울특별시 강남구 논현동 271-1번지 지층,서울특별시 강남구 선릉로115길 33 (논현동),강남구,논현동,37.5176506,127.0282144
218,골프연습장업,주식회사 강남투엑스휘트니스(575),영업중,서울특별시 강남구 논현동 111-13번지 지하1층 일부호,"서울특별시 강남구 선릉로131길 8, 지하1층 일부호 (논현동, 노벨빌딩)",강남구,논현동,37.5179802,127.0402658
219,골프연습장업,조현 골프 아카데미(574)[스크린1룸],영업중,서울특별시 강남구 청담동 44-19번지 지하1층,"서울특별시 강남구 학동로63길 6, 지하1층 (청담동)",강남구,청담동,37.518429,127.0450433
220,골프연습장업,리베라스크린골프(577)[스크린룸2타석],영업중,서울특별시 강남구 청담동 53-7번지 B2층 일부호,"서울특별시 강남구 영동대로 737, B2층 일부호 (청담동, 호텔리베라)",강남구,청담동,37.5243989,127.0504777
221,골프연습장업,에이틴 에이치(579)[스크린룸2타석],영업중,서울특별시 강남구 역삼동 683-10 지하1층,"서울특별시 강남구 선릉로 567, 지하1층 (역삼동, 대운)",강남구,역삼동,37.5090809,127.0440555
222,골프연습장업,서커스텀 골프랩(580),영업중,서울특별시 강남구 신사동 566-30번지 지하1층,"서울특별시 강남구 논현로159길 9, 지하1층 (신사동)",강남구,신사동,37.5229033,127.0273862
223,골프연습장업,대치TPC골프존[스크린룸6],영업중,서울특별시 강남구 대치동 1021-12번지 지하1층,"서울특별시 강남구 도곡로 456, 지하1층 (대치동)",강남구,대치동,37.4982956,127.0603287
224,골프연습장업,지 라운지(582),영업중,서울특별시 강남구 자곡동 638번지 B01호,"서울특별시 강남구 자곡로 120, B01호 (자곡동, 세곡드림프라자)",강남구,자곡동,37.4721173,127.0965093
225,골프연습장업,피트니스나인,영업중,서울특별시 강남구 도곡동 957-11 지하2층 일부호,"서울특별시 강남구 남부순환로 2615, 지하2층 일부호 (도곡동, 극동스타클래스)",강남구,도곡동,37.4851442,127.0357571
226,골프연습장업,제이원 휘트니스,영업중,서울특별시 강남구 역삼동 736-24 지하 1층,"서울특별시 강남구 테헤란로20길 19 (역삼동,지하 1층)",강남구,역삼동,37.498543,127.0350412
227,골프연습장업,탑휘트니스(282),영업중,서울특별시 강남구 논현동 268-4번지 B1,"서울특별시 강남구 선릉로 619 (논현동,B1)",강남구,논현동,37.5136787,127.0317124
228,골프연습장업,오케이골프아카데미(283),영업중,서울특별시 강남구 대치동 968-6번지,서울특별시 강남구 영동대로 329 (대치동),강남구,대치동,37.4991887,127.0633458
229,골프연습장업,골프랑 실내골프(284),영업중,서울특별시 강남구 신사동 532-8번지 예 빌딩(지하1층),"서울특별시 강남구 압구정로12길 20  (신사동,예 빌딩(지하1층))",강남구,신사동,37.522791,127.022272
230,골프연습장업,OK토탈 휘트니스(285),영업중,서울특별시 강남구 역삼동 831-3번지 한국빌딩 지하2층,"서울특별시 강남구 강남대로78길 8 (역삼동,한국빌딩 지하2층)",강남구,역삼동,37.4947875,127.0300669
231,골프연습장업,스포라이프(289)[스크린 1포함],영업중,서울특별시 강남구 논현동 66-9번지 지하 1층,"서울특별시 강남구 논현로 748 (논현동,지하 1층)",강남구,논현동,37.5187221,127.0290947
232,골프연습장업,우성스포츠센터(295),영업중,서울특별시 강남구 일원동 615,서울특별시 강남구 개포로110길 15 (일원동),강남구,일원동,37.4922926,127.0783273
233,골프연습장업,스택앤틸트 골프연습장,영업중,서울특별시 강남구 역삼동 735-15번지,"서울특별시 강남구 테헤란로14길 13, 지하1층 (역삼동)",강남구,역삼동,37.4985274,127.0334825
234,골프연습장업,압구정골프스쿨(261),영업중,서울특별시 강남구 압구정동 455번지 지하1층,"서울특별시 강남구 압구정로29길 68 (압구정동,지하1층)",강남구,압구정동,37.5319756,127.0285632
235,골프연습장업,S골프 아카데미,영업중,서울특별시 강남구 논현동 181-8번지 지하1층,"서울특별시 강남구 강남대로118길 47 (논현동,지하1층)",강남구,논현동,37.5075029,127.0268078
236,골프연습장업,패밀리(84),영업중,서울특별시 강남구 대치동 940-6번지,서울특별시 강남구 도곡로77길 7 (대치동),강남구,대치동,37.4988033,127.0583171
237,골프연습장업,위너3D 골프연습장,영업중,서울특별시 강남구 도곡동 941번지 오복빌딩 지하1층,"서울특별시 강남구 도곡로 126 (도곡동,오복빌딩 지하1층)",강남구,도곡동,37.4900452,127.0342162
238,골프연습장업,조인로드(268),영업중,서울특별시 강남구 일원동 679번지 지하1층,"서울특별시 강남구 양재대로33길 14 (일원동,지하1층)",강남구,일원동,37.4906198,127.0830605
239,골프연습장업,상아골프아카데미(269),영업중,서울특별시 강남구 삼성동 20-4번지 지하1층,"서울특별시 강남구 삼성로119길 14 (삼성동,지하1층)",강남구,삼성동,37.5160444,127.0503312
240,골프연습장업,제일골프아카데미(270),영업중,서울특별시 강남구 개포동 660-4번지 지상1층,"서울특별시 강남구 개포로 310 (개포동,지상1층)",강남구,개포동,37.4868621,127.0645824
241,골프연습장업,상록수골프클리닉(272),영업중,서울특별시 강남구 일원동 734번지 상록수상가 지층,"서울특별시 강남구 광평로10길 15 (일원동,상록수상가 지층)",강남구,일원동,37.4819336,127.082142
242,골프연습장업,원짐(ONE GYM) 휘트니스[151],영업중,서울특별시 강남구 역삼동 823-3번지 B2,"서울특별시 강남구 테헤란로8길 7 (역삼동,B2)",강남구,역삼동,37.498425,127.0316961
243,골프연습장업,뉴골드(97),영업중,서울특별시 강남구 개포동 186-5번지 지하1층,"서울특별시 강남구 개포로82길 13-11  (개포동,지하1층)",강남구,개포동,37.4887258,127.0681319
244,골프연습장업,강금석 골프스쿨(199),영업중,서울특별시 강남구 대치동 924-9번지 지하1층,"서울특별시 강남구 선릉로64길 23 (대치동,지하1층)",강남구,대치동,37.4983093,127.0541735
245,골프연습장업,"쌍용골프(140, 스크린1포함)",영업중,서울특별시 강남구 대치동 66번지,서울특별시 강남구 영동대로 210 (대치동),강남구,대치동,37.4965381,127.0613449
246,골프연습장업,맥스Golf,영업중,서울특별시 강남구 신사동 511-9,서울특별시 강남구 강남대로156길 24 (신사동),강남구,신사동,37.51835579999999,127.0210857
247,골프연습장업,이지골프,영업중,서울특별시 강남구 대치동 1022번지 상아빌딩 지하1층,서울특별시 강남구 도곡로 438 (대치동),강남구,대치동,37.4978146,127.0584142
248,골프연습장업,투엑스 휘트니스(508),영업중,서울특별시 강남구 대치동 507-2번지 지하2층,"서울특별시 강남구 삼성로 155 (대치동,지하2층)",강남구,대치동,37.4938284,127.062941
249,골프연습장업,하이트골프존(스크린)(486),영업중,서울특별시 강남구 청담동 132-16번지 지하1층,"서울특별시 강남구 학동로101길 15 (청담동, 청구 빌딩)",강남구,청담동,37.5218433,127.057344
250,골프연습장업,어틀런트골프,영업중,서울특별시 강남구 삼성동 113-6번지,서울특별시 강남구 봉은사로 430 (삼성동),강남구,삼성동,37.51087709999999,127.0471163
251,골프연습장업,원일골프연습장(483),영업중,서울특별시 강남구 대치동 992-2번지 지하1층,"서울특별시 강남구 도곡로 538  (대치동,지하1층)",강남구,대치동,37.50024860000001,127.0659925
252,골프연습장업,팡팡 골프존,영업중,서울특별시 강남구 역삼동 771-18번지 지하1층,서울특별시 강남구 언주로71길 32 (역삼동),강남구,역삼동,37.4968094,127.0425133
253,골프연습장업,강남스크린골프(489)[스크린3포함],영업중,서울특별시 강남구 삼성동 1-1번지 천마빌딩 지하101호,"서울특별시 강남구 학동로 402 (삼성동, 천마빌딩)",강남구,삼성동,37.516955,127.0417748
254,골프연습장업,고투 수서점 골프,영업중,서울특별시 강남구 개포동 12-4 석탑프라자 7층,"서울특별시 강남구 개포로 615 (개포동, 석탑프라자)",강남구,개포동,37.4893596,127.0683272
255,골프연습장업,골프존아카데미(491),영업중,서울특별시 강남구 삼성동 143-39번지 신일빌딩 지하1층,"서울특별시 강남구 테헤란로 425 (삼성동,신일빌딩 지하1층)",강남구,삼성동,37.50627739999999,127.0533705
256,골프연습장업,스포츠셀프코칭 골프(492),영업중,서울특별시 강남구 도곡동 543-7번지 도곡1차 아이파크상가 109-1호,서울특별시 강남구 논현로58길 20 (도곡동),강남구,도곡동,37.492706,127.0522733
257,골프연습장업,대치 인,영업중,서울특별시 강남구 대치동 316번지 은마상가 편의동 103호,"서울특별시 강남구 삼성로 212, 편의동동 103호 (대치동, 은마상가)",강남구,대치동,37.4974176,127.0653272
258,골프연습장업,JM힐링골프(513)-[1 스크린 포함],영업중,서울특별시 강남구 일원동 615번지 지층,"서울특별시 강남구 개포로110길 15 (일원동, 우성7차아파트)",강남구,일원동,37.4922926,127.0783273
259,골프연습장업,골프스토리,영업중,서울특별시 강남구 율현동 101-13번지 B동 지하1층,"서울특별시 강남구 헌릉로745길 37 (율현동,B동 지하1층)",강남구,율현동,37.470254,127.1184614
260,골프연습장업,제이앤드제이(GDR) 골프아카데미,영업중,서울특별시 강남구 논현동 152-5번지,"서울특별시 강남구 논현로 641 (논현동, 논현동대우아이빌 힐타운)",강남구,논현동,37.5108647,127.0317827
261,골프연습장업,골프존아카데미 강남점,영업중,서울특별시 강남구 역삼동 823-16번지 역삼823빌딩 지하2층,서울특별시 강남구 논현로85길 70 (역삼동),강남구,역삼동,37.4977744,127.0324673
262,골프연습장업,잼잼스크린골프(520),영업중,서울특별시 강남구 논현동 81-1번지 지하1층,"서울특별시 강남구 논현로 712 (논현동, 동호빌딩)",강남구,논현동,37.5157086,127.0302714
263,골프연습장업,스토리짐(521)(스크린),영업중,서울특별시 강남구 삼성동 21-4번지 지하1층,"서울특별시 강남구 삼성로 633 (삼성동, 삼광빌딩)",강남구,삼성동,37.5145427,127.0636849
264,골프연습장업,논현역점 스포애니 주)케이디스포츠,영업중,"서울특별시 강남구 논현동 122-8 동화상가1 B05호, B06호","서울특별시 강남구 학동로4길 15, B05호, B06호 (논현동, 동화상가1)",강남구,논현동,37.5105327,127.0235227
265,골프연습장업,어반골프스튜디오,영업중,서울특별시 강남구 논현동 107-45번지,"서울특별시 강남구 학동로43길 35, 지하1층 (논현동)",강남구,논현동,37.5184685,127.0376474
266,골프연습장업,Team S 골프아카데미,영업중,서울특별시 강남구 역삼동 736-56번지 스타빌딩,"서울특별시 강남구 테헤란로26길 12, 스타빌딩 지하2층 (역삼동)",강남구,역삼동,37.4994367,127.0358496
267,골프연습장업,미도골프(160),영업중,서울특별시 강남구 대치동 511번지,서울특별시 강남구 남부순환로 3032 (대치동),강남구,대치동,37.493668,127.0619
268,골프연습장업,동경(180),영업중,서울특별시 강남구 도곡동 553번지 창우빌딩,"서울특별시 강남구 도곡로 130, 창우빌딩 (도곡동)",강남구,도곡동,37.4902001,127.0345708
269,골프연습장업,논현종합(실외)(6),영업중,서울특별시 강남구 논현동 40번지,서울특별시 강남구 학동로17길 12 (논현동),강남구,논현동,37.5138906,127.0261525
270,골프연습장업,VIP 골프 스쿨,영업중,서울특별시 강남구 논현동 236-7번지,서울특별시 강남구 봉은사로 225 (논현동),강남구,논현동,37.5084724,127.0367334
271,골프연습장업,W골프(157)[스크린1 포함],영업중,서울특별시 강남구 신사동 609-1번지 지하3층,"서울특별시 강남구 압구정로30길 23 (신사동,지하3층)",강남구,신사동,37.52594819999999,127.0294613
272,골프연습장업,2H 골프 스튜디오,영업중,서울특별시 강남구 대치동 953-16번지 지하1층,"서울특별시 강남구 역삼로 529, 지하1층 (대치동, 금마빌딩)",강남구,대치동,37.5040245,127.0608626
273,골프연습장업,골프스튜디오 두잉(572),영업중,서울특별시 강남구 도곡동 422-4번지 B1층,"서울특별시 강남구 논현로28길 56, B1층 (도곡동)",강남구,도곡동,37.4846222,127.0463902
274,골프연습장업,애니골프강남라운지(432)[스크린],영업중,서울특별시 강남구 역삼동 828-7번지 한동B/D B1,"서울특별시 강남구 테헤란로8길 37 (역삼동, 한동빌딩 사옥)",강남구,역삼동,37.4965443,127.032494
275,골프연습장업,스포나인스크린골프(435),영업중,"서울특별시 강남구 역삼동 688-1번지 3F, 4F","서울특별시 강남구 언주로108길 6 (역삼동,3F, 4F)",강남구,역삼동,37.5078061,127.0400831
276,골프연습장업,DMT골프아카데미(스크린)(437),영업중,서울특별시 강남구 논현동 249-6번지 논현로얄팰리스 지하 102호,"서울특별시 강남구 언주로 626 (논현동,논현로얄팰리스 지하 102호)",강남구,논현동,37.5124591,127.0359654
277,골프연습장업,현대(165),영업중,서울특별시 강남구 압구정동 481번지 현대8차상가a 동 지하,"서울특별시 강남구 압구정로 309  (압구정동,현대8차상가a 동 지하)",강남구,압구정동,37.53121429999999,127.0354395
278,골프연습장업,짐퍼스트 휘트니스 수서,영업중,서울특별시 강남구 수서동 724번지 로즈데일 1층,"서울특별시 강남구 광평로 280 (수서동, 로즈데일오피스텔)",강남구,수서동,37.4873425,127.1030015
279,골프연습장업,화끈한골프(459)(스크린),영업중,서울특별시 강남구 삼성동 142-34번지 2층,서울특별시 강남구 선릉로92길 28 (삼성동),강남구,삼성동,37.5141798,127.0468995
280,골프연습장업,마크짐(압구정역점),영업중,서울특별시 강남구 신사동 583-3번지 미소빌딩 지하2층,"서울특별시 강남구 논현로 841 (신사동, 제이비 미소빌딩)",강남구,신사동,37.5240574,127.0279161
281,골프연습장업,구상스크린골프(462),영업중,서울특별시 강남구 대치동 1009-5번지 지하1층,"서울특별시 강남구 영동대로 302 (대치동, 국민제1빌딩)",강남구,대치동,37.5015166,127.0677682
282,골프연습장업,헬리오스 골프(463)(1스크린 포함),영업중,서울특별시 강남구 논현동 236-8번지 세울 스타스 관광호텔 6층,"서울특별시 강남구 봉은사로 223 (논현동, 슈메르호텔)",강남구,논현동,37.506801,127.0314853
283,골프연습장업,리치(251),영업중,서울특별시 강남구 역삼동 792-81번지 지하1층,"서울특별시 강남구 논현로67길 30 (역삼동,지하1층)",강남구,역삼동,37.4937488,127.0374551
284,골프연습장업,골프로(232),영업중,서울특별시 강남구 대치동 962-22번지 지하1층,"서울특별시 강남구 삼성로 336 (대치동, 한림빌딩)",강남구,대치동,37.506127,127.0600466
285,골프연습장업,리츠스크린골프(405),영업중,서울특별시 강남구 논현동 242-29번지 지층,"서울특별시 강남구 선릉로 667 (논현동,지층)",강남구,논현동,37.5136787,127.0317124
286,골프연습장업,에이원스크린골프(410),영업중,서울특별시 강남구 역삼동 683-26번지 선릉빌딩 지층,"서울특별시 강남구 선릉로 555 (역삼동,선릉빌딩 지층)",강남구,역삼동,37.508044,127.0448725
287,골프연습장업,디온스크린골프대치(412),영업중,서울특별시 강남구 대치동 893-7번지 지하1층,"서울특별시 강남구 삼성로81길 6 (대치동, 가야빌딩)",강남구,대치동,37.5047852,127.0570813
288,골프연습장업,유휘트니스(247),영업중,서울특별시 강남구 압구정동 408번지,서울특별시 강남구 압구정로 113  (압구정동),강남구,압구정동,37.5239465,127.0182545
289,골프연습장업,박은희골프스쿨(249),영업중,서울특별시 강남구 청담동 132-16번지 지하1층,"서울특별시 강남구 학동로101길 15, 지하1층 (청담동)",강남구,청담동,37.5218433,127.057344
290,골프연습장업,대청스크린골프(510),영업중,서울특별시 강남구 개포동 13-3번지,"서울특별시 강남구 개포로 623 (개포동, 대청타워)",강남구,개포동,37.4940992,127.0796795
291,골프연습장업,"투엑스 골프존(509, 스크린)",영업중,서울특별시 강남구 대치동 507-2번지 지하2층,"서울특별시 강남구 삼성로 155 (대치동, 대치퍼스트빌딩)",강남구,대치동,37.4938284,127.062941
292,골프연습장업,마음골프학교[스크린](531),영업중,서울특별시 강남구 논현동 203번지 751빌딩 2층,서울특별시 강남구 봉은사로 129-1 (논현동),강남구,논현동,37.5061087,127.0281855
293,골프연습장업,힐리언스골프인(스크린)(532),영업중,서울특별시 강남구 삼성동 163-1번지 별관 지하1층,서울특별시 강남구 봉은사로 644 (삼성동),강남구,삼성동,37.5148921,127.0656194
294,골프연습장업,김홍기골프아카데미(533)[스크린],영업중,서울특별시 강남구 논현동 206-14번지 지하1층,서울특별시 강남구 봉은사로 163 (논현동),강남구,논현동,37.5070558,127.0322295
295,골프연습장업,(주)케이에스 스포짐컴퍼니,영업중,서울특별시 강남구 대치동 1024번지 지하1층,"서울특별시 강남구 도곡로 408 (대치동, 지하1층)",강남구,대치동,37.4966877,127.0552639
296,골프연습장업,GS골프클럽(536),영업중,서울특별시 강남구 논현동 115-4번지 지하1층,서울특별시 강남구 언주로134길 18 (논현동),강남구,논현동,37.5145406,127.0203983
297,골프연습장업,렛츠겟휘트니스골프(538),영업중,서울특별시 강남구 역삼동 651-3번지 지하2층,"서울특별시 강남구 봉은사로 214 (역삼동, 지하2층)",강남구,역삼동,37.5075422,127.0357834
298,골프연습장업,오렌지스크린골프장(539),영업중,서울특별시 강남구 역삼동 761-18번지 강남프라자 B101~B106,서울특별시 강남구 언주로 314 (역삼동),강남구,역삼동,37.5000776,127.0385419
299,골프연습장업,이상골프아카데미,영업중,서울특별시 강남구 청담동 119-9번지,"서울특별시 강남구 도산대로81길 5, B1층 (청담동)",강남구,청담동,37.52483,127.0478138
300,골프연습장업,청솔(171),영업중,서울특별시 강남구 대치동 988-15번지,서울특별시 강남구 도곡로 505 (대치동),강남구,대치동,37.4995633,127.0616676
301,골프연습장업,로얄골프클럽,영업중,서울특별시 강남구 대치동 984번지,서울특별시 강남구 도곡로99길 16 (대치동),강남구,대치동,37.5018594,127.0660032
302,골프연습장업,신현대스크린골프(450),영업중,서울특별시 강남구 신사동 574-8번지 지하1층,서울특별시 강남구 논현로175길 40 (신사동),강남구,신사동,37.5250912,127.0253317
303,골프연습장업,M스크린골프연습장(451),영업중,서울특별시 강남구 역삼동 837-9번지 지하1층,"서울특별시 강남구 강남대로62길 3 (역삼동, 한진빌딩)",강남구,역삼동,37.4903683,127.0318598
304,골프연습장업,"스타휘트니스(452, 골프연습장)",영업중,서울특별시 강남구 역삼동 736-56번지 지하1층,"서울특별시 강남구 테헤란로26길 12 (역삼동,지하1층)",강남구,역삼동,37.4994367,127.0358496
305,골프연습장업,청담,영업중,서울특별시 강남구 삼성동 52-1번지,서울특별시 강남구 삼성로 648 (삼성동),강남구,삼성동,37.51397499999999,127.0561274
306,골프연습장업,우정,영업중,서울특별시 강남구 역삼동 798-15번지,서울특별시 강남구 논현로 305 (역삼동),강남구,역삼동,37.4927465,127.040377
307,골프연습장업,매봉,영업중,서울특별시 강남구 도곡동 419-4번지,서울특별시 강남구 남부순환로378길 14 (도곡동),강남구,도곡동,37.4852929,127.0459054
308,골프연습장업,알에스지(스크린)(440),영업중,서울특별시 강남구 신사동 660-6번지 B1,서울특별시 강남구 압구정로 330 (신사동),강남구,신사동,37.5282475,127.0376416
309,골프연습장업,그랜드 스크린 골프,영업중,서울특별시 강남구 도곡동 542-1번지 지하2층,서울특별시 강남구 도곡로 218 (도곡동),강남구,도곡동,37.48859059999999,127.0452757
310,골프연습장업,스크린골프 스타(442),영업중,서울특별시 강남구 역삼동 646-13번지 삼안빌딩 지하1층,"서울특별시 강남구 강남대로94길 94 (역삼동,삼안빌딩 지하1층)",강남구,역삼동,37.5007939,127.0348547
311,골프연습장업,노블스크린골프(444),영업중,서울특별시 강남구 대치동 889-45번지 지하1층,"서울특별시 강남구 선릉로 426 (대치동, 영선빌딩)",강남구,대치동,37.4991887,127.0633458
312,골프연습장업,골든그립(590),영업중,서울특별시 강남구 역삼동 718-34번지,"서울특별시 강남구 논현로86길 25, 1층 (역삼동)",강남구,역삼동,37.5004057,127.0394424
313,골프연습장업,비바골프,영업중,서울특별시 강남구 청담동 31-11번지,"서울특별시 강남구 삼성로 727, 지하1층 (청담동, 보담빌딩)",강남구,청담동,37.5203473,127.0489361
314,골프연습장업,Jeff's Golf(584),영업중,서울특별시 강남구 청담동 86-5번지,"서울특별시 강남구 도산대로55길 7 (청담동, 상두 빌딩)",강남구,청담동,37.5239856,127.0400758
315,골프연습장업,로체(스크린)(448),영업중,서울특별시 강남구 청담동 37-13번지 지하1층,"서울특별시 강남구 선릉로132길 27 (청담동,지하1층)",강남구,청담동,37.5185642,127.0434135
316,골프연습장업,신사골프스튜디오,영업중,서울특별시 강남구 신사동 594-13,서울특별시 강남구 도산대로37길 21 (신사동),강남구,신사동,37.5224862,127.0311722
317,골프연습장업,고트(G.O.A.T),영업중,서울특별시 강남구 청담동 83-2,"서울특별시 강남구 도산대로55길 48, 지하1층 (청담동)",강남구,청담동,37.5254374,127.0407499
318,골프연습장업,파앤슈어 골프스쿨,영업중,서울특별시 강남구 삼성동 151-7 싹아트센터,"서울특별시 강남구 삼성로 534, 싹아트센터 5층 (삼성동)",강남구,삼성동,37.5097337,127.0556437
319,골프연습장업,제이원 골프 아카데미,영업중,서울특별시 강남구 논현동 183 부경빌딩,"서울특별시 강남구 강남대로118길 12, 부경빌딩 지하1층 (논현동)",강남구,논현동,37.506317,127.0247442
320,골프연습장업,에이틴에이치 코엑스점,영업중,서울특별시 강남구 삼성동 153-38,"서울특별시 강남구 삼성로100길 23-24, 2층 (삼성동)",강남구,삼성동,37.5108286,127.0571638
321,당구장업,신사(217),영업중,서울특별시 강남구 논현동 16-1번지,서울특별시 강남구 강남대로150길 10  (논현동),강남구,논현동,37.5172864,127.0248815
322,당구장업,땡큐당구클럽(271),영업중,서울특별시 강남구 도곡동 425-3번지,서울특별시 강남구 논현로28길 6 (도곡동),강남구,도곡동,37.4918199,127.04796
323,당구장업,백마당구장(715),영업중,서울특별시 강남구 도곡동 515-12번지,서울특별시 강남구 논현로30길 25 (도곡동),강남구,도곡동,37.4904187,127.0494803
324,당구장업,황제(898),영업중,서울특별시 강남구 역삼동 808-5번지,서울특별시 강남구 강남대로 468 (역삼동),강남구,역삼동,37.5000776,127.0385419
325,당구장업,서경(59),영업중,서울특별시 강남구 개포동 167-3번지 3층,"서울특별시 강남구 선릉로 32 (개포동,3층)",강남구,개포동,37.48278579999999,127.0610504
326,당구장업,팜당구장(899),영업중,서울특별시 강남구 수서동 726-3번지,서울특별시 강남구 광평로56길 14  (수서동),강남구,수서동,37.4868055,127.104042
327,당구장업,나이스 당구장(1169),영업중,서울특별시 강남구 역삼동 770-11 (B1),"서울특별시 강남구 역삼로 230  (역삼동,(B1))",강남구,역삼동,37.4968936,127.0419635
328,당구장업,프로2000당구클럽(1177),영업중,서울특별시 강남구 개포동 1218-20번지 두로빌딩 2층,"서울특별시 강남구 개포로22길 27  (개포동,두로빌딩 2층)",강남구,개포동,37.4773413,127.0489937
329,당구장업,삼성당구장(1182),영업중,서울특별시 강남구 역삼동 832번지 에셈타워 B101호,"서울특별시 강남구 강남대로 334, B101호 (역삼동, SM타워)",강남구,역삼동,37.49297749999999,127.0304206
330,당구장업,조이빌리아드클럽(1172),영업중,서울특별시 강남구 역삼동 819-1 지하1층,"서울특별시 강남구 강남대로94길 14 (역삼동,지하1층)",강남구,역삼동,37.4993152,127.0285576
331,당구장업,원 큐 당구장,영업중,서울특별시 강남구 역삼동 773-8번지 지하1층,"서울특별시 강남구 언주로 323 (역삼동,지하1층)",강남구,역삼동,37.5000776,127.0385419
332,당구장업,현대당구장,영업중,서울특별시 강남구 삼성동 168번지 지하1층,"서울특별시 강남구 영동대로 510, 지하1층 (삼성동)",강남구,삼성동,37.5105425,127.0628806
333,당구장업,청실(685),영업중,서울특별시 강남구 대치동 623번지 서울상가 3층,"서울특별시 강남구 남부순환로 2921  (대치동,서울상가 3층)",강남구,대치동,37.4936059,127.0597001
334,당구장업,삼성(29),영업중,서울특별시 강남구 대치동 946-15번지,서울특별시 강남구 영동대로85길 6 (대치동),강남구,대치동,37.5074344,127.0629265
335,당구장업,에스피당구장(822),영업중,서울특별시 강남구 수서동 726번지 2층 2호,"서울특별시 강남구 광평로56길 10  (수서동,2층 2호)",강남구,수서동,37.4870959,127.1038039
336,당구장업,이엠(800),영업중,서울특별시 강남구 논현동 165-8번지,서울특별시 강남구 강남대로 492  (논현동),강남구,논현동,37.5136787,127.0317124
337,당구장업,그린(61),영업중,서울특별시 강남구 역삼동 788-33번지,서울특별시 강남구 도곡로27길 3 (역삼동),강남구,역삼동,37.4931933,127.0420321
338,당구장업,허슬러(26),영업중,서울특별시 강남구 청담동 49-8번지,서울특별시 강남구 도산대로 514 (청담동),강남구,청담동,37.5240095,127.0492481
339,당구장업,강남 당구아카데미[207],영업중,서울특별시 강남구 대치동 889-65번지 지하1층,"서울특별시 강남구 선릉로86길 5-4, 지하1층 (대치동)",강남구,대치동,37.5034783,127.0502361
340,당구장업,SG당구클럽(1181),영업중,서울특별시 강남구 역삼동 729-39번지 지하1층,"서울특별시 강남구 역삼로37길 11  (역삼동,지하1층)",강남구,역삼동,37.4986414,127.0428256
341,당구장업,포커스(648),영업중,서울특별시 강남구 청담동 53-8번지,서울특별시 강남구 영동대로 741  (청담동),강남구,청담동,37.5243933,127.0538813
342,당구장업,월드 당구클럽,영업중,서울특별시 강남구 도곡동 943-2번지,"서울특별시 강남구 도곡로 112, 지하1층 (도곡동, 서한빌딩)",강남구,도곡동,37.48965570000001,127.0328555
343,당구장업,플러스(1196),영업중,서울특별시 강남구 논현동 127-1 지하2층,"서울특별시 강남구 학동로 160  (논현동,지하2층)",강남구,논현동,37.5130045,127.028497
344,당구장업,럭키당구클럽(1072),영업중,서울특별시 강남구 도곡동 411-20 지층,"서울특별시 강남구 남부순환로 2738  (도곡동,지층)",강남구,도곡동,37.4859562,127.0454309
345,당구장업,가보빌리어드클럽,영업중,서울특별시 강남구 역삼동 823-24번지 남도빌딩 지하1층,"서울특별시 강남구 테헤란로14길 6 (역삼동,남도빌딩 지하1층)",강남구,역삼동,37.4990106,127.0328414
346,당구장업,초록당구장(1014),영업중,서울특별시 강남구 대치동 909-1번지 지하1층,"서울특별시 강남구 역삼로 420 (대치동,지하1층)",강남구,대치동,37.5010257,127.0528917
347,당구장업,프로24시 당구클럽(1279),영업중,서울특별시 강남구 대치동 897-13번지 지하2층,"서울특별시 강남구 선릉로86길 10, 지하2층 (대치동)",강남구,대치동,37.5030598,127.0506839
348,당구장업,올리브당구장,영업중,서울특별시 강남구 역삼동 824-11 한라클래식오피스텔,"서울특별시 강남구 강남대로84길 23, 한라클래식오피스텔 109~114호 (역삼동)",강남구,역삼동,37.4971347,127.0303771
349,당구장업,아지트 당구클럽,영업중,서울특별시 강남구 논현동 98-12번지 나동 지하층 B01호,"서울특별시 강남구 언주로148길 14, 나동 B01호 (논현동, 청호불교문화원)",강남구,논현동,37.5204069,127.0360954
350,당구장업,1박2일(1203),영업중,서울특별시 강남구 개포동 1217-6 지하1층,"서울특별시 강남구 개포로 240, 지하1층 (개포동)",강남구,개포동,37.4787899,127.0489741
351,당구장업,스포츠(941),영업중,서울특별시 강남구 대치동 900번지 지상4층,"서울특별시 강남구 역삼로63길 24  (대치동,지상4층)",강남구,대치동,37.5027914,127.0520055
352,당구장업,CC 당구장(캐롬 클럽),영업중,서울특별시 강남구 일원동 645-12번지 지하1층,"서울특별시 강남구 일원로9길 76 (일원동,지하1층)",강남구,일원동,37.4910261,127.0876959
353,당구장업,한솔당구클럽,영업중,서울특별시 강남구 역삼동 681-1 지하1층,"서울특별시 강남구 봉은사로44길 1, 지하1층 (역삼동)",강남구,역삼동,37.5088671,127.0403489
354,당구장업,MVL(엠블)빌리어드,영업중,서울특별시 강남구 역삼동 721 지하1층 1호,"서울특별시 강남구 언주로85길 7, 지하1층 1호 (역삼동, 서원빌딩)",강남구,역삼동,37.5010461,127.0426414
355,당구장업,다빈치 당구클럽(1274),영업중,서울특별시 강남구 대치동 936번지 지하층,"서울특별시 강남구 선릉로 312, 지하층 (대치동)",강남구,대치동,37.4991887,127.0633458
356,당구장업,프로 25(1275),영업중,서울특별시 강남구 역삼동 696-18,"서울특별시 강남구 선릉로93길 8, 3층 (역삼동)",강남구,역삼동,37.5055906,127.0476985
357,당구장업,죽방전설당구장(1276),영업중,서울특별시 강남구 역삼동 700-32번지 B1층,서울특별시 강남구 언주로94길 15 (역삼동),강남구,역삼동,37.5044766,127.0434719
358,당구장업,JS 당구장(1120),영업중,서울특별시 강남구 논현동 144-8번지 지층,"서울특별시 강남구 학동로2길 39 (논현동,지층)",강남구,논현동,37.5090823,127.0234507
359,당구장업,NB당구장(1123),영업중,서울특별시 강남구 논현동 268-3번지 지층,"서울특별시 강남구 선릉로 623 (논현동,지층)",강남구,논현동,37.5136787,127.0317124
360,당구장업,쉐빌로뜨당구클럽,영업중,서울특별시 강남구 논현동 203번지 지하1층,"서울특별시 강남구 봉은사로 129-1 (논현동,지하1층)",강남구,논현동,37.5061087,127.0281855
361,당구장업,에시뉴(938),영업중,서울특별시 강남구 역삼동 785-13번지,서울특별시 강남구 언주로 301  (역삼동),강남구,역삼동,37.5000776,127.0385419
362,당구장업,아라의 당구홀릭,영업중,서울특별시 강남구 역삼동 738-19번지 제일빌딩 지하1층,"서울특별시 강남구 역삼로17길 54 (역삼동,제일빌딩 지하1층)",강남구,역삼동,37.4983055,127.036576
363,당구장업,스카이당구장(1020),영업중,서울특별시 강남구 일원동 666번지 3층,"서울특별시 강남구 일원로9길 22  (일원동,3층)",강남구,일원동,37.4897372,127.0833384
364,당구장업,불랙당구장(420),영업중,서울특별시 강남구 역삼동 798-29번지 지하1층,"서울특별시 강남구 논현로63길 19 (역삼동,지하1층)",강남구,역삼동,37.4924882,127.0393437
365,당구장업,골드24시(1022),영업중,서울특별시 강남구 삼성동 155-13 송영빌딩,"서울특별시 강남구 삼성로96길 15, 송영빌딩 (삼성동)",강남구,삼성동,37.509071,127.0571023
366,당구장업,큐스포츠 당구클럽,영업중,서울특별시 강남구 개포동 1260-14,"서울특별시 강남구 개포로25길 6, 지하1,2호 (개포동)",강남구,개포동,37.4793292,127.0485448
367,당구장업,A-PRO당구장(834),영업중,서울특별시 강남구 논현동 241-5번지,서울특별시 강남구 학동로 342 (논현동),강남구,논현동,37.5166861,127.0405907
368,당구장업,프로당구장(1237),영업중,서울특별시 강남구 논현동 37-9번지 지하1층,서울특별시 강남구 논현로131길 10 (논현동),강남구,논현동,37.51218009999999,127.0303412
369,당구장업,프로24(1111),영업중,서울특별시 강남구 대치동 942-17번지 지층,"서울특별시 강남구 테헤란로84길 18  (대치동,지층)",강남구,대치동,37.5059802,127.0585708
370,당구장업,천일(550),영업중,서울특별시 강남구 대치동 961-1 B1,"서울특별시 강남구 역삼로 506 (대치동,B1)",강남구,대치동,37.5031198,127.0593737
371,당구장업,마이빌당구장(1133),영업중,서울특별시 강남구 신사동 612-1번지 지층,"서울특별시 강남구 논현로176길 14  (신사동,지층)",강남구,신사동,37.5268464,127.0297393
372,당구장업,건당구장(711),영업중,서울특별시 강남구 역삼동 827-24번지,서울특별시 강남구 테헤란로6길 48 (역삼동),강남구,역삼동,37.4955524,127.0316041
373,당구장업,블랙(420),영업중,서울특별시 강남구 역삼동 798-29번지,서울특별시 강남구 논현로63길 19  (역삼동),강남구,역삼동,37.4924882,127.0393437
374,당구장업,ALRO당구장(1134),영업중,서울특별시 강남구 삼성동 34-19번지 3층,"서울특별시 강남구 선릉로 632 (삼성동,3층)",강남구,삼성동,37.51397499999999,127.0561274
375,당구장업,대청당구장[41],영업중,서울특별시 강남구 일원동 684-5번지,서울특별시 강남구 일원로 45 (일원동),강남구,일원동,37.48991650000001,127.0815425
376,당구장업,아카데미(755),영업중,서울특별시 강남구 일원동 645-4번지,서울특별시 강남구 일원로9길 58  (일원동),강남구,일원동,37.4905884,127.086216
377,당구장업,스포츠 당구장(1214),영업중,서울특별시 강남구 논현동 64번지,서울특별시 강남구 도산대로34길 11  (논현동),강남구,논현동,37.5196231,127.0310449
378,당구장업,데이트(972),영업중,서울특별시 강남구 역삼동 826-29 지하2층,"서울특별시 강남구 테헤란로4길 32  (역삼동,지하2층)",강남구,역삼동,37.4963039,127.0301706
379,당구장업,논현 당구클럽,영업중,서울특별시 강남구 논현동 122-1 세원빌딩 지하 2층,"서울특별시 강남구 학동로 110, 지하동 2층 (논현동)",강남구,논현동,37.5113424,127.0231422
380,당구장업,동우당구클럽[1251],영업중,서울특별시 강남구 역삼동 645-19번지 지하1,"서울특별시 강남구 테헤란로19길 12, 지하1층 (역삼동)",강남구,역삼동,37.5009285,127.0336665
381,당구장업,세븐당구장(994),영업중,서울특별시 강남구 역삼동 722-3번지 진일빌딩 지하 1층,"서울특별시 강남구 언주로81길 13  (역삼동,진일빌딩 지하 1층)",강남구,역삼동,37.4999811,127.0426419
382,당구장업,M당구클럽(1256),영업중,서울특별시 강남구 역삼동 668-24번지 지하1층,"서울특별시 강남구 봉은사로30길 74, 지하1층 (역삼동)",강남구,역삼동,37.502804,127.0367189
383,당구장업,대치동 당구클럽(1257),영업중,서울특별시 강남구 대치동 977-16 지하1층,"서울특별시 강남구 삼성로64길 51, 지하1층 (대치동)",강남구,대치동,37.5011262,127.0644719
384,당구장업,신당구클럽(1258),영업중,서울특별시 강남구 일원동 645-5번지 지하1층,"서울특별시 강남구 일원로9길 60, 지하1층 (일원동)",강남구,일원동,37.4906431,127.086401
385,당구장업,다빈치당구장(1260),영업중,서울특별시 강남구 역삼동 682-7번지 지하1층,"서울특별시 강남구 봉은사로 328, 지하1층 (역삼동)",강남구,역삼동,37.509708,127.0429139
386,당구장업,김치당구클럽(1261),영업중,서울특별시 강남구 삼성동 156-13번지 지하1층,"서울특별시 강남구 삼성로100길 8, 지하1층 (삼성동)",강남구,삼성동,37.5094695,127.0560524
387,당구장업,빌리어드킴스(1262),영업중,서울특별시 강남구 역삼동 828번지 지하1층,"서울특별시 강남구 테헤란로8길 25, 지하1층 (역삼동)",강남구,역삼동,37.4972898,127.032158
388,당구장업,건우당구장(217),영업중,서울특별시 강남구 논현동 16-1번지 지하층,"서울특별시 강남구 강남대로150길 10, 지하층 (논현동)",강남구,논현동,37.5157649,127.0207105
389,당구장업,골드당구장 (1008),영업중,서울특별시 강남구 일원동 685-7,서울특별시 강남구 양재대로27길 6 (일원동),강남구,일원동,37.4909601,127.0899157
390,당구장업,수당구장(1009),영업중,서울특별시 강남구 역삼동 797-4번지 지하 1층,"서울특별시 강남구 논현로 333  (역삼동,지하 1층)",강남구,역삼동,37.4949746,127.0393841
391,당구장업,1.2.3. 당구클럽,영업중,서울특별시 강남구 삼성동 140-35,서울특별시 강남구 테헤란로63길 17 (삼성동),강남구,삼성동,37.5064845,127.0500369
392,당구장업,뱅뱅 당구클럽,영업중,서울특별시 강남구 역삼동 837-9번지,"서울특별시 강남구 강남대로62길 3 (역삼동, 한진빌딩)",강남구,역삼동,37.4903683,127.0318598
393,당구장업,두당스(1220),영업중,서울특별시 강남구 역삼동 659-5번지 지하1층,"서울특별시 강남구 논현로 552, 지하1층 (역삼동, 문화빌딩)",강남구,역삼동,37.5053995,127.0351397
394,당구장업,큐 룸,영업중,서울특별시 강남구 논현동 163-17번지 4층,"서울특별시 강남구 강남대로122길 15 (논현동,4층)",강남구,논현동,37.508151,127.0241631
395,당구장업,제우스당구클럽(1227),영업중,서울특별시 강남구 신사동 514-8 성보빌딩 3층,"서울특별시 강남구 강남대로152길 34 (신사동,성보빌딩 3층)",강남구,신사동,37.5177839,127.0221047
396,당구장업,SP(818),영업중,서울특별시 강남구 대치동 908-2번지,서울특별시 강남구 역삼로 406 (대치동),강남구,대치동,37.5005399,127.0515962
397,당구장업,SP당구장(822),영업중,서울특별시 강남구 수서동 726번지,서울특별시 강남구 광평로56길 10  (수서동),강남구,수서동,37.4870959,127.1038039
398,당구장업,스타큐 당구장(1228),영업중,서울특별시 강남구 개포동 1196-6번지 지하1층,"서울특별시 강남구 논현로12길 13, 지하1층 (개포동)",강남구,개포동,37.4747551,127.0492953
399,당구장업,포인트당구장(808),영업중,서울특별시 강남구 논현동 239-4번지,서울특별시 강남구 학동로 320  (논현동),강남구,논현동,37.5160194,127.0380873
400,당구장업,에스엠에스 당구장,영업중,서울특별시 강남구 수서동 726-3번지 하나빌딩 3층,"서울특별시 강남구 광평로56길 14 (수서동,하나빌딩 3층)",강남구,수서동,37.4868055,127.104042
401,당구장업,명문당구장(1216),영업중,서울특별시 강남구 역삼동 641번지 지하1층,"서울특별시 강남구 테헤란로25길 40, 지하1층 (역삼동)",강남구,역삼동,37.5031422,127.03503
402,당구장업,그린골프연습장,영업중,서울특별시 강남구 역삼동 754-2번지,서울특별시 강남구 역삼로52길 14  (역삼동),강남구,역삼동,37.4985291,127.0479489
403,당구장업,OK당구장(850),영업중,서울특별시 강남구 역삼동 736-49번지 지하1층,"서울특별시 강남구 논현로87길 15-8  (역삼동,지하1층)",강남구,역삼동,37.49916169999999,127.0356023
404,당구장업,라이온스당구클럽(1062),영업중,서울특별시 강남구 논현동 166번지 4층,"서울특별시 강남구 강남대로122길 10, 4층 (논현동)",강남구,논현동,37.5077022,127.024082
405,당구장업,선릉당구클럽(1069),영업중,서울특별시 강남구 대치동 889-68번지 지하2층,"서울특별시 강남구 선릉로86길 15, 지하2층 (대치동)",강남구,대치동,37.503546,127.0508294
406,당구장업,캐롬당구클럽,영업중,서울특별시 강남구 대치동 996-15 지하1층,"서울특별시 강남구 영동대로86길 21 (대치동, 태화빌딩)",강남구,대치동,37.508349,127.0658515
407,당구장업,세븐당구장,영업중,서울특별시 강남구 삼성동 119번지,"서울특별시 강남구 봉은사로 478 (삼성동, 창우빌딩)",강남구,삼성동,37.5122834,127.0517546
408,당구장업,당구존,영업중,서울특별시 강남구 삼성동 106-8번지,"서울특별시 강남구 영동대로112길 9, 2층 (삼성동, 제일빌딩)",강남구,삼성동,37.5152123,127.0609526
409,당구장업,알파당구클럽,영업중,서울특별시 강남구 논현동 90-6번지,"서울특별시 강남구 학동로 235, 지하1층 (논현동, 로이빌딩)",강남구,논현동,37.5155965,127.0350162
410,당구장업,벤투스캐롬클럽,영업중,서울특별시 강남구 논현동 110-2,"서울특별시 강남구 학동로47길 20, 3층 (논현동)",강남구,논현동,37.5179651,127.0386082
411,당구장업,빌팍 캐롬클럽,영업중,서울특별시 강남구 개포동 1246,"서울특별시 강남구 개포로 209, 지하1층 (개포동, 서호빌딩)",강남구,개포동,37.4786152,127.0456565
412,당구장업,짱당구장,영업중,서울특별시 강남구 개포동 1218-3번지,"서울특별시 강남구 개포로22길 15, 2층 (개포동)",강남구,개포동,37.4780892,127.048472
413,당구장업,파티당구장,영업중,서울특별시 강남구 개포동 186-18번지,"서울특별시 강남구 개포로88길 6, 지하1층 1호 (개포동, 공신빌딩)",강남구,개포동,37.4889978,127.0689824
414,당구장업,Billking art hall,영업중,서울특별시 강남구 일원동 684-2,"서울특별시 강남구 일원로 39, 지층 (일원동, 대원빌딩)",강남구,일원동,37.4902682,127.0812672
415,당구장업,제이에스당구클럽(1039),영업중,서울특별시 강남구 삼성동 144-19 J.S타워 지하1층,"서울특별시 강남구 테헤란로79길 6 (삼성동,J.S타워 지하1층)",강남구,삼성동,37.5073014,127.0555585
416,당구장업,노블당구장(911),영업중,서울특별시 강남구 역삼동 644-11번지 지하1층,"서울특별시 강남구 테헤란로25길 11 (역삼동, 지하1층)",강남구,역삼동,37.5014457,127.0350214
417,당구장업,삼성엔지니어링새마을금고,영업중,서울특별시 강남구 대치동 946-0번지,서울특별시 강남구 테헤란로 532  (대치동),강남구,대치동,37.5082136,127.0622783
418,당구장업,삼성에스디에스새마을금고,영업중,서울특별시 강남구 역삼동 707-19번지,서울특별시 강남구 테헤란로 318  (역삼동),강남구,역삼동,37.5032425,127.04584
419,당구장업,큐쓰리당구장(1147),영업중,서울특별시 강남구 역삼동 702-16번지 3층,"서울특별시 강남구 테헤란로47길 8  (역삼동,3층)",강남구,역삼동,37.5042797,127.0454627
420,당구장업,당구의 신 빌리우스,영업중,서울특별시 강남구 역삼동 678-1번지 3층,"서울특별시 강남구 논현로94길 22 (역삼동,3층)",강남구,역삼동,37.50263899999999,127.0381465
421,당구장업,그랜드당구장(1239),영업중,서울특별시 강남구 역삼동 789-6 지하1층,"서울특별시 강남구 역삼로 152, 지하1층 (역삼동)",강남구,역삼동,37.4946468,127.0359602
422,당구장업,강남당구장(1241),영업중,서울특별시 강남구 역삼동 823-35번지 외 3필지 세명프라자 B동 지하1층,"서울특별시 강남구 테헤란로10길 21 (역삼동, 외 3필지 세명프라자 B동 지하1층)",강남구,역삼동,37.4977977,127.0329082
423,당구장업,레포츠당구장(311),영업중,서울특별시 강남구 논현동 183-4번지 지층,"서울특별시 강남구 강남대로118길 20 (논현동,지층)",강남구,논현동,37.5137083,127.0210182
424,당구장업,GS당구장(983),영업중,서울특별시 강남구 역삼동 669-15 B1,"서울특별시 강남구 봉은사로30길 75 (역삼동,B1)",강남구,역삼동,37.5027643,127.0371861
425,당구장업,삼성당구장(748),영업중,서울특별시 강남구 일원동 666-5번지,서울특별시 강남구 일원로9길 32  (일원동),강남구,일원동,37.4900193,127.084292
426,당구장업,BB99(872),영업중,서울특별시 강남구 역삼동 678-1번지 효영빌딩,"서울특별시 강남구 논현로94길 22  (역삼동,효영빌딩)",강남구,역삼동,37.50263899999999,127.0381465
427,당구장업,타워 당구클럽,영업중,서울특별시 강남구 삼성동 162-11 지하1층,"서울특별시 강남구 봉은사로 634, 지하1층 (삼성동, 20TOWER)",강남구,삼성동,37.5147394,127.0647155
428,당구장업,언주당구장(1269),영업중,서울특별시 강남구 역삼동 651-2번지 지하1층,"서울특별시 강남구 봉은사로 212, 지하1층 (역삼동)",강남구,역삼동,37.5109479,127.047282
429,당구장업,에이스당구클럽(549),영업중,서울특별시 강남구 개포동 1218 2층,"서울특별시 강남구 개포로24길 6, 2층 (개포동)",강남구,개포동,37.4784585,127.048079
430,당구장업,모아모아당구장,영업중,서울특별시 강남구 역삼동 703-4번지 2층,"서울특별시 강남구 선릉로93길 56 (역삼동,2층)",강남구,역삼동,37.504205,127.0441728
431,당구장업,루덴스(66),영업중,서울특별시 강남구 신사동 614-3번지,서울특별시 강남구 압구정로 210 (신사동),강남구,신사동,37.527685,127.03019
432,당구장업,프로(311),영업중,서울특별시 강남구 논현동 183-4번지,서울특별시 강남구 강남대로118길 20  (논현동),강남구,논현동,37.5137083,127.0210182
433,당구장업,건(703),영업중,서울특별시 강남구 대치동 891-25번지,서울특별시 강남구 테헤란로70길 13  (대치동),강남구,대치동,37.5048241,127.0536529
434,당구장업,도산당구클럽(1117),영업중,서울특별시 강남구 신사동 628-23번지 지층,"서울특별시 강남구 언주로 807  (신사동,지층)",강남구,신사동,37.522464,127.0330774
435,당구장업,대명(528),영업중,서울특별시 강남구 대치동 889-75번지,서울특별시 강남구 선릉로86길 7 (대치동),강남구,대치동,37.503303,127.0503179
436,당구장업,제이빌리아드(1083),영업중,서울특별시 강남구 대치동 891-43 지하2층,"서울특별시 강남구 테헤란로78길 12  (대치동,지하2층)",강남구,대치동,37.5054281,127.0552211
437,당구장업,팝콘(1247),영업중,"서울특별시 강남구 신사동 665-6번지 3층 6호,7호",서울특별시 강남구 선릉로 815 (신사동),강남구,신사동,37.5233874,127.0291182
438,당구장업,아지트,영업중,서울특별시 강남구 개포동 1231-22번지 지하,서울특별시 강남구 개포로20길 7 (개포동),강남구,개포동,37.4782979,127.047257
439,당구장업,공때리네(1042),영업중,서울특별시 강남구 역삼동 790-8번지 3층,"서울특별시 강남구 논현로 339 (역삼동,3층)",강남구,역삼동,37.4954495,127.0391594
440,당구장업,가리온(1046),영업중,서울특별시 강남구 대치동 895-1번지 지층,"서울특별시 강남구 삼성로85길 39  (대치동,지층)",강남구,대치동,37.5042562,127.0541147
441,당구장업,에이스(430),영업중,서울특별시 강남구 개포동 158-1번지,서울특별시 강남구 선릉로6길 6 (개포동),강남구,개포동,37.4936811,127.0726884
442,당구장업,캉가루(318),영업중,서울특별시 강남구 삼성동 158-7,서울특별시 강남구 삼성로92길 23  (삼성동),강남구,삼성동,37.5082285,127.0582491
443,당구장업,케이투당구장(1054),영업중,서울특별시 강남구 수서동 724번지 B2  135호,"서울특별시 강남구 광평로 280 (수서동,B2  135호)",강남구,수서동,37.4873264,127.1031402
444,당구장업,우리빌리아드클럽(1058),영업중,서울특별시 강남구 논현동 118번지 지하,"서울특별시 강남구 선릉로131길 25  (논현동,지하)",강남구,논현동,37.5117877,127.030362
445,당구장업,프로당구장(920),영업중,서울특별시 강남구 대치동 977-16번지 지하1층,"서울특별시 강남구 삼성로64길 51  (대치동,지하1층)",강남구,대치동,37.5011262,127.0644719
446,당구장업,거성 당구장(926),영업중,서울특별시 강남구 역삼동 643-11번지 지하1층,"서울특별시 강남구 테헤란로25길 15-4  (역삼동,지하1층)",강남구,역삼동,37.5019138,127.0350133
447,당구장업,원 당구장,영업중,서울특별시 강남구 대치동 894-18번지,서울특별시 강남구 삼성로81길 34 (대치동),강남구,대치동,37.4970363,127.074766
448,당구장업,세곡당구장,영업중,서울특별시 강남구 세곡동 124-2번지,"서울특별시 강남구 밤고개로34길 4, 12호 (세곡동)",강남구,세곡동,37.4639996,127.1073088
449,당구장업,아지트 당구클럽,영업중,서울특별시 강남구 삼성동 140-31번지 삼성2빌딩,"서울특별시 강남구 선릉로94길 11, 삼성2빌딩 지하1층 (삼성동)",강남구,삼성동,37.5061726,127.049394
450,당구장업,Ace당구장,영업중,서울특별시 강남구 논현동 86-16번지,"서울특별시 강남구 논현로132길 11, 지하1층 (논현동)",강남구,논현동,37.5152198,127.0314356
451,당구장업,우리당구,영업중,서울특별시 강남구 신사동 590-18번지,서울특별시 강남구 논현로152길 9 (신사동),강남구,신사동,37.5212422,127.0299754
452,당구장업,리신,영업중,서울특별시 강남구 논현동 165-8번지 한맥빌딩,"서울특별시 강남구 강남대로 492, 한맥빌딩 지하1층 (논현동)",강남구,논현동,37.5062066,127.0241119
453,당구장업,현당구클럽,영업중,서울특별시 강남구 역삼동 823-4번지,"서울특별시 강남구 테헤란로8길 11, 지하1층 (역삼동)",강남구,역삼동,37.4982125,127.0316382
454,당구장업,7당구클럽,영업중,서울특별시 강남구 역삼동 734-3 다영빌딩,"서울특별시 강남구 논현로 406, 다영빌딩 B1층 (역삼동)",강남구,역삼동,37.4965135,127.0392942
455,당구장업,블루 당구클럽,영업중,서울특별시 강남구 논현동 184-31번지,서울특별시 강남구 봉은사로1길 16 (논현동),강남구,논현동,37.5058658,127.0248148
456,당구장업,RS빌리어즈,영업중,서울특별시 강남구 대치동 983 태범빌딩,"서울특별시 강남구 역삼로98길 23, 태범빌딩 지하1층 (대치동)",강남구,대치동,37.5033219,127.0649628
457,당구장업,PBA 브라보 캐롬 클럽,영업중,서울특별시 강남구 논현동 105-4 한진로즈힐아파트,"서울특별시 강남구 도산대로46길 21, 지하1층 (논현동, 한진로즈힐아파트)",강남구,논현동,37.520717,127.0371476
458,당구장업,우리당구,영업중,서울특별시 강남구 논현동 118번지,"서울특별시 강남구 선릉로131길 25, 지하1층 (논현동)",강남구,논현동,37.5171412,127.0389353
459,당구장업,M당구클럽,영업중,서울특별시 강남구 수서동 738번지 동익아파트,"서울특별시 강남구 광평로39길 3, 지하층 13호 (수서동, 동익아파트)",강남구,수서동,37.4853216,127.0965129
460,당구장업,조이빌 당구클럽,영업중,서울특별시 강남구 논현동 237-6,"서울특별시 강남구 봉은사로37길 10, 지하1층 (논현동)",강남구,논현동,37.5091567,127.0370492
461,당구장업,포커스당구장(1174),영업중,서울특별시 강남구 개포동 186-9번지 영진빌딩 지하1층,"서울특별시 강남구 개포로82길 9-15  (개포동,영진빌딩 지하1층)",강남구,개포동,37.4889984,127.0682417
462,당구장업,포커스(961),영업중,서울특별시 강남구 개포동 186-9번지 영진빌딩 지하1층,"서울특별시 강남구 개포로82길 9-15  (개포동,영진빌딩 지하1층)",강남구,개포동,37.4889984,127.0682417
463,당구장업,그린(527),영업중,서울특별시 강남구 역삼동 798-4번지,서울특별시 강남구 논현로 311  (역삼동),강남구,역삼동,37.49314,127.0401909
464,당구장업,비비 당구장(206),영업중,서울특별시 강남구 역삼동 832-28번지 삼성빌딩 지층,"서울특별시 강남구 역삼로2길 13  (역삼동,삼성빌딩 지층)",강남구,역삼동,37.4924615,127.0316331
465,당구장업,당구사냥,영업중,서울특별시 강남구 도곡동 544-13번지,"서울특별시 강남구 도곡로22길 5, 지하1층 (도곡동)",강남구,도곡동,37.4915261,127.0397135
466,당구장업,빌리어드 라운지,영업중,서울특별시 강남구 신사동 536번지,"서울특별시 강남구 강남대로156길 46, 4층 (신사동)",강남구,신사동,37.5190167,127.0226057
467,당구장업,대화 당구장,영업중,서울특별시 강남구 개포동 186-7,"서울특별시 강남구 개포로82길 13-17, 지하1층 (개포동)",강남구,개포동,37.4888736,127.068594
468,당구장업,스타큐 당구장,영업중,서울특별시 강남구 개포동 1196-6,"서울특별시 강남구 논현로12길 13, 지하1층 (개포동)",강남구,개포동,37.4747551,127.0492953
469,당구장업,바우당구클럽,영업중,서울특별시 강남구 역삼동 835,서울특별시 강남구 도곡로7길 28 (역삼동),강남구,역삼동,37.4926054,127.034487
470,당구장업,에스당구장,영업중,서울특별시 강남구 대치동 1001-8 동남유화빌딩,"서울특별시 강남구 영동대로86길 12, 동남유화빌딩 지하1층 (대치동)",강남구,대치동,37.5078813,127.0652928
471,당구장업,라팔대대클럽,영업중,서울특별시 강남구 개포동 1217-3 흥진빌딩,"서울특별시 강남구 개포로 234, 흥진빌딩 지하1층 (개포동)",강남구,개포동,37.4787231,127.0483533
472,당구장업,VIP 당구클럽,영업중,서울특별시 강남구 개포동 167-4 개포빌딩,"서울특별시 강남구 선릉로 30, 개포빌딩 4층 (개포동)",강남구,개포동,37.4826789,127.0611803
473,당구장업,맥스당구장,영업중,서울특별시 강남구 도곡동 545-6번지,"서울특별시 강남구 도곡로 174, 지하1층 (도곡동)",강남구,도곡동,37.4913335,127.0384772
474,당구장업,영동당구장,영업중,서울특별시 강남구 논현동 144,"서울특별시 강남구 강남대로128길 10, 3, 4층 (논현동)",강남구,논현동,37.5097945,127.0230975
475,당구장업,루아르 당구장,영업중,서울특별시 강남구 도곡동 941-1 도곡루아르,"서울특별시 강남구 도곡로 128, 지하3층 (도곡동, 도곡루아르)",강남구,도곡동,37.48859059999999,127.0452757
476,당구장업,프로24 당구장,영업중,서울특별시 강남구 도곡동 517-2,"서울특별시 강남구 논현로30길 36-4, 지하1층 (도곡동)",강남구,도곡동,37.4843461,127.0447345
477,무도학원업,샤리권 에어로빅댄스스쿨,영업중,서울특별시 강남구 논현동 241-3번지 에스케이 허브블루,"서울특별시 강남구 학동로 342, 에스케이 허브블루 B2층 201호 (논현동)",강남구,논현동,37.5166861,127.0405907
478,무도학원업,월드댄스아카데미(12),영업중,서울특별시 강남구 논현동 234-28번지 5층,"서울특별시 강남구 논현로 604 (논현동,5층)",강남구,논현동,37.5136787,127.0317124
479,무도학원업,신사(6),영업중,서울특별시 강남구 신사동 502-12번지,서울특별시 강남구 강남대로 620 (신사동),강남구,신사동,37.5273895,127.030957
480,무도학원업,K.P 댄스스쿨(3),영업중,서울특별시 강남구 논현동 278-20번지,서울특별시 강남구 봉은사로 327 (논현동),강남구,논현동,37.5101679,127.0425617
481,무도학원업,듀오댄스스포츠(3),영업중,서울특별시 강남구 역삼동 823-41번지 4층,"서울특별시 강남구 테헤란로10길 11  (역삼동,4층)",강남구,역삼동,37.4975451,127.0327922
482,무도학원업,선릉댄스스쿨(4),영업중,서울특별시 강남구 역삼동 705-26번지 403호,"서울특별시 강남구 선릉로 507  (역삼동,403호)",강남구,역삼동,37.5000776,127.0385419
483,무도학원업,조앤리 댄스스쿨(1),영업중,서울특별시 강남구 논현동 118-16번지 4층,"서울특별시 강남구 학동로 337 (논현동,4층)",강남구,논현동,37.5170607,127.0399247
484,빙상장업,와이키키 아이스링크 앤드 스윔(1),영업중,서울특별시 강남구 신사동 528번지 지하1층,"서울특별시 강남구 압구정로 104, 지하1층 (신사동, 보암빌딩)",강남구,신사동,37.5225687,127.0199945
485,수영장업,눈빛사,영업중,서울특별시 강남구 역삼동 766-20 역삼프라자,"서울특별시 강남구 도곡로51길 4, 역삼프라자 지하2층 (역삼동)",강남구,역삼동,37.4955787,127.0498106
486,수영장업,오션키즈,영업중,서울특별시 강남구 대치동 922-17번지,"서울특별시 강남구 선릉로64길 11-5, 지하1층 (대치동)",강남구,대치동,37.4983086,127.0528655
487,수영장업,키즈 스플래쉬,영업중,서울특별시 강남구 신사동 638-4 경진빌딩,"서울특별시 강남구 압구정로 308, 경진빌딩 지하1층층 (신사동)",강남구,신사동,37.5287904,127.0351039
488,수영장업,와우스위밍스쿨(23)[4레인],영업중,서울특별시 강남구 신사동 617-2번지 지하1층,서울특별시 강남구 압구정로 228 (신사동),강남구,신사동,37.5286822,127.0327997
489,수영장업,지젤어린이 수영장,영업중,서울특별시 강남구 대치동 904-13번지 대창빌딩 지하1층,서울특별시 강남구 역삼로 449 (대치동),강남구,대치동,37.502519,127.0561063
490,수영장업,(주)돌핀수영,영업중,서울특별시 강남구 신사동 528 지하1층,"서울특별시 강남구 압구정로 104, 지하1층 (신사동, 보암빌딩)",강남구,신사동,37.5225687,127.0199945
491,수영장업,플레이오션(26),영업중,서울특별시 강남구 자곡동 633번지,"서울특별시 강남구 자곡로 106 (자곡동, S-플라자)",강남구,자곡동,37.4719211,127.0950026
492,수영장업,스위스키즈베이,영업중,서울특별시 강남구 대치동 988-15번지,"서울특별시 강남구 도곡로 505, B2층 2호 (대치동)",강남구,대치동,37.4995633,127.0616676
493,수영장업,유성,영업중,서울특별시 강남구 신사동 614-2번지 본경빌딩,"서울특별시 강남구 압구정로 208, 본경빌딩 지하1층 (신사동)",강남구,신사동,37.527596,127.0298545
494,수영장업,나인키즈 스포츠,영업중,서울특별시 강남구 압구정동 369-1번지,서울특별시 강남구 압구정로29길 71 (압구정동),강남구,압구정동,37.5330263,127.0279257
495,수영장업,우성스포츠센터,영업중,서울특별시 강남구 일원동 615 우성7차아파트,"서울특별시 강남구 개포로110길 15 (일원동, 우성7차아파트)",강남구,일원동,37.4922926,127.0783273
496,종합체육시설업,포이스포츠센터,영업중,서울특별시 강남구 개포동 1273 포이초등학교,"서울특별시 강남구 개포로22길 87, 포이초등학교 (개포동)",강남구,개포동,37.4756728,127.0520896
497,종합체육시설업,영희스포츠센터,영업중,서울특별시 강남구 일원동 617번지 영희초등학교,"서울특별시 강남구 일원로 21, 영희초등학교 (일원동)",강남구,일원동,37.4922499,127.0808759
498,종합체육시설업,안다즈 서울 강남(Andaz Seoul Gangnam),영업중,서울특별시 강남구 신사동 603,서울특별시 강남구 논현로 854 (신사동),강남구,신사동,37.5254187,127.028869
499,종합체육시설업,더논현 스포츠센터,영업중,서울특별시 강남구 논현동 168 논현초등학교,"서울특별시 강남구 강남대로120길 33, 논현초등학교 (논현동)",강남구,논현동,37.508376,127.026133
500,종합체육시설업,주식회사 ATB압구정점,영업중,서울특별시 강남구 신사동 550-11 신구초등학교,"서울특별시 강남구 압구정로18길 28, 신구초등학교 (신사동)",강남구,신사동,37.5233603,127.0240264
501,종합체육시설업,펜트힐스포츠,영업중,서울특별시 강남구 논현동 211-21,"서울특별시 강남구 언주로 641, 지하2층 (논현동)",강남구,논현동,37.5138357,127.0349693
502,종합체육시설업,자마이카 피트니스,영업중,서울특별시 강남구 도곡동 949-3 캠코양재타워,"서울특별시 강남구 강남대로 262, 캠코양재타워 (도곡동)",강남구,도곡동,37.4869344,127.0334941
503,종합체육시설업,(주)조선호텔앤리조트 조선팰리스강남 조선웰니스클럽,영업중,서울특별시 강남구 역삼동 676 센터필드,"서울특별시 강남구 테헤란로 231, 센터필드 26층 (역삼동)",강남구,역삼동,37.5030426,127.041588
504,종합체육시설업,파크클럽(Park Club)(51),영업중,"서울특별시 강남구 대치동 995-14 파크하얏트서울 22,23층","서울특별시 강남구 테헤란로 606, 22,23층 (대치동, 파크하얏트서울)",강남구,대치동,37.5085791,127.0641676
505,종합체육시설업,코오롱글로벌(주)스포렉스(53),영업중,서울특별시 강남구 청담동 4-1 4~6층,"서울특별시 강남구 도산대로 442, 4~6층 (청담동, 피엔폴루스)",강남구,청담동,37.5232913,127.0440476
506,종합체육시설업,극동지앤에스(주)(54),영업중,"서울특별시 강남구 신사동 575번지 4,5,10층","서울특별시 강남구 압구정로 152, 4,5,10층 (신사동, 극동스포츠빌딩)",강남구,신사동,37.525533,127.0259871
507,종합체육시설업,언북문화체육센터,영업중,서울특별시 강남구 청담동 27,"서울특별시 강남구 삼성로135길 42 (청담동, 언북초등학교)",강남구,청담동,37.5199257,127.0451
508,종합체육시설업,도곡체육문화센터,영업중,서울특별시 강남구 대치동 924-10번지,"서울특별시 강남구 선릉로64길 33 (대치동, 도곡초등학교)",강남구,대치동,37.498989,127.054575
509,종합체육시설업,태화기독교사회복지관(50),영업중,서울특별시 강남구 수서동 741번지,서울특별시 강남구 광평로 185  (수서동),강남구,수서동,37.4848471,127.0933248
510,종합체육시설업,동영문화센터(39),영업중,서울특별시 강남구 역삼동 772번지,서울특별시 강남구 언주로 337  (역삼동),강남구,역삼동,37.5000776,127.0385419
511,종합체육시설업,강남주민편익시설(48),영업중,서울특별시 강남구 일원동 4-1,서울특별시 강남구 남부순환로 3318 (일원동),강남구,일원동,37.4880579,127.0828672
512,종합체육시설업,강남구립 역삼 청소년 수련관(51),영업중,서울특별시 강남구 역삼동 776-8,서울특별시 강남구 논현로64길 7 (역삼동),강남구,역삼동,37.4939785,127.0409155
513,종합체육시설업,VANTT 휘트니스클럽[4레인],영업중,서울특별시 강남구 도곡동 467-29번지 반트,"서울특별시 강남구 언주로30길 26 (도곡동,반트)",강남구,도곡동,37.4877872,127.0525731
514,종합체육시설업,시립수서청소년센터,영업중,"서울특별시 강남구 수서동 749 1층, B2층","서울특별시 강남구 광평로 144, 1층, B2층 (수서동, 서울시립 수서청소년수련원)",강남구,수서동,37.4832555,127.0893646
515,종합체육시설업,오크우드프리미어 헬스&휘트니스클럽(46),영업중,서울특별시 강남구 삼성동 159번지,서울특별시 강남구 영동대로 511  (삼성동),강남구,삼성동,37.5103975,127.0611934
516,종합체육시설업,메트로폴리탄헬스클럽,영업중,서울특별시 강남구 삼성동 159-8,서울특별시 강남구 테헤란로 521 (삼성동),강남구,삼성동,37.5090474,127.060893
517,종합체육시설업,(주)앰배서더즈(32),영업중,서울특별시 강남구 역삼동 603,서울특별시 강남구 봉은사로 130 (역삼동),강남구,역삼동,37.5053029,127.0288672
518,종합체육시설업,(주)태승21임피리얼팰리스호텔,영업중,서울특별시 강남구 논현동 248-7번지,서울특별시 강남구 언주로 640 (논현동),강남구,논현동,37.5136787,127.0317124
519,종합체육시설업,(주)관악신안스포츠클럽[4레인],영업중,서울특별시 강남구 대치동 943-19번지,서울특별시 강남구 테헤란로 512 (대치동),강남구,대치동,37.5072617,127.0592736
520,종합체육시설업,자마이카 피트니스,영업중,서울특별시 강남구 도곡동 467-24 우성캐릭터199,"서울특별시 강남구 언주로 118 (도곡동, 우성캐릭터199)",강남구,도곡동,37.4869807,127.0517581
521,종합체육시설업,에이 스피릿 오브 저니(A SPIRIT OF JOURNEY),영업중,서울특별시 강남구 논현동 74-6,"서울특별시 강남구 논현로 734, 지상2층,지하3,4층 (논현동)",강남구,논현동,37.5136787,127.0317124
522,체육도장업,국가대표 한결태권도장,영업중,서울특별시 강남구 도곡동 903-1번지,"서울특별시 강남구 남부순환로365길 26, 5층 502호 (도곡동)",강남구,도곡동,37.487018,127.0396107
523,체육도장업,경희대석사삼성태권도,영업중,서울특별시 강남구 개포동 158번지 일영빌딩,"서울특별시 강남구 선릉로 28, 일영빌딩 4층 (개포동)",강남구,개포동,37.4792967,127.0449655
524,체육도장업,역삼타이틀 다이어트복싱클럽 선릉점,영업중,서울특별시 강남구 역삼동 697-9번지 남산빌딩,"서울특별시 강남구 테헤란로53길 21, 남산빌딩 지하1층 (역삼동)",강남구,역삼동,37.5055938,127.0464277
525,체육도장업,스킬펜싱클럽,영업중,서울특별시 강남구 청담동 44-8번지,"서울특별시 강남구 학동로67길 5, 지하1층 (청담동)",강남구,청담동,37.5186462,127.0463675
526,체육도장업,개포검도관,영업중,서울특별시 강남구 개포동 1259-5번지 건우빌딩,"서울특별시 강남구 개포로 245, 건우빌딩 지하1층 (개포동)",강남구,개포동,37.4791853,127.0493118
527,체육도장업,자강검도관,영업중,서울특별시 강남구 대치동 891-50번지 세왕빌딩,"서울특별시 강남구 테헤란로78길 14-15, 세왕빌딩 (대치동)",강남구,대치동,37.5048725,127.0543847
528,체육도장업,하트레이트 강남,영업중,서울특별시 강남구 역삼동 831-18 역삼빌딩,"서울특별시 강남구 강남대로 342, 역삼빌딩 B02호 (역삼동)",강남구,역삼동,37.4936784,127.0301909
529,체육도장업,에이블 복싱GYM,영업중,서울특별시 강남구 역삼동 747-22,"서울특별시 강남구 논현로 403, 지하2층 (역삼동)",강남구,역삼동,37.4960934,127.0388682
530,체육도장업,신종훈 복싱 클럽,영업중,서울특별시 강남구 청담동 132-15번지,서울특별시 강남구 학동로101길 19 (청담동),강남구,청담동,37.5216365,127.0572133
531,체육도장업,팀코어복싱짐,영업중,서울특별시 강남구 청담동 124-15,"서울특별시 강남구 도산대로89길 9, 지하1층 (청담동)",강남구,청담동,37.5253041,127.0504943
532,체육도장업,MOB 트레이닝센터,영업중,서울특별시 강남구 청담동 47-5 정한빌딩,"서울특별시 강남구 학동로 443, 정한빌딩 지하1층 (청담동)",강남구,청담동,37.51896480000001,127.0493706
533,체육도장업,손 퍼스널 트레이닝,영업중,서울특별시 강남구 역삼동 706-20 한화 진넥스빌,"서울특별시 강남구 언주로86길 11, 지하 1층 1호 (역삼동, 한화 진넥스빌)",강남구,역삼동,37.5019556,127.0442424
534,체육도장업,The겟업,영업중,서울특별시 강남구 신사동 581-7,"서울특별시 강남구 논현로171길 4, 지하 1층 (신사동)",강남구,신사동,37.5256813,127.0280246
535,체육도장업,히트앤핏 강남,영업중,서울특별시 강남구 역삼동 668-12 석교빌딩,"서울특별시 강남구 봉은사로30길 70, 석교빌딩 B1층 (역삼동)",강남구,역삼동,37.5029987,127.0366967
536,체육도장업,국가대표 메카태권도,영업중,서울특별시 강남구 논현동 273-4번지,"서울특별시 강남구 봉은사로43길 29, 지하1층 (논현동)",강남구,논현동,37.5110904,127.0391031
537,체육도장업,트리플핏,영업중,서울특별시 강남구 역삼동 798-21번지,"서울특별시 강남구 논현로63길 11, 지하층 (역삼동)",강남구,역삼동,37.4929682,127.0395417
538,체육도장업,팀치빈,영업중,서울특별시 강남구 대치동 905-19번지,"서울특별시 강남구 역삼로 441, 지하1층 (대치동)",강남구,대치동,37.5022141,127.0551232
539,체육도장업,가이아 그래플링,영업중,서울특별시 강남구 신사동 600-6,"서울특별시 강남구 도산대로35길 39, 지층 (신사동)",강남구,신사동,37.52349299999999,127.0303445
540,체육도장업,STS BOXING,영업중,서울특별시 강남구 논현동 110-26,"서울특별시 강남구 학동로53길 17, 지하1층 (논현동)",강남구,논현동,37.51821899999999,127.0398375
541,체육도장업,수 태권도 인성교육관,영업중,서울특별시 강남구 개포동 158 일영빌딩,"서울특별시 강남구 선릉로 28, 일영빌딩 4층 (개포동)",강남구,개포동,37.4792967,127.0449655
542,체육도장업,호평 MBA 태권도,영업중,서울특별시 강남구 세곡동 515 리엔파크프라자,"서울특별시 강남구 헌릉로570길 34, 리엔파크프라자 502호 (세곡동)",강남구,세곡동,37.4631419,127.1034644
543,체육도장업,케이레슬링 멀티짐 강남선릉점,영업중,서울특별시 강남구 역삼동 696-8 미승빌딩,"서울특별시 강남구 테헤란로55길 21, 미승빌딩 지층 (역삼동)",강남구,역삼동,37.5057101,127.046909
544,체육도장업,강남합기도,영업중,서울특별시 강남구 압구정동 455 현대아파트,"서울특별시 강남구 압구정로29길 68, 201-1호 (압구정동, 현대아파트)",강남구,압구정동,37.5319756,127.0285632
545,체육도장업,강남합기도스쿨,영업중,서울특별시 강남구 도곡동 924-2,"서울특별시 강남구 남부순환로363길 17, 지하층 (도곡동)",강남구,도곡동,37.486376,127.0377377
546,체육도장업,화랑합기도특공무술,영업중,서울특별시 강남구 개포동 1259-2번지 로얄빌딩,"서울특별시 강남구 개포로 239, 로얄빌딩 3층 (개포동)",강남구,개포동,37.4791282,127.0487703
547,체육도장업,퍼스트 태권도,영업중,서울특별시 강남구 개포동 655-4번지 개포동 메디시스빌딩,"서울특별시 강남구 개포로 265, 개포동 메디시스빌딩 502호 (개포동)",강남구,개포동,37.48094690000001,127.0529676
548,체육도장업,대치 합기도&주짓수,영업중,서울특별시 강남구 대치동 898-13번지,"서울특별시 강남구 선릉로76길 5, 지하층 (대치동)",강남구,대치동,37.5014914,127.0509476
549,체육도장업,합기도 을지관 총본관,영업중,서울특별시 강남구 대치동 957-20번지,"서울특별시 강남구 삼성로84길 14, 지하1층 (대치동)",강남구,대치동,37.5054269,127.0587825
550,체육도장업,강남합기도,영업중,서울특별시 강남구 세곡동 515번지 리엔파크프라자,"서울특별시 강남구 헌릉로570길 34, 리엔파크프라자 301호 (세곡동)",강남구,세곡동,37.4631419,127.1034644
551,체육도장업,강남체육관,영업중,서울특별시 강남구 역삼동 755 한솔필리아,"서울특별시 강남구 역삼로 310, 한솔필리아 2층 28호 (역삼동)",강남구,역삼동,37.4991554,127.0483257
552,체육도장업,퍼스트 태권도,영업중,서울특별시 강남구 대치동 507 윈플러스상가,"서울특별시 강남구 남부순환로 2936, 윈플러스상가 B103호 (대치동)",강남구,대치동,37.4933573,127.0619092
553,체육도장업,로드짐 로데오점,영업중,서울특별시 강남구 신사동 656-1,"서울특별시 강남구 선릉로155길 27, 3층 (신사동)",강남구,신사동,37.5256293,127.0373067
554,체육도장업,엘앤케이 경희대 태권도 앤 점핑스쿨 스포츠아트센터,영업중,서울특별시 강남구 개포동 189 개포자이 프레지던스,"서울특별시 강남구 삼성로 14, 213-214호 (개포동, 개포자이 프레지던스)",강남구,개포동,37.489182,127.066496
555,체육도장업,신종훈 복싱클럽,영업중,서울특별시 강남구 삼성동 77-6 용궁빌딩,"서울특별시 강남구 영동대로115길 7, 용궁빌딩 지하1층 (삼성동)",강남구,삼성동,37.5149037,127.0590464
556,체육도장업,오르다 태권도장,영업중,서울특별시 강남구 개포동 189 개포자이 프레지던스,"서울특별시 강남구 삼성로 14, 4층 402,403호 (개포동, 개포자이 프레지던스)",강남구,개포동,37.48916699999999,127.066502
557,체육도장업,바모스짐,영업중,서울특별시 강남구 논현동 66-1 대급수야빌딩,"서울특별시 강남구 논현로150길 4, 대급수야빌딩 지하1층 (논현동)",강남구,논현동,37.5189013,127.0289753
558,체육도장업,VTA청담수련관,영업중,서울특별시 강남구 청담동 118-18 대청빌딩,"서울특별시 강남구 도산대로81길 17, 대청빌딩 2층 (청담동)",강남구,청담동,37.5254577,127.0474639
559,체육도장업,조준호 조준현 와와유도장,영업중,서울특별시 강남구 청담동 40-6,"서울특별시 강남구 선릉로 716, 지하1층 (청담동)",강남구,청담동,37.5187999,127.0409221
560,체육도장업,펀치박스 복싱 스튜디오,영업중,서울특별시 강남구 역삼동 839-15 대경빌딩,"서울특별시 강남구 도곡로 123, 대경빌딩 지하1층 (역삼동)",강남구,역삼동,37.490492,127.0338162
561,체육도장업,압구정 라이프 복싱,영업중,서울특별시 강남구 신사동 612-1,"서울특별시 강남구 논현로176길 14, 지하 1층 103호 (신사동)",강남구,신사동,37.5268464,127.0297393
562,체육도장업,멘토태권도교육관,영업중,서울특별시 강남구 개포동 158-8번지,"서울특별시 강남구 선릉로4길 13, B1층 (개포동)",강남구,개포동,37.4827748,127.0622169
563,체육도장업,케이맥스짐,영업중,서울특별시 강남구 신사동 585-5,"서울특별시 강남구 논현로155길 6, 2층 (신사동)",강남구,신사동,37.5221215,127.0276343
564,체육도장업,한국체대 나르샤 태권도장,영업중,서울특별시 강남구 개포동 1183-5,"서울특별시 강남구 개포로22길 100, 2층 (개포동)",강남구,개포동,37.4754256,127.053379
565,체육도장업,팀에이치짐,영업중,서울특별시 강남구 역삼동 735-10 삼흥역삼빌딩,"서울특별시 강남구 테헤란로14길 5, 삼흥역삼빌딩 (역삼동)",강남구,역삼동,37.4990902,127.0332052
566,체육도장업,복싱인사이드짐 역삼직영점,영업중,서울특별시 강남구 역삼동 748-16 젠텍타워,"서울특별시 강남구 역삼로 159, 젠텍타워 지하2층 (역삼동)",강남구,역삼동,37.4951591,127.036408
567,체육도장업,강남파워점핑줄넘기전문클럽&경희대국가대표태권도,영업중,서울특별시 강남구 역삼동 756-13 중앙빌딩,"서울특별시 강남구 선릉로 325, 중앙빌딩 지하1층 (역삼동)",강남구,역삼동,37.4985755,127.0515528
568,체육도장업,주식회사 파이트월드넘버원,영업중,서울특별시 강남구 삼성동 65-11 삼경빌라,"서울특별시 강남구 삼성로120길 7, 삼경빌라 지하1층 (삼성동)",강남구,삼성동,37.5167407,127.0521616
569,체육도장업,강남태권도장,영업중,서울특별시 강남구 세곡동 515 리엔파크프라자,"서울특별시 강남구 헌릉로570길 34, 리엔파크프라자 301호 (세곡동)",강남구,세곡동,37.4631419,127.1034644
570,체육도장업,경희대 강남태권도장,영업중,서울특별시 강남구 역삼동 755 한솔필리아,"서울특별시 강남구 역삼로 310, 한솔필리아 2층 28호 (역삼동)",강남구,역삼동,37.4991554,127.0483257
571,체육도장업,강남태권도장,영업중,서울특별시 강남구 압구정동 455,"서울특별시 강남구 압구정로29길 68, 2층 201-1호 (압구정동, 현대아파트)",강남구,압구정동,37.5319756,127.0285632
572,체육도장업,대한유도관,영업중,서울특별시 강남구 자곡동 634 미라클빌딩,"서울특별시 강남구 자곡로 108, 미라클빌딩 305호 (자곡동)",강남구,자곡동,37.4719652,127.0953764
573,체육도장업,홍수환스타복싱(226),영업중,서울특별시 강남구 대치동 897-10번지 1층,"서울특별시 강남구 선릉로82길 7 (대치동,1층)",강남구,대치동,37.5026506,127.0507057
574,체육도장업,무궁화유도(104),영업중,서울특별시 강남구 대치동 1016번지,서울특별시 강남구 도곡로78길 7 (대치동),강남구,대치동,37.4976259,127.0593292
575,체육도장업,동영태권도아카데미(225),영업중,서울특별시 강남구 역삼동 772번지 동영ENG 지하1층,"서울특별시 강남구 언주로 337 (역삼동,동영ENG 지하1층)",강남구,역삼동,37.4977905,127.044094
576,체육도장업,경희대태권도스쿨 (227),영업중,서울특별시 강남구 신사동 550-9번지 지하 1층,"서울특별시 강남구 논현로175길 61 (신사동,지하 1층)",강남구,신사동,37.5241663,127.0240588
577,체육도장업,신구태권도전문체육관(279),영업중,서울특별시 강남구 신사동 552-7번지,"서울특별시 강남구 압구정로18길 32, 2층 (신사동)",강남구,신사동,37.5229326,127.025364
578,체육도장업,대치생활복싱,영업중,서울특별시 강남구 대치동 906-21,"서울특별시 강남구 역삼로 421, 삼청빌딩 지하층 (대치동)",강남구,대치동,37.5015119,127.0530636
579,체육도장업,어바웃 복싱(322),영업중,서울특별시 강남구 신사동 661번지 지하1층 2호,"서울특별시 강남구 압구정로 336, 지하1층 2호 (신사동)",강남구,신사동,37.52801780000001,127.0385263
580,체육도장업,용인대예다함태권도,영업중,서울특별시 강남구 율현동 71-3번지,"서울특별시 강남구 밤고개로21길 69, 301호 (율현동, 엘리온빌딩)",강남구,율현동,37.4741593,127.1138697
581,체육도장업,코리안복싱클럽 일원점,영업중,서울특별시 강남구 일원동 683 금성빌딩,"서울특별시 강남구 일원로 33, 금성빌딩 B01 B02호 (일원동)",강남구,일원동,37.49088649999999,127.0810886
582,체육도장업,용인대 청목 mta 태권도,영업중,서울특별시 강남구 삼성동 27-28번지,"서울특별시 강남구 삼성로119길 43, 지하2층 (삼성동)",강남구,삼성동,37.5150933,127.0479884
583,체육도장업,골든 복싱(316),영업중,서울특별시 강남구 대치동 623번지 2층 52호,"서울특별시 강남구 남부순환로 2921, 2층 52호 (대치동, 남서울종합상가)",강남구,대치동,37.4936059,127.0597001
584,체육도장업,경기검도관(317),영업중,서울특별시 강남구 개포동 12-4번지 지하1층 109호,"서울특별시 강남구 개포로 615, 지하1층 109호 (개포동, 석탑프라자)",강남구,개포동,37.4926936,127.0756284
585,체육도장업,역삼 효 태권도장,영업중,서울특별시 강남구 역삼동 834-63번지,"서울특별시 강남구 역삼로14길 18, 2층 (역삼동)",강남구,역삼동,37.4934541,127.0355522
586,체육도장업,일지검도관(190),영업중,서울특별시 강남구 대치동 921-5번지 지하1층,"서울특별시 강남구 선릉로 328 (대치동,지하1층)",강남구,대치동,37.4991887,127.0633458
587,체육도장업,성도(태권도)(196),영업중,서울특별시 강남구 대치동 908-2번지 형제빌딩1층,"서울특별시 강남구 역삼로 406 (대치동,형제빌딩1층)",강남구,대치동,37.5005399,127.0515962
588,체육도장업,수서경희대태권도장,영업중,서울특별시 강남구 수서동 714-1번지 수서상업지구2-2 402호,"서울특별시 강남구 밤고개로1길 22, 402호 (수서동,수서상업지구2-2)",강남구,수서동,37.4885197,127.1027011
589,체육도장업,JTM 태권도(215),영업중,서울특별시 강남구 개포동 1183-3번지 2층,"서울특별시 강남구 개포로22길 96 (개포동,2층)",강남구,개포동,37.4752599,127.0531169
590,체육도장업,윤태권도아카데미(260),영업중,서울특별시 강남구 개포동 1259-8번지 남강빌딩 3층,"서울특별시 강남구 개포로 251  (개포동,남강빌딩 3층)",강남구,개포동,37.4792377,127.0498351
591,체육도장업,강철태권도(261),영업중,서울특별시 강남구 도곡동 963번지,서울특별시 강남구 논현로 213 (도곡동),강남구,도곡동,37.48859059999999,127.0452757
592,체육도장업,논현태권도도장,영업중,서울특별시 강남구 논현동 160-6번지,"서울특별시 강남구 강남대로122길 39-9, 202호 (논현동)",강남구,논현동,37.5090085,127.0257175
593,체육도장업,(주)비스트플래닛,영업중,서울특별시 강남구 역삼동 823-3번지,"서울특별시 강남구 테헤란로8길 7, 지하1층 (역삼동, 크레신타워)",강남구,역삼동,37.498425,127.0316961
594,체육도장업,에너자이저 복싱,영업중,서울특별시 강남구 역삼동 836-26번지,"서울특별시 강남구 강남대로66길 32, 지하1층 (역삼동)",강남구,역삼동,37.4922802,127.0334257
595,체육도장업,복싱멘토스쿨,영업중,서울특별시 강남구 청담동 132-14 B101호,"서울특별시 강남구 학동로101길 21, B101호 (청담동)",강남구,청담동,37.5218028,127.0571224
596,체육도장업,경희대 백호(321),영업중,서울특별시 강남구 대치동 623번지 313호,"서울특별시 강남구 남부순환로 2921, 313호 (대치동, 남서울종합상가)",강남구,대치동,37.4934619,127.0597692
597,체육도장업,정의체육관(146),영업중,서울특별시 강남구 개포동 12-0번지 지상3층,서울특별시 강남구 개포로109길 21 (개포동),강남구,개포동,37.4941844,127.0752156
598,체육도장업,화랑태권도체육관(209),영업중,서울특별시 강남구 일원동 663-8번지,"서울특별시 강남구 일원로5길 51, 4층 (일원동)",강남구,일원동,37.4922506,127.0843017
599,체육도장업,개포 동영태권도 아카데미,영업중,서울특별시 강남구 개포동 12번지 대치2단지 종합상가 301호,"서울특별시 강남구 개포로109길 5, 301호 (개포동, 대치2단지 종합상가)",강남구,개포동,37.4941844,127.0752156
600,체육도장업,대한유도관(246),영업중,서울특별시 강남구 일원동 645-7 승민빌딩,"서울특별시 강남구 일원로9길 64, 승민빌딩 4층 (일원동)",강남구,일원동,37.4907123,127.0867524
601,체육도장업,좋은복싱(254),영업중,서울특별시 강남구 역삼동 708-34번지 유화빌딩 B101호,"서울특별시 강남구 선릉로85길 8 (역삼동,유화빌딩 B101호)",강남구,역삼동,37.5029304,127.0488578
602,체육도장업,천명 태권도장,영업중,서울특별시 강남구 세곡동 122-6 2층,"서울특별시 강남구 헌릉로618길 7 (세곡동,2층)",강남구,세곡동,37.4643044,127.1066948
603,체육도장업,코리안복싱클럽(압구정)(249),영업중,서울특별시 강남구 신사동 550-19번지 청송빌딩 지하1층,"서울특별시 강남구 압구정로18길 14  (신사동,청송빌딩 지하1층)",강남구,신사동,37.5239605,127.0245343
604,체육도장업,BOXING STORY,영업중,서울특별시 강남구 삼성동 10-26번지,서울특별시 강남구 봉은사로57길 57 (삼성동),강남구,삼성동,37.5144653,127.0437809
605,체육도장업,대치검도관(219),영업중,서울특별시 강남구 대치동 990-3번지 지하 1층,"서울특별시 강남구 삼성로58길 29  (대치동,지하 1층)",강남구,대치동,37.4992421,127.0635885
606,체육도장업,대치태권도(199),영업중,서울특별시 강남구 대치동 1023-11번지,서울특별시 강남구 삼성로57길 38 (대치동),강남구,대치동,37.4974426,127.058037
607,체육도장업,몬스터 복싱짐(314),영업중,서울특별시 강남구 삼성동 47-31,"서울특별시 강남구 선릉로112길 71, 지하1층 (삼성동)",강남구,삼성동,37.5128403,127.0493073
608,체육도장업,파이널유도멀티짐,영업중,서울특별시 강남구 도곡동 900-4번지,"서울특별시 강남구 남부순환로365길 36, 지하층 (도곡동)",강남구,도곡동,37.4876018,127.0398772
609,체육도장업,팀파시 강남(권투)(257),영업중,서울특별시 강남구 역삼동 707-7번지 지하2층,"서울특별시 강남구 테헤란로44길 5, 지하2층 (역삼동, 대아빌딩)",강남구,역삼동,37.5025813,127.044865
610,체육도장업,더원복싱짐(258),영업중,서울특별시 강남구 논현동 275-5번지 2층,"서울특별시 강남구 언주로114길 9 (논현동,2층)",강남구,논현동,37.5100664,127.0383338
611,체육도장업,고지만 강남위너복싱다이어트클럽 역삼점,영업중,서울특별시 강남구 역삼동 668-24번지 지하1층,"서울특별시 강남구 봉은사로30길 74 (역삼동,지하1층)",강남구,역삼동,37.502804,127.0367189
612,체육도장업,CAVALLO BOXING GYM(까발로 복싱짐),영업중,서울특별시 강남구 대치동 941-16 지하1층,"서울특별시 강남구 삼성로 307 (대치동,지하1층)",강남구,대치동,37.4994104,127.0602933
613,체육도장업,삼성 효 태권도장,영업중,서울특별시 강남구 삼성동 26-34,서울특별시 강남구 삼성로115길 42 (삼성동),강남구,삼성동,37.512835,127.0470984
614,체육도장업,퍼스트 태권도장,영업중,서울특별시 강남구 자곡동 638 5층,"서울특별시 강남구 자곡로 120, 5층 506,507호 (자곡동)",강남구,자곡동,37.4721173,127.0965093
615,체육도장업,구룡트윈복싱짐(270),영업중,서울특별시 강남구 개포동 168-5번지 지하1층,"서울특별시 강남구 선릉로 38  (개포동,지하1층)",강남구,개포동,37.483184,127.0604062
616,체육도장업,원투복싱핏,영업중,서울특별시 강남구 수서동 717-6번지 씨앤에스빌딩 지하 2층,"서울특별시 강남구 광평로51길 6-15 (수서동, 씨엔에스빌딩)",강남구,수서동,37.48864289999999,127.1036721
617,체육도장업,은마체육관(11)[태권도],영업중,서울특별시 강남구 대치동 316번지 은마상가 318호,"서울특별시 강남구 삼성로 212 (대치동,은마상가 318호)",강남구,대치동,37.4959134,127.0618177
618,체육도장업,용인대청목태권도(259),영업중,서울특별시 강남구 삼성동 26-18번지 2층,"서울특별시 강남구 봉은사로71길 49  (삼성동,2층)",강남구,삼성동,37.515338,127.0487038
619,체육도장업,스타복싱(266),영업중,서울특별시 강남구 일원동 666-6번지 B1,"서울특별시 강남구 일원로9길 36 (일원동,B1)",강남구,일원동,37.4900757,127.0844827
620,체육도장업,대왕 태권도 체육관,영업중,서울특별시 강남구 세곡동 515번지,서울특별시 강남구 헌릉로570길 34 (세곡동),강남구,세곡동,37.4631419,127.1034644
621,체육도장업,강호검도관(273),영업중,서울특별시 강남구 도곡동 955-7번지 강남빌딩 지하1층,"서울특별시 강남구 남부순환로359길 13 (도곡동,강남빌딩 지하1층)",강남구,도곡동,37.4858738,127.0364174
622,체육도장업,용인대 화랑 태권도 인성스쿨(248),영업중,서울특별시 강남구 개포동 186-6번지 삼광빌딩 301호,"서울특별시 강남구 개포로82길 13-15 (개포동,삼광빌딩 301호)",강남구,개포동,37.4887997,127.0683629
623,체육도장업,SDTA 태권도(74),영업중,서울특별시 강남구 일원동 643-1번지 5층,"서울특별시 강남구 양재대로55길 31, 5층 (일원동)",강남구,일원동,37.4929089,127.0869744
624,체육도장업,강남스타복싱,영업중,서울특별시 강남구 대치동 500번지,"서울특별시 강남구 남부순환로 2912, B101호 (대치동)",강남구,대치동,37.4908388,127.0572409
625,체육도장업,스타 태권도,영업중,서울특별시 강남구 도곡동 527-3번지 도곡렉슬상가 505,"서울특별시 강남구 선릉로 225 (도곡동,도곡렉슬상가 505)",강남구,도곡동,37.4953504,127.0527143
626,체육도장업,알로하복싱짐(308),영업중,서울특별시 강남구 논현동 90-6번지 3층,"서울특별시 강남구 학동로 235, 3층 (논현동)",강남구,논현동,37.5155965,127.0350162
627,체육도장업,동영태권도(281),영업중,서울특별시 강남구 청담동 35-1번지 지하1층,"서울특별시 강남구 삼성로135길 41 (청담동, 지하1층)",강남구,청담동,37.5194643,127.0461082
628,체육도장업,가온누리 가람태권도장(218),영업중,서울특별시 강남구 역삼동 756-13번지 중앙빌딩 302호,"서울특별시 강남구 선릉로 325 (역삼동,중앙빌딩 302호)",강남구,역삼동,37.4985755,127.0515528
629,체육도장업,호연태권도체육관(157),영업중,서울특별시 강남구 일원동 734-0번지 상록수상가 212호,"서울특별시 강남구 광평로10길 15, 212호 (일원동,상록수상가)",강남구,일원동,37.4819336,127.082142
630,체육도장업,성무관(83)[검도],영업중,서울특별시 강남구 신사동 624-19번지,서울특별시 강남구 언주로165길 7-10 (신사동),강남구,신사동,37.5252173,127.0322584
631,체육도장업,멘토 태권도,영업중,서울특별시 강남구 역삼동 761-18 강남프라자,"서울특별시 강남구 언주로 314, 강남프라자 3층 (역삼동)",강남구,역삼동,37.4959548,127.0466573
632,체육도장업,Top ms 복싱(315),영업중,서울특별시 강남구 도곡동 417-2번지 지층,"서울특별시 강남구 논현로38길 38-6, 지층 (도곡동)",강남구,도곡동,37.4852394,127.0448787
633,체육도장업,송현근 태권도 아카데미(167),영업중,서울특별시 강남구 압구정동 481-0번지 성수상가,"서울특별시 강남구 압구정로 309 (압구정동,성수상가)",강남구,압구정동,37.53121429999999,127.0354395
634,체육도장업,대현태권아카데미,영업중,서울특별시 강남구 대치동 974-0번지 현대상가 202호,"서울특별시 강남구 삼성로64길 5 (대치동,현대상가 202호)",강남구,대치동,37.5008276,127.0609734
635,체육도장업,영무검도관(62),영업중,서울특별시 강남구 논현동 1-5번지 축전빌딩 지하,"서울특별시 강남구 강남대로150길 11 (논현동,축전빌딩 지하)",강남구,논현동,37.516014,127.0208001
636,체육도장업,VTA도곡수련관,영업중,서울특별시 강남구 도곡동 467-7번지,"서울특별시 강남구 언주로30길 21 (도곡동, 아카데미스위트)",강남구,도곡동,37.4889623,127.0519645
637,체육도장업,와이키키짐,영업중,서울특별시 강남구 논현동 247-22,"서울특별시 강남구 언주로126길 19, 지하1층 (논현동)",강남구,논현동,37.513898,127.0369632
638,체육도장업,MTA태권도(284),영업중,서울특별시 강남구 세곡동 281-4번지 강남리더스프라자 701호,서울특별시 강남구 헌릉로 569 (세곡동),강남구,세곡동,37.4657816,127.1011914
639,체육도장업,정태권도아카데미(175),영업중,"서울특별시 강남구 도곡동 544번지 산호빌딩 501호, 502호","서울특별시 강남구 도곡로 184 (도곡동,산호빌딩 501호, 502호)",강남구,도곡동,37.4879814,127.0453988
640,체육도장업,강남성균검도관(286),영업중,서울특별시 강남구 역삼동 667-6 태양빌딩,"서울특별시 강남구 논현로 540, 태양빌딩 지하1층 (역삼동)",강남구,역삼동,37.5044977,127.0355031
641,체육도장업,청담 BOXING GYM(287),영업중,서울특별시 강남구 삼성동 108-3번지 삼성아트빌 지하1층,서울특별시 강남구 영동대로112길 26 (삼성동),강남구,삼성동,37.515189,127.048201
642,체육도장업,코리안복싱클럽(압구정 구현대점),영업중,서울특별시 강남구 신사동 615번지,"서울특별시 강남구 압구정로 214, 지하층 2호 (신사동, 현대종합상가빌딩)",강남구,신사동,37.5279527,127.0307698
643,체육도장업,V.T.A 대치역삼 수련관,영업중,서울특별시 강남구 역삼동 756-15번지,"서울특별시 강남구 선릉로 321, 2층 (역삼동)",강남구,역삼동,37.4981963,127.0516439
644,체육도장업,청담 효 태권도장(231),영업중,서울특별시 강남구 청담동 44번지 지층,"서울특별시 강남구 학동로63길 8 (청담동,지층)",강남구,청담동,37.5185516,127.0450114
645,체육도장업,파워태권도(232),영업중,서울특별시 강남구 도곡동 467-19번지 현대비젼21-309,"서울특별시 강남구 언주로30길 10 (도곡동,현대비젼21-309)",강남구,도곡동,37.4873616,127.0513255
646,체육도장업,염상규태권도아카데미(288),영업중,서울특별시 강남구 청담동 131-14번지,"서울특별시 강남구 영동대로138길 9, 신한양상가 301호 (청담동)",강남구,청담동,37.5230699,127.0564773
647,체육도장업,강남챌린지다이어트복싱클럽(289),영업중,서울특별시 강남구 역삼동 644-11번지 지하2층,서울특별시 강남구 테헤란로25길 11 (역삼동),강남구,역삼동,37.5014457,127.0350214
648,체육도장업,개포유도관(144),영업중,서울특별시 강남구 개포동 171번지 석천빌딩 지하1층,"서울특별시 강남구 선릉로16길 6, 지하1층 (개포동, 석천빌딩)",강남구,개포동,37.48382369999999,127.0601066
649,체육도장업,청담경일태권도,영업중,서울특별시 강남구 청담동 123-44번지,"서울특별시 강남구 압구정로79길 35, 지하1층 (청담동)",강남구,청담동,37.5254541,127.0501161
650,체육도장업,코리안좀비 종합격투기(276),영업중,서울특별시 강남구 역삼동 830-69번지 외 1필지(830-71) 지하1층,"서울특별시 강남구 역삼로 123 (역삼동, 지하1층 )",강남구,역삼동,37.4942547,127.0328547
651,체육도장업,삼성검도관(166),영업중,서울특별시 강남구 삼성동 140-6 지하1층 102호,"서울특별시 강남구 선릉로 522, 지하1층 102호 (삼성동)",강남구,삼성동,37.50622620000001,127.048486
652,체육도장업,VTA 논현·학동 수련관(129),영업중,서울특별시 강남구 논현동 275-5번지 3층,"서울특별시 강남구 언주로114길 9, 3층 (논현동)",강남구,논현동,37.5100664,127.0383338
653,체육도장업,청담검도관(203),영업중,서울특별시 강남구 삼성동 10-18번지 예우빌딩 B1,"서울특별시 강남구 선릉로126길 14 (삼성동,예우빌딩 B1)",강남구,삼성동,37.5165115,127.0457524
654,체육도장업,경희태권도체육관(123),영업중,서울특별시 강남구 일원동 739번지 청솔상가 2층,서울특별시 강남구 광평로10길 50 (일원동),강남구,일원동,37.4805122,127.082524
655,체육도장업,VTA압구정수련관(18)[태권도],영업중,서울특별시 강남구 압구정동 454번지,서울특별시 강남구 압구정로29길 72-1 (압구정동),강남구,압구정동,37.5322852,127.0283977
656,체육도장업,코리아유도체육관(181),영업중,서울특별시 강남구 신사동 549-1번지 타워빌딩 b1  101호,"서울특별시 강남구 압구정로 134 (신사동,타워빌딩 b1  101호)",강남구,신사동,37.5243611,127.0234522
657,체육도장업,스타복싱 총본관,영업중,서울특별시 강남구 개포동 186-7번지 4층 1호,"서울특별시 강남구 개포로82길 13-17, 4층 1호 (개포동)",강남구,개포동,37.4888736,127.068594
658,체육도장업,미도쌍용 태권도장(173),영업중,서울특별시 강남구 대치동 511번지 미도상가 3층 301호,"서울특별시 강남구 삼성로 150, 3층 301호 (대치동, 미도상가)",강남구,대치동,37.4933509,127.067324
659,체육도장업,한얼검도장(174),영업중,서울특별시 강남구 개포동 186-18번지,서울특별시 강남구 개포로88길 6 (개포동),강남구,개포동,37.4889978,127.0689824
660,체육도장업,경희대석사 삼성태권도장(150),영업중,서울특별시 강남구 청담동 44-6번지 지하1층,"서울특별시 강남구 선릉로132길 62, 지하1층 (청담동)",강남구,청담동,37.5187721,127.0462975
661,체육도장업,MBA태권도,영업중,서울특별시 강남구 대치동 626 청실종합상가,"서울특별시 강남구 남부순환로 2917, 청실종합상가 지층 10-다,11호 (대치동)",강남구,대치동,37.49312949999999,127.059154
662,체육도장업,팀 스턴건,영업중,서울특별시 강남구 신사동 556-28,"서울특별시 강남구 도산대로25길 39, 지하1층,지상2층 (신사동)",강남구,신사동,37.5220641,127.0260237
663,체육도장업,복싱스페이스,영업중,서울특별시 강남구 신사동 529-2 신사빌딩,"서울특별시 강남구 압구정로 114, 신사빌딩 지하1층 (신사동)",강남구,신사동,37.5232774,127.021304
664,체육도장업,동영 태권도(291),영업중,서울특별시 강남구 일원동 739번지 청솔아파트상가2층,"서울특별시 강남구 광평로10길 50 (일원동,청솔아파트상가2층)",강남구,일원동,37.4805122,127.082524
665,체육도장업,신동태권도,영업중,서울특별시 강남구 청담동 134-20번지,서울특별시 강남구 학동로101길 26 (청담동),강남구,청담동,37.5223046,127.0577361
666,체육도장업,스타복싱2호점,영업중,서울특별시 강남구 수서동 726-3번지 지하1층,"서울특별시 강남구 광평로56길 14, 지하1층 (수서동)",강남구,수서동,37.4868055,127.104042
667,체육도장업,용 태권도 교육관,영업중,서울특별시 강남구 자곡동 361번지 자곡포레상가 203호,"서울특별시 강남구 밤고개로21길 25, 203호 (자곡동, 자곡포레상가)",강남구,자곡동,37.4748705,127.1098391
668,체육도장업,W복싱,영업중,"서울특별시 강남구 대치동 989-10번지 지하2층 1호, 2호",서울특별시 강남구 도곡로84길 6 (대치동),강남구,대치동,37.4989456,127.0625003
669,체육도장업,Y3복싱클럽[296],영업중,서울특별시 강남구 신사동 581-3번지 동호빌딩 지하1층,서울특별시 강남구 논현로 865 (신사동),강남구,신사동,37.5259491,127.0282123
670,체육도장업,경희대孝태권도(237),영업중,서울특별시 강남구 역삼동 754-2 도곡프라자,"서울특별시 강남구 역삼로52길 14, 도곡프라자 403호 (역삼동)",강남구,역삼동,37.4985444,127.0479369
671,체육도장업,삼성코리아용인대유도관,영업중,서울특별시 강남구 삼성동 10-20번지 지하1층,"서울특별시 강남구 선릉로126길 16 (삼성동,지하1층)",강남구,삼성동,37.51532460000001,127.0434625
672,체육도장업,The Child(더 차일드)[305],영업중,서울특별시 강남구 삼성동 83-8번지 지하1층,"서울특별시 강남구 영동대로128길 32-3, 지하1층 (삼성동)",강남구,삼성동,37.5189892,127.0603215
673,체육도장업,진원검도관(172),영업중,서울특별시 강남구 대치동 966-4번지,서울특별시 강남구 역삼로 536 (대치동),강남구,대치동,37.5037491,127.0617296
674,체육도장업,지킴이태권도(122),영업중,서울특별시 강남구 수서동 747번지 삼성아파트 상가동 205호,"서울특별시 강남구 광평로31길 27 (수서동,삼성아파트 상가동 205호)",강남구,수서동,37.4848958,127.0906778
675,체육도장업,언주 효 태권도장,영업중,서울특별시 강남구 도곡동 902-2번지 201호,"서울특별시 강남구 남부순환로363길 16, 201호 (도곡동)",강남구,도곡동,37.4873663,127.0434354
676,체육도장업,W GYM,영업중,서울특별시 강남구 역삼동 735-10번지 삼흥역삼빌딩,"서울특별시 강남구 테헤란로14길 5, 삼흥역삼빌딩 B1층 (역삼동)",강남구,역삼동,37.4990902,127.0332052
677,체육도장업,L&K 경희대태권도스쿨,영업중,서울특별시 강남구 개포동 167-3번지 영동농협개포지소,"서울특별시 강남구 선릉로 32, 영동농협개포지소 3호 (개포동)",강남구,개포동,37.48278579999999,127.0610504
678,체육도장업,경희대효태권도,영업중,서울특별시 강남구 역삼동 754-2 도곡프라자 제404호,"서울특별시 강남구 역삼로52길 14, 도곡프라자 제4층 제404호 (역삼동)",강남구,역삼동,37.4985444,127.0479369
679,체육도장업,히트앤핏 역삼,영업중,서울특별시 강남구 역삼동 726-15 정진빌딩,"서울특별시 강남구 논현로 428, 정진빌딩 지하1층 (역삼동)",강남구,역삼동,37.4985247,127.0384975
680,체육도장업,BOXER,영업중,서울특별시 강남구 삼성동 51-3 현대빌딩,"서울특별시 강남구 삼성로111길 7, 현대빌딩 3층 (삼성동)",강남구,삼성동,37.5132986,127.0525745
681,체육도장업,아트짐 복싱,영업중,서울특별시 강남구 논현동 221-5 엠빌딩,"서울특별시 강남구 논현로 626, 엠빌딩 지하2층 (논현동)",강남구,논현동,37.5095391,127.0332328
682,체력단련장업,대청spo5,영업중,서울특별시 강남구 개포동 13-3번지 대청타워,"서울특별시 강남구 개포로 623, 대청타워 3층 (개포동)",강남구,개포동,37.4940992,127.0796795
683,체력단련장업,(주)바운스 트램폴린파크 삼성센터,영업중,서울특별시 강남구 대치동 983-1번지 해암빌딩,"서울특별시 강남구 영동대로 325, B3층 (대치동, 해암빌딩)",강남구,대치동,37.5034607,127.065435
684,체력단련장업,로그짐 강남구청점,영업중,서울특별시 강남구 논현동 240-12번지,"서울특별시 강남구 선릉로129길 20, 3층 (논현동)",강남구,논현동,37.5161307,127.0398503
685,체력단련장업,Thera PT,영업중,서울특별시 강남구 논현동 234-24,"서울특별시 강남구 봉은사로29길 5, B01호 (논현동)",강남구,논현동,37.5080148,127.0346231
686,체력단련장업,로그짐 역삼점,영업중,서울특별시 강남구 역삼동 735-17번지 역삼 푸르지오 시티,"서울특별시 강남구 논현로85길 52, 역삼 푸르지오 시티 B1층 101호 (역삼동)",강남구,역삼동,37.4980124,127.0338301
687,체력단련장업,W gym,영업중,서울특별시 강남구 역삼동 659-16,"서울특별시 강남구 봉은사로30길 24, 지하 1층 (역삼동)",강남구,역삼동,37.50596600000001,127.0353492
688,체력단련장업,우아,영업중,서울특별시 강남구 청담동 62,"서울특별시 강남구 삼성로146길 10, 다인빌딩 4층 (청담동)",강남구,청담동,37.5232003,127.0488842
689,체력단련장업,블랙포스짐,영업중,서울특별시 강남구 논현동 135-17,서울특별시 강남구 학동로20길 16 (논현동),강남구,논현동,37.5121122,127.0282344
690,체력단련장업,어반스튜디오,영업중,서울특별시 강남구 삼성동 157-14,"서울특별시 강남구 테헤란로83길 19, B101호 (삼성동)",강남구,삼성동,37.50859519999999,127.0572257
691,체력단련장업,서세호 PT&PILATES,영업중,서울특별시 강남구 도곡동 411-17번지,"서울특별시 강남구 남부순환로 2732, 2층 (도곡동)",강남구,도곡동,37.4857789,127.0448822
692,체력단련장업,최원준 GYM,영업중,서울특별시 강남구 대치동 623번지 남서울종합상가,"서울특별시 강남구 남부순환로 2921, 남서울종합상가 308호 (대치동)",강남구,대치동,37.4934619,127.0597692
693,체력단련장업,ARC PT STUDIO,영업중,서울특별시 강남구 역삼동 832-21번지 태양21,"서울특별시 강남구 역삼로 110, 태양21 지하1층 (역삼동)",강남구,역삼동,37.493206,127.0311399
694,체력단련장업,F45 트레이닝 강남,영업중,서울특별시 강남구 대치동 942-19번지,"서울특별시 강남구 테헤란로84길 14, 지하1층 (대치동)",강남구,대치동,37.5062549,127.0584323
695,체력단련장업,R&FIT,영업중,서울특별시 강남구 역삼동 720-22번지 엠코스퀘어720,"서울특별시 강남구 언주로85길 14, 엠코스퀘어720 지하2층 (역삼동)",강남구,역삼동,37.5012996,127.0419183
696,체력단련장업,24시 PT&태닝,영업중,서울특별시 강남구 개포동 1258-6 유림빌딩,"서울특별시 강남구 개포로 233, 유림빌딩 (개포동)",강남구,개포동,37.47905739999999,127.0481149
697,체력단련장업,BALANCED,영업중,서울특별시 강남구 논현동 111-37,"서울특별시 강남구 선릉로135길 4, 지하2층 (논현동)",강남구,논현동,37.5188676,127.0402506
698,체력단련장업,짐팬지,영업중,서울특별시 강남구 삼성동 27-28,"서울특별시 강남구 삼성로119길 43, 지하1층 (삼성동)",강남구,삼성동,37.5150933,127.0479884
699,체력단련장업,피지오스튜디오 PT,영업중,서울특별시 강남구 신사동 582-1 한익빌딩,"서울특별시 강남구 압구정로28길 19, 한익빌딩 (신사동)",강남구,신사동,37.5250685,127.0277436
700,체력단련장업,F45,영업중,서울특별시 강남구 역삼동 696-18,"서울특별시 강남구 선릉로93길 8, 지하1층 (역삼동)",강남구,역삼동,37.5055906,127.0476985
701,체력단련장업,착한헬스 강남구청점,영업중,서울특별시 강남구 논현동 242-17,"서울특별시 강남구 선릉로129길 9-4, 2층 (논현동)",강남구,논현동,37.5159805,127.0407161
702,체력단련장업,(주)스포니스,영업중,서울특별시 강남구 삼성동 109 NSC빌딩,"서울특별시 강남구 영동대로112길 38, NSC빌딩 지하1층 (삼성동)",강남구,삼성동,37.5154047,127.0634576
703,체력단련장업,안강병원 헬스장,영업중,서울특별시 강남구 역삼동 773-6 아폴로빌딩,"서울특별시 강남구 언주로 327, 아폴로빌딩 2층 (역삼동)",강남구,역삼동,37.4970674,127.0449211
704,체력단련장업,(주)피엠코퍼레이션,영업중,서울특별시 강남구 청담동 53번지 우산빌딩,"서울특별시 강남구 도산대로 542, 우산빌딩 2층 (청담동)",강남구,청담동,37.5245549,127.053001
705,체력단련장업,헬스인,영업중,서울특별시 강남구 논현동 17-5 극동빌딩,"서울특별시 강남구 강남대로 596, 극동빌딩 지하1층 (논현동)",강남구,논현동,37.514947,127.0203987
706,체력단련장업,헬스보이짐 학동역점,영업중,서울특별시 강남구 논현동 58-3 삼익악기 빌딩,"서울특별시 강남구 학동로 171, 삼익악기 빌딩 지하1층 (논현동)",강남구,논현동,37.5141299,127.0291812
707,체력단련장업,(주)더프라자 언주,영업중,서울특별시 강남구 논현동 235-9번지,"서울특별시 강남구 봉은사로 209, 지하1층 (논현동)",강남구,논현동,37.5079315,127.0349986
708,체력단련장업,오피티스튜디오,영업중,서울특별시 강남구 대치동 931-26 우석빌딩,"서울특별시 강남구 삼성로 317, 우석빌딩 지하2층 (대치동)",강남구,대치동,37.5001845,127.0598429
709,체력단련장업,This is fitness,영업중,서울특별시 강남구 청담동 85-2번지 유리빌딩,"서울특별시 강남구 선릉로 822, 유리빌딩 (청담동)",강남구,청담동,37.5252076,127.0401591
710,체력단련장업,테라피티,영업중,서울특별시 강남구 논현동 111-27번지,"서울특별시 강남구 선릉로 709, 5층 (논현동)",강남구,논현동,37.5182165,127.0406688
711,체력단련장업,선릉역점 스포애니,영업중,서울특별시 강남구 역삼동 705-25 APEXTOWER,"서울특별시 강남구 선릉로 513, APEXTOWER 지하1층 (역삼동)",강남구,역삼동,37.5052816,127.0483082
712,체력단련장업,액트짐 논현점,영업중,서울특별시 강남구 논현동 164 영동빌딩,"서울특별시 강남구 강남대로 520, 영동빌딩 3층 (논현동)",강남구,논현동,37.5086423,127.0229887
713,체력단련장업,이원다이애그노믹스(주) (EDGC),영업중,서울특별시 강남구 대치동 1021-4번지 미즈메디병원,"서울특별시 강남구 도곡로 452, 미즈메디병원 6층 (대치동)",강남구,대치동,37.4982085,127.0599069
714,체력단련장업,김대현피티스튜디오 도곡한티역점,영업중,서울특별시 강남구 도곡동 538-1,"서울특별시 강남구 선릉로 227, 지하1층 1호 (도곡동)",강남구,도곡동,37.4958321,127.0527291
715,체력단련장업,디엔엘고,영업중,서울특별시 강남구 청담동 131-14번지,"서울특별시 강남구 영동대로138길 9, 303호 (청담동)",강남구,청담동,37.5230699,127.0564773
716,체력단련장업,min to MAX,영업중,서울특별시 강남구 논현동 81-2번지,"서울특별시 강남구 논현로136길 6, 3층 (논현동)",강남구,논현동,37.515798,127.0305802
717,체력단련장업,올플렉스짐,영업중,서울특별시 강남구 역삼동 790-12번지,"서울특별시 강남구 논현로71길 10, 5층 (역삼동)",강남구,역삼동,37.49507130000001,127.0386639
718,체력단련장업,운동중,영업중,서울특별시 강남구 삼성동 29번지,"서울특별시 강남구 선릉로120길 34, 2층 (삼성동)",강남구,삼성동,37.51433919999999,127.0453791
719,체력단련장업,PT studio one,영업중,서울특별시 강남구 청담동 1-10번지,"서울특별시 강남구 도산대로56길 10, 루벤스 빌딩 4층 (청담동)",강남구,청담동,37.5224636,127.0401333
720,체력단련장업,큐벨로(QVELO),영업중,서울특별시 강남구 신사동 628-38번지,"서울특별시 강남구 언주로151길 18, 지하1층 (신사동)",강남구,신사동,37.522007,127.031777
721,체력단련장업,ROD Fitness,영업중,서울특별시 강남구 도곡동 419-1 성일빌딩,"서울특별시 강남구 남부순환로378길 10, 성일빌딩 지하1층 (도곡동)",강남구,도곡동,37.4855914,127.0456872
722,체력단련장업,움직이는 공간,영업중,서울특별시 강남구 논현동 262번지,"서울특별시 강남구 학동로42길 53, 지하1층 (논현동)",강남구,논현동,37.5120216,127.0368745
723,체력단련장업,운동장,영업중,서울특별시 강남구 신사동 592-4번지 이가빌딩,"서울특별시 강남구 논현로 826, 이가빌딩 지하1층 (신사동)",강남구,신사동,37.5221892,127.0285363
724,체력단련장업,위고짐(WEGO GYM),영업중,서울특별시 강남구 신사동 662-13번지 신사동 S빌딩,"서울특별시 강남구 선릉로161길 15-4, 신사동 S빌딩 2층 (신사동)",강남구,신사동,37.5271064,127.038907
725,체력단련장업,체육관 1호,영업중,서울특별시 강남구 논현동 221-13,"서울특별시 강남구 논현로 628, 1층 (논현동)",강남구,논현동,37.5098201,127.0331008
726,체력단련장업,아토즈무브,영업중,서울특별시 강남구 청담동 85-7,"서울특별시 강남구 선릉로152길 7, 홍경빌딩 4층 (청담동)",강남구,청담동,37.5242594,127.0401648
727,체력단련장업,피트인 피트니스,영업중,서울특별시 강남구 신사동 582-8,"서울특별시 강남구 논현로 851, 지하1층 (신사동)",강남구,신사동,37.5248889,127.028072
728,체력단련장업,RF 트레이닝 스튜디오,영업중,서울특별시 강남구 역삼동 723-31 역삼동제이빌딩,"서울특별시 강남구 언주로85길 23-10, 역삼동제이빌딩 지하1층 (역삼동)",강남구,역삼동,37.500188,127.0414977
729,체력단련장업,어반프라이빗짐,영업중,서울특별시 강남구 도곡동 417-7,"서울특별시 강남구 논현로38길 32-11, 지하1층 (도곡동)",강남구,도곡동,37.4849172,127.0448672
730,체력단련장업,청담짐,영업중,서울특별시 강남구 청담동 120,"서울특별시 강남구 도산대로81길 8, 지하1층 (청담동)",강남구,청담동,37.5249815,127.048035
731,체력단련장업,DIVE GYM PRIVATE,영업중,서울특별시 강남구 역삼동 754-2 도곡프라자,"서울특별시 강남구 역삼로52길 14, 도곡프라자 3층 (역삼동)",강남구,역삼동,37.4985444,127.0479369
732,체력단련장업,다짐,영업중,서울특별시 강남구 청담동 80-17,"서울특별시 강남구 선릉로162길 51, 201호 (청담동)",강남구,청담동,37.5262036,127.0447439
733,체력단련장업,PT ONE,영업중,서울특별시 강남구 신사동 571-4,"서울특별시 강남구 압구정로20길 24, 4층 (신사동)",강남구,신사동,37.5245614,127.0260596
734,체력단련장업,본투윈 스포츠,영업중,서울특별시 강남구 신사동 564-18 여암(如巖)빌딩,"서울특별시 강남구 도산대로25길 26, 여암(如巖)빌딩 B02호 (신사동)",강남구,신사동,37.5214962,127.0270393
735,체력단련장업,라파짐엔 필라테스,영업중,서울특별시 강남구 대치동 899-3,"서울특별시 강남구 역삼로63길 23, 4층 (대치동)",강남구,대치동,37.5027097,127.0517647
736,체력단련장업,노크 프로젝트,영업중,서울특별시 강남구 역삼동 817-19,"서울특별시 강남구 테헤란로1길 28-8, 2층 (역삼동)",강남구,역삼동,37.5002843,127.0281476
737,체력단련장업,바디스 짐,영업중,서울특별시 강남구 논현동 90-7 디와이빌딩,"서울특별시 강남구 학동로 233, 디와이빌딩 지하1층 (논현동)",강남구,논현동,37.5155265,127.0346714
738,체력단련장업,제이투짐,영업중,서울특별시 강남구 개포동 13-3 대청타워,"서울특별시 강남구 개포로 623, 대청타워 2층 234-7호 (개포동)",강남구,개포동,37.4940992,127.0796795
739,체력단련장업,짐파티,영업중,서울특별시 강남구 삼성동 65 삼성빌딩,"서울특별시 강남구 삼성로 642, 삼성빌딩 3층 302호 (삼성동)",강남구,삼성동,37.5174041,127.0513608
740,체력단련장업,닥터포바디 퍼스널 트레이닝,영업중,서울특별시 강남구 개포동 158-9,"서울특별시 강남구 선릉로4길 11, 3층 (개포동)",강남구,개포동,37.4826632,127.0620605
741,체력단련장업,제이슨의 V트레이닝(체대친구들 오프라인센터),영업중,서울특별시 강남구 대치동 912-28번지 주원빌딩,"서울특별시 강남구 삼성로71길 12, 주원빌딩 지하1층 (대치동)",강남구,대치동,37.5022678,127.0578621
742,체력단련장업,워너비즈,영업중,서울특별시 강남구 논현동 266-1번지,"서울특별시 강남구 선릉로119길 15, 지하2층 (논현동)",강남구,논현동,37.51323259999999,127.0413396
743,체력단련장업,주식회사 어센트 스포츠,영업중,서울특별시 강남구 대치동 66번지 쌍용아파트,"서울특별시 강남구 영동대로 210, 지하2층 (대치동, 쌍용아파트)",강남구,대치동,37.4980827,127.0712194
744,체력단련장업,에스앤제이헬스케어,영업중,서울특별시 강남구 청담동 133번지 소천빌딩,"서울특별시 강남구 영동대로 706, 소천빌딩 4,5층 (청담동)",강남구,청담동,37.5207985,127.0573023
745,체력단련장업,로그짐 압구정점,영업중,서울특별시 강남구 신사동 569-29번지 신사동 더원 빌딩,"서울특별시 강남구 압구정로28길 40, 신사동 더원 빌딩 5층 (신사동)",강남구,신사동,37.52396239999999,127.0274621
746,체력단련장업,숀리엔한진 네츄럴 바디스쿨,영업중,서울특별시 강남구 대치동 1021-6번지 정일빌딩,"서울특별시 강남구 도곡로 458, 정일빌딩 지하, 2층 202호 (대치동)",강남구,대치동,37.4984543,127.0604313
747,체력단련장업,에이트바디,영업중,서울특별시 강남구 신사동 593-8번지,"서울특별시 강남구 논현로158길 7, 지하1층 (신사동)",강남구,신사동,37.5221995,127.0290654
748,체력단련장업,크로스핏 강남(언주),영업중,서울특별시 강남구 논현동 228-8번지 ARTISAN 빌,"서울특별시 강남구 논현로 614, ARTISAN 빌 지하3층 (논현동)",강남구,논현동,37.5086087,127.033617
749,체력단련장업,위크로스핏 양재,영업중,서울특별시 강남구 도곡동 954-19,"서울특별시 강남구 남부순환로355길 13, 지하1층 (도곡동)",강남구,도곡동,37.48584779999999,127.0357028
750,체력단련장업,소프트 실버타입,영업중,서울특별시 강남구 삼성동 19-4 래미안 라클래시,"서울특별시 강남구 삼성로 651, 3층 301호 (삼성동, 래미안 라클래시)",강남구,삼성동,37.51397499999999,127.0561274
751,체력단련장업,파트너짐,영업중,서울특별시 강남구 신사동 570-12 낙산프라자,"서울특별시 강남구 논현로167길 9, 낙산프라자 지하1층 (신사동)",강남구,신사동,37.5244491,127.0274542
752,체력단련장업,엠브이엠 앤 루해빗 여성전용 피트니스 수서역점,영업중,서울특별시 강남구 수서동 714-4 문암빌딩,"서울특별시 강남구 광평로51길 6-11, 문암빌딩 지하1층 (수서동)",강남구,수서동,37.4885196,127.1032564
753,체력단련장업,바디스 짐,영업중,서울특별시 강남구 논현동 129-4,"서울특별시 강남구 학동로28길 5, 지하1층 (논현동)",강남구,논현동,37.5133582,127.0302716
754,체력단련장업,GYM Y STUDIO,영업중,서울특별시 강남구 논현동 272-33,서울특별시 강남구 선릉로111길 40 (논현동),강남구,논현동,37.5141825,127.0265321
755,체력단련장업,아워플레이스PT,영업중,서울특별시 강남구 역삼동 754 개나리 래미안,"서울특별시 강남구 역삼로 306, 204호 (역삼동, 개나리 래미안)",강남구,역삼동,37.498551,127.0464387
756,체력단련장업,비오스짐,영업중,서울특별시 강남구 신사동 626-79,"서울특별시 강남구 도산대로37길 28, 지하1층 (신사동)",강남구,신사동,37.5228568,127.0315325
757,체력단련장업,RE:BORNFIT 개포,영업중,서울특별시 강남구 개포동 655-4 개포동 메디시스빌딩,"서울특별시 강남구 개포로 265, 개포동 메디시스빌딩 201호 (개포동)",강남구,개포동,37.48094690000001,127.0529676
758,체력단련장업,BMLSTUDIO 비엠엘 스튜디오,영업중,서울특별시 강남구 역삼동 799-18,"서울특별시 강남구 논현로63길 25, 3층 (역삼동)",강남구,역삼동,37.492258,127.0389279
759,체력단련장업,베러댄 나우 PT STUDIO 언주,영업중,서울특별시 강남구 역삼동 658 역삼동658빌딩,"서울특별시 강남구 봉은사로30길 11 (역삼동, 역삼동658빌딩)",강남구,역삼동,37.5068188,127.0354755
760,체력단련장업,오늘PT,영업중,서울특별시 강남구 도곡동 423-7,"서울특별시 강남구 논현로28길 42, 지하1층 (도곡동)",강남구,도곡동,37.4841773,127.0454865
761,체력단련장업,Wayfit PT,영업중,서울특별시 강남구 개포동 168,"서울특별시 강남구 선릉로16길 4, 2층 (개포동)",강남구,개포동,37.4837268,127.0599042
762,체력단련장업,바디아티스트 강남역점,영업중,서울특별시 강남구 역삼동 825-24,"서울특별시 강남구 강남대로84길 15, 2층 208호 (역삼동)",강남구,역삼동,37.4970267,127.0297692
763,체력단련장업,현대앤드쓰리,영업중,서울특별시 강남구 압구정동 455,서울특별시 강남구 압구정로29길 68 (압구정동),강남구,압구정동,37.5319756,127.0285632
764,체력단련장업,머슬엑스,영업중,서울특별시 강남구 역삼동 687-7번지,"서울특별시 강남구 언주로108길 16, B1층 (역삼동)",강남구,역삼동,37.50835060000001,127.0406965
765,체력단련장업,플레이존스포츠(Playzone),영업중,서울특별시 강남구 신사동 528-8번지,서울특별시 강남구 압구정로 106 (신사동),강남구,신사동,37.522683,127.0203605
766,체력단련장업,올댓바디,영업중,서울특별시 강남구 신사동 547-2번지,"서울특별시 강남구 압구정로12길 13, 동성빌딩 3층 (신사동)",강남구,신사동,37.5228744,127.0273826
767,체력단련장업,매드핏,영업중,서울특별시 강남구 역삼동 641-3 노바빌딩,"서울특별시 강남구 논현로 523, 노바빌딩 지하2층 (역삼동)",강남구,역삼동,37.5030584,127.035436
768,체력단련장업,피트니스 일레븐,영업중,서울특별시 강남구 역삼동 708-35 호텔 뉴브,"서울특별시 강남구 선릉로85길 6, 호텔 뉴브 4층 (역삼동)",강남구,역삼동,37.5030217,127.0491112
769,체력단련장업,주식회사 진스엠파워,영업중,서울특별시 강남구 대치동 983-1번지 S-TOWER,"서울특별시 강남구 영동대로 325, 3층 (대치동, S-TOWER)",강남구,대치동,37.5034607,127.065435
770,체력단련장업,커브스 개포클럽,영업중,서울특별시 강남구 개포동 186-6번지,"서울특별시 강남구 개포로82길 13-15, 302호 (개포동)",강남구,개포동,37.4887997,127.0683629
771,체력단련장업,Beyond Fitness Club,영업중,서울특별시 강남구 역삼동 799-19 일성빌딩,"서울특별시 강남구 도곡로 181, 일성빌딩 지하1층 (역삼동)",강남구,역삼동,37.4921051,127.0390334
772,체력단련장업,Hoon fit(훈핏),영업중,서울특별시 강남구 역삼동 651-17번지 더나무앤 빌딩,"서울특별시 강남구 언주로107길 44, 더나무앤 빌딩 (역삼동)",강남구,역삼동,37.50708729999999,127.0356506
773,체력단련장업,피트니스플랜비,영업중,서울특별시 강남구 역삼동 788-15 남자빌딩,"서울특별시 강남구 도곡로 203, 남자빌딩 3층 (역삼동)",강남구,역삼동,37.4927425,127.0409914
774,체력단련장업,나비드짐,영업중,서울특별시 강남구 논현동 110-26번지,서울특별시 강남구 학동로53길 17 (논현동),강남구,논현동,37.51821899999999,127.0398375
775,체력단련장업,스카이짐,영업중,서울특별시 강남구 논현동 158-32번지,서울특별시 강남구 학동로20길 67 (논현동),강남구,논현동,37.5095383,127.0266165
776,체력단련장업,화이트짐 강남점,영업중,서울특별시 강남구 역삼동 837-18번지 서희스타힐스오피스텔,"서울특별시 강남구 도곡로3길 19, 서희스타힐스오피스텔 (역삼동)",강남구,역삼동,37.4914026,127.0326232
777,체력단련장업,무드짐,영업중,서울특별시 강남구 대치동 947-1,"서울특별시 강남구 영동대로85길 7, 2층 (대치동)",강남구,대치동,37.50715599999999,127.0630999
778,체력단련장업,하이라이트핏(HILIGHT FIT),영업중,서울특별시 강남구 역삼동 830-11,"서울특별시 강남구 역삼로5길 19, 지하1층 (역삼동)",강남구,역삼동,37.4950327,127.0318611
779,체력단련장업,주식회사 기븐 플러스,영업중,서울특별시 강남구 청담동 50 더모자익 빌딩,"서울특별시 강남구 도산대로 518, 더모자익 빌딩 2층 (청담동)",강남구,청담동,37.524174,127.0497815
780,체력단련장업,도산짐,영업중,서울특별시 강남구 신사동 651-5 쿠키빌딩,"서울특별시 강남구 도산대로45길 8-3, 쿠키빌딩 지하1층 (신사동)",강남구,신사동,37.5229945,127.0362381
781,체력단련장업,피지컬 케어&짐,영업중,서울특별시 강남구 삼성동 24-26 B 빌딩,"서울특별시 강남구 삼성로115길 20, B 빌딩 2층 (삼성동)",강남구,삼성동,37.5146266,127.0504703
782,체력단련장업,스웻온 서울,영업중,서울특별시 강남구 역삼동 652-15,"서울특별시 강남구 봉은사로34길 7, 1층 (역삼동)",강남구,역삼동,37.50750430000001,127.0364052
783,체력단련장업,버드레인,영업중,서울특별시 강남구 신사동 543-9,"서울특별시 강남구 논현로151길 50, 지하1층 (신사동)",강남구,신사동,37.5197779,127.0240366
784,체력단련장업,팀히트짐,영업중,서울특별시 강남구 대치동 894-18,"서울특별시 강남구 삼성로81길 34, 2층 (대치동)",강남구,대치동,37.504,127.0548695
785,체력단련장업,더블제이짐,영업중,서울특별시 강남구 삼성동 115-32,"서울특별시 강남구 봉은사로72길 6, 지하1층 (삼성동)",강남구,삼성동,37.5116936,127.0506212
786,체력단련장업,레벨업핏,영업중,서울특별시 강남구 역삼동 668-12 석교빌딩,"서울특별시 강남구 봉은사로30길 70, 석교빌딩 지하1층 (역삼동)",강남구,역삼동,37.5029987,127.0366967
787,체력단련장업,Piot Fitness,영업중,서울특별시 강남구 청담동 131-11,"서울특별시 강남구 영동대로 730, 지하1층 (청담동)",강남구,청담동,37.5232089,127.0558836
788,체력단련장업,뭄핏,영업중,서울특별시 강남구 수서동 451-7 갑산한의원,"서울특별시 강남구 광평로46길 4, 갑산한의원 3층 (수서동)",강남구,수서동,37.4858715,127.0989706
789,체력단련장업,짐박스피트니스 강남점,영업중,서울특별시 강남구 역삼동 809 비제바노,"서울특별시 강남구 강남대로 464, 비제바노 지하1층 (역삼동)",강남구,역삼동,37.5039133,127.0252287
790,체력단련장업,엠휘트니스8,영업중,서울특별시 강남구 논현동 208 용문빌딩,"서울특별시 강남구 학동로 208, 용문빌딩 지하1층 (논현동)",강남구,논현동,37.513963,127.0318509
791,체력단련장업,프라이빗 PT 올:연,영업중,서울특별시 강남구 역삼동 684-5,"서울특별시 강남구 언주로106길 27, 지하1층 (역삼동)",강남구,역삼동,37.5080694,127.0418013
792,체력단련장업,트러스트짐,영업중,서울특별시 강남구 역삼동 699-1,"서울특별시 강남구 언주로98길 5-4, 2층 (역삼동)",강남구,역삼동,37.5053076,127.0424912
793,체력단련장업,하이랙스 강남점,영업중,서울특별시 강남구 역삼동 826,"서울특별시 강남구 강남대로 374, 1층 (역삼동)",강남구,역삼동,37.4962484,127.0287983
794,체력단련장업,트레인트루(Traintrue),영업중,서울특별시 강남구 신사동 578-1,"서울특별시 강남구 논현로175길 11, 지하1호 (신사동)",강남구,신사동,37.5259382,127.0275871
795,체력단련장업,로그짐 학동점,영업중,서울특별시 강남구 논현동 39-20,서울특별시 강남구 논현로131길 28 (논현동),강남구,논현동,37.5151899,127.0275539
796,체력단련장업,핏앤 리프트,영업중,서울특별시 강남구 신사동 512-17,서울특별시 강남구 강남대로152길 15 (신사동),강남구,신사동,37.517467,127.0206498
797,체력단련장업,에이블짐 압구정로데오점,영업중,서울특별시 강남구 신사동 639-3 극동Gallery,"서울특별시 강남구 압구정로 320, 극동Gallery (신사동)",강남구,신사동,37.5284952,127.0364174
798,체력단련장업,더 클래식 바디랩,영업중,서울특별시 강남구 수서동 726,서울특별시 강남구 광평로56길 10 (수서동),강남구,수서동,37.4870959,127.1038039
799,체력단련장업,어썸어스,영업중,서울특별시 강남구 청담동 50 더모자익 빌딩,"서울특별시 강남구 도산대로 518, 더모자익 빌딩 (청담동)",강남구,청담동,37.5231095,127.0433693
800,체력단련장업,디스이즈 피트니스,영업중,서울특별시 강남구 신사동 517-4 M SPACE 빌딩,"서울특별시 강남구 강남대로158길 26, M SPACE 빌딩 B1층 (신사동)",강남구,신사동,37.5192618,127.0209051
801,체력단련장업,업투 삼성역점,영업중,서울특별시 강남구 대치동 945-15 제주장학회관,"서울특별시 강남구 테헤란로98길 16, 제주장학회관 지하2층 (대치동)",강남구,대치동,37.5072102,127.0624074
802,체력단련장업,Halona gym(할로나짐),영업중,서울특별시 강남구 청담동 109-21,"서울특별시 강남구 도산대로89길 41, 지하1층 (청담동)",강남구,청담동,37.5269785,127.0521599
803,체력단련장업,글램핏 PT&필라테스,영업중,서울특별시 강남구 역삼동 703-6 K타워 오피스텔,"서울특별시 강남구 언주로98길 32, K타워 오피스텔 지하1층 (역삼동)",강남구,역삼동,37.5045255,127.0443367
804,체력단련장업,큐짐,영업중,서울특별시 강남구 압구정동 481 현대아파트,"서울특별시 강남구 압구정로 309, 상가A 202동 2층 (압구정동, 현대아파트)",강남구,압구정동,37.53121429999999,127.0354395
805,체력단련장업,바비스튜디오,영업중,서울특별시 강남구 청담동 47-5 정한빌딩,"서울특별시 강남구 학동로 443, 정한빌딩 402호 (청담동)",강남구,청담동,37.51896480000001,127.0493706
806,체력단련장업,에슬레틱 플로우,영업중,서울특별시 강남구 일원동 639 영빌딩,"서울특별시 강남구 개포로 656, 영빌딩 지하1층 (일원동)",강남구,일원동,37.4950228,127.084491
807,체력단련장업,베네핏짐,영업중,서울특별시 강남구 청담동 47 노블레스타워,"서울특별시 강남구 삼성로133길 3, 노블레스타워 8층 (청담동)",강남구,청담동,37.5196492,127.0491925
808,체력단련장업,고PT,영업중,서울특별시 강남구 삼성동 24-21,"서울특별시 강남구 삼성로115길 16-5, 2층 (삼성동)",강남구,삼성동,37.5149487,127.0504852
809,체력단련장업,스타디온 삼성,영업중,서울특별시 강남구 삼성동 144-25 애플트리타워,"서울특별시 강남구 테헤란로 443, 애플트리타워 지하1층 (삼성동)",강남구,삼성동,37.507038,127.0555548
810,체력단련장업,스케치바디PT&필라테스,영업중,서울특별시 강남구 수서동 714 로얄프라자,"서울특별시 강남구 광평로51길 8, 로얄프라자 302호 (수서동)",강남구,수서동,37.4883694,127.1024722
811,체력단련장업,허니짐,영업중,서울특별시 강남구 역삼동 789-30,"서울특별시 강남구 역삼로14길 7, 2층 (역삼동)",강남구,역삼동,37.4941156,127.0355155
812,체력단련장업,86 피티(PT),영업중,서울특별시 강남구 일원동 642-11,"서울특별시 강남구 양재대로55길 37, 403호 (일원동)",강남구,일원동,37.4931849,127.0868326
813,체력단련장업,오엠짐,영업중,서울특별시 강남구 대치동 957-1,"서울특별시 강남구 삼성로86길 6, 2층 (대치동)",강남구,대치동,37.5055131,127.0579875
814,체력단련장업,Back Gym(백짐),영업중,서울특별시 강남구 삼성동 42-2,"서울특별시 강남구 봉은사로63길 14, B1층 (삼성동)",강남구,삼성동,37.5122876,127.0470842
815,체력단련장업,피크핏(PEAKFIT),영업중,서울특별시 강남구 논현동 235-10 그림바우빌딩,"서울특별시 강남구 봉은사로 211, 그림바우빌딩 지하1층 (논현동)",강남구,논현동,37.5079874,127.0352156
816,체력단련장업,(주)신안관광 호텔리베라 체력단련장,영업중,서울특별시 강남구 청담동 53-7 리베라호텔,"서울특별시 강남구 영동대로 737, 리베라호텔 지하2층 (청담동)",강남구,청담동,37.5238934,127.0541241
817,체력단련장업,AIM-FIT(에임핏),영업중,서울특별시 강남구 신사동 589-18 한서빌딩,"서울특별시 강남구 논현로152길 37, 한서빌딩 3층 (신사동)",강남구,신사동,37.5217741,127.0311264
818,체력단련장업,버터짐 더 프리미엄 역삼점,영업중,서울특별시 강남구 역삼동 722 경남아파트,"서울특별시 강남구 언주로85길 13, 지하1층 (역삼동, 경남아파트)",강남구,역삼동,37.5004607,127.0424651
819,체력단련장업,독한GYM,영업중,서울특별시 강남구 역삼동 608-14,"서울특별시 강남구 봉은사로26길 30, 1층 (역삼동)",강남구,역삼동,37.5051052,127.0338042
820,체력단련장업,코너맨(CORNER MAN),영업중,서울특별시 강남구 신사동 562-14,"서울특별시 강남구 논현로151길 20, 지하1층 (신사동)",강남구,신사동,37.5201477,127.0264818
821,체력단련장업,리뉴짐,영업중,서울특별시 강남구 신사동 614-7 방우빌딩,"서울특별시 강남구 압구정로 212, 방우빌딩 2층 (신사동)",강남구,신사동,37.5278224,127.0304583
822,체력단련장업,샵피트니스,영업중,서울특별시 강남구 역삼동 678,"서울특별시 강남구 테헤란로27길 18, 지하2층 (역삼동)",강남구,역삼동,37.5025697,127.0379343
823,체력단련장업,GYM223,영업중,서울특별시 강남구 신사동 626-50,"서울특별시 강남구 논현로168길 47, 지하1층 (신사동)",강남구,신사동,37.5233474,127.0319867
824,체력단련장업,S&H웰빙휘트니스,영업중,서울특별시 강남구 도곡동 543 동신빌딩,"서울특별시 강남구 도곡로 204, 동신빌딩 지하1층 (도곡동)",강남구,도곡동,37.4921532,127.0413973
825,체력단련장업,시그니브,영업중,서울특별시 강남구 신사동 631-28,"서울특별시 강남구 언주로152길 15-3, 지하1층 (신사동)",강남구,신사동,37.52301490000001,127.0347969
826,체력단련장업,제임스짐,영업중,서울특별시 강남구 역삼동 677-23 오렌지플래닛,"서울특별시 강남구 테헤란로 217, 오렌지플래닛 지하1층 (역삼동)",강남구,역삼동,37.5020469,127.0399635
827,체력단련장업,휘트니스엠 양재,영업중,서울특별시 강남구 도곡동 953-1 양재SK허브프리모,"서울특별시 강남구 강남대로 240, 양재SK허브프리모 지하2층 (도곡동)",강남구,도곡동,37.4853089,127.0344036
828,체력단련장업,다짐 PT,영업중,서울특별시 강남구 역삼동 838-9 거암빌딩,"서울특별시 강남구 도곡로 115, 거암빌딩 지하1층 (역삼동)",강남구,역삼동,37.4902059,127.0329695
829,체력단련장업,비나이더 피트니스 청담점,영업중,서울특별시 강남구 청담동 44-15 청담빌딩,"서울특별시 강남구 학동로 413, 청담빌딩 지하1층 (청담동)",강남구,청담동,37.5182096,127.0451825
830,체력단련장업,휴즈짐,영업중,서울특별시 강남구 청담동 38-18,"서울특별시 강남구 선릉로132길 17, 지하1층 (청담동)",강남구,청담동,37.5183489,127.0426141
831,체력단련장업,GAME CHANGER(게임체인저),영업중,서울특별시 강남구 신사동 616-5,"서울특별시 강남구 언주로173길 14, 4층 (신사동)",강남구,신사동,37.5282031,127.032297
832,체력단련장업,니드핏(Need Fit),영업중,서울특별시 강남구 논현동 231-6,"서울특별시 강남구 언주로113길 10, 4층 (논현동)",강남구,논현동,37.5095092,127.0364975
833,체력단련장업,(주)조선호텔앤리조트 센터필드 피트니스클럽,영업중,서울특별시 강남구 역삼동 676 센터필드,"서울특별시 강남구 테헤란로 231, 센터필드 EAST동 3층 (역삼동)",강남구,역삼동,37.5030426,127.041588
834,체력단련장업,버핏그라운드 역삼,영업중,서울특별시 강남구 역삼동 736-1 캐피탈타워,"서울특별시 강남구 테헤란로 142, 캐피탈타워 B1층 (역삼동)",강남구,역삼동,37.4997187,127.0348982
835,체력단련장업,윔짐,영업중,서울특별시 강남구 율현동 196-86 율현동 196-86 다세대주택,"서울특별시 강남구 밤고개로23길 10-23, B1층 (율현동, 율현동 196-86 다세대주택)",강남구,율현동,37.4720631,127.1089608
836,체력단련장업,리스튜디오,영업중,서울특별시 강남구 청담동 16-17,"서울특별시 강남구 삼성로147길 66, 지하2층 (청담동)",강남구,청담동,37.5206116,127.0443083
837,체력단련장업,슬릭 강남 캠프,영업중,서울특별시 강남구 역삼동 826-21 미왕빌딩,"서울특별시 강남구 강남대로 364, 미왕빌딩 지하2층 (역삼동)",강남구,역삼동,37.4955525,127.0292924
838,체력단련장업,이루짐 피티샵 대치점,영업중,서울특별시 강남구 대치동 959-4 은혜빌딩,"서울특별시 강남구 삼성로 416, 은혜빌딩 지하1층 (대치동)",강남구,대치동,37.50424599999999,127.0582827
839,체력단련장업,STV 피지컬 퍼포먼스짐,영업중,서울특별시 강남구 삼성동 49-12,"서울특별시 강남구 봉은사로 469, B2층 (삼성동)",강남구,삼성동,37.5126001,127.0507861
840,체력단련장업,Pers fitness,영업중,서울특별시 강남구 논현동 96-4,"서울특별시 강남구 언주로150길 34, B1층 (논현동)",강남구,논현동,37.5215398,127.0371476
841,체력단련장업,크로스핏 라임라잇(주),영업중,서울특별시 강남구 신사동 644-3,"서울특별시 강남구 언주로168길 15, 지하1층 (신사동)",강남구,신사동,37.5264494,127.0348867
842,체력단련장업,나비드짐 PT&필라테스 선릉점,영업중,서울특별시 강남구 대치동 889-75,"서울특별시 강남구 선릉로86길 7, B1층 (대치동)",강남구,대치동,37.503303,127.0503179
843,체력단련장업,블루덤벨 휘트니스,영업중,서울특별시 강남구 청담동 18-34,"서울특별시 강남구 도산대로68길 26, 1층 (청담동)",강남구,청담동,37.521931,127.0443762
844,체력단련장업,밸류온피트니스,영업중,서울특별시 강남구 역삼동 773-5 삼일빌딩,"서울특별시 강남구 언주로 329, 삼일빌딩 (역삼동)",강남구,역삼동,37.4972191,127.0448499
845,체력단련장업,206짐,영업중,서울특별시 강남구 삼성동 51 청송빌딩,"서울특별시 강남구 삼성로 605, 청송빌딩 (삼성동)",강남구,삼성동,37.5135167,127.0527215
846,체력단련장업,F45 트레이닝 역삼,영업중,서울특별시 강남구 역삼동 735-15,서울특별시 강남구 테헤란로14길 13 (역삼동),강남구,역삼동,37.4985274,127.0334825
847,체력단련장업,MASTER GYM(마스터짐 앤 필라테스),영업중,서울특별시 강남구 청담동 125-6 아름다운빌딩,"서울특별시 강남구 압구정로79길 56, 아름다운빌딩 (청담동)",강남구,청담동,37.5253745,127.0517968
848,체력단련장업,바디튜토리얼,영업중,서울특별시 강남구 역삼동 831-17 경원빌딩,"서울특별시 강남구 강남대로 340, 경원빌딩 (역삼동)",강남구,역삼동,37.49355550000001,127.0302509
849,체력단련장업,한티역점 스포애니 주)케이디스포츠,영업중,서울특별시 강남구 대치동 922-1 SH타워,"서울특별시 강남구 선릉로 324, SH타워 (대치동)",강남구,대치동,37.4991887,127.0633458
850,체력단련장업,액트짐 신논현점,영업중,서울특별시 강남구 역삼동 601-18 은성빌딩,서울특별시 강남구 봉은사로 116,강남구,역삼동,37.5046841,127.0264266
851,체력단련장업,타잇바디짐,영업중,서울특별시 강남구 대치동 900-18,서울특별시 강남구 역삼로65길 20 (대치동),강남구,대치동,37.502542,127.0525587
852,체력단련장업,커브스 세곡클럽,영업중,서울특별시 강남구 세곡동 587 강남지웰파인즈,"서울특별시 강남구 헌릉로569길 9, 강남지웰파인즈 (세곡동)",강남구,세곡동,37.4669731,127.1005262
853,체력단련장업,짐타운,영업중,서울특별시 강남구 신사동 636-16,서울특별시 강남구 언주로172길 14 (신사동),강남구,신사동,37.5276336,127.0348904
854,체력단련장업,프로짐,영업중,서울특별시 강남구 논현동 242-51 성부빌딩,"서울특별시 강남구 선릉로 655, 성부빌딩 2, 3층 (논현동)",강남구,논현동,37.5150978,127.0417703
855,체력단련장업,온더피티 스튜디오,영업중,서울특별시 강남구 역삼동 838-7,"서울특별시 강남구 강남대로62길 18, 2층 202호 (역삼동)",강남구,역삼동,37.490455,127.0330547
856,체력단련장업,청담피트니스,영업중,서울특별시 강남구 청담동 71-25 성호빌딩,"서울특별시 강남구 학동로97길 20, 성호빌딩 지하1층 (청담동)",강남구,청담동,37.5212011,127.0554736
857,체력단련장업,토탈케어 컴퍼니,영업중,서울특별시 강남구 논현동 241-1 강남파라곤,"서울특별시 강남구 학동로 338, 지하2층층 (논현동, 강남파라곤)",강남구,논현동,37.5165513,127.0401391
858,체력단련장업,온유어짐 PT studio 압구정,영업중,서울특별시 강남구 신사동 613-3,"서울특별시 강남구 논현로176길 20, 지하1층 (신사동)",강남구,신사동,37.5272323,127.0301438
859,체력단련장업,마이티핏,영업중,서울특별시 강남구 삼성동 144 천해빌딩,"서울특별시 강남구 삼성로95길 15, 천해빌딩 지하1층 (삼성동)",강남구,삼성동,37.5077118,127.0544885
860,체력단련장업,포텐PT,영업중,서울특별시 강남구 논현동 141-10 스카이 빌딩,"서울특별시 강남구 학동로4길 18, 스카이 빌딩 지하1층 (논현동)",강남구,논현동,37.5102708,127.023156
861,체력단련장업,바른PT,영업중,서울특별시 강남구 논현동 49 선양빌딩,"서울특별시 강남구 강남대로 570, 선양빌딩 지하1층 B01호 (논현동)",강남구,논현동,37.5128276,127.0209895
862,체력단련장업,건강해짐(Gym),영업중,서울특별시 강남구 논현동 273-4,"서울특별시 강남구 봉은사로43길 29, 1층 204호 (논현동)",강남구,논현동,37.5110904,127.0391031
863,체력단련장업,와이짐(Y GYM),영업중,서울특별시 강남구 논현동 42-7,"서울특별시 강남구 강남대로132길 59, 2층 (논현동)",강남구,논현동,37.5135109,127.0258454
864,체력단련장업,디프로PT,영업중,서울특별시 강남구 삼성동 49-11 세창빌딩,"서울특별시 강남구 봉은사로 467, 세창빌딩 3층 (삼성동)",강남구,삼성동,37.5125515,127.0506245
865,체력단련장업,"버핏그라운드 역삼 별관, 팀버핏 역삼",영업중,서울특별시 강남구 역삼동 648-9,"서울특별시 강남구 테헤란로 129, B1층 (역삼동)",강남구,역삼동,37.50011740000001,127.0322218
866,체력단련장업,파프짐 개포,영업중,서울특별시 강남구 개포동 656-3,"서울특별시 강남구 언주로7길 6, 지하2층 (개포동)",강남구,개포동,37.477066,127.0554648
867,체력단련장업,크로스핏 타키온,영업중,서울특별시 강남구 개포동 1229 보성빌딩,"서울특별시 강남구 논현로 90, 보성빌딩 지하1층 (개포동)",강남구,개포동,37.4779626,127.0450754
868,체력단련장업,움직임플러스 청담,영업중,서울특별시 강남구 청담동 5-25 청담휴먼스타빌,"서울특별시 강남구 도산대로 454, 201호 (청담동, 청담휴먼스타빌)",강남구,청담동,37.5236312,127.0460427
869,체력단련장업,빌리프짐 선릉역점,영업중,서울특별시 강남구 삼성동 141-8,"서울특별시 강남구 테헤란로63길 9, B1층 (삼성동)",강남구,삼성동,37.5059487,127.049908
870,체력단련장업,알이에스피(RES.P),영업중,서울특별시 강남구 신사동 643-10 오리엔탈빌딩,"서울특별시 강남구 언주로172길 28, 오리엔탈빌딩 지하층 (신사동)",강남구,신사동,37.5272629,127.0359928
871,체력단련장업,김성환짐,영업중,서울특별시 강남구 역삼동 746 PMK 빌딩,"서울특별시 강남구 논현로 419, PMK 빌딩 지하1층 (역삼동)",강남구,역삼동,37.4975089,127.0380919
872,체력단련장업,펀짐,영업중,서울특별시 강남구 논현동 198-22,"서울특별시 강남구 봉은사로1길 8, 3층 (논현동)",강남구,논현동,37.5054993,127.0250796
873,체력단련장업,F45 신논현,영업중,서울특별시 강남구 논현동 201-6 노벨테크빌딩,"서울특별시 강남구 봉은사로 115, 노벨테크빌딩 B1층 (논현동)",강남구,논현동,37.5052654,127.026161
874,체력단련장업,강남피티,영업중,서울특별시 강남구 역삼동 640-21,"서울특별시 강남구 논현로95길 10, 지하1층 (역삼동)",강남구,역삼동,37.50243690000001,127.0350421
875,체력단련장업,플로우핏,영업중,서울특별시 강남구 신사동 577-12,"서울특별시 강남구 압구정로28길 18, 2층 (신사동)",강남구,신사동,37.5254752,127.0275733
876,체력단련장업,스타휘트니스 246,영업중,서울특별시 강남구 논현동 246,"서울특별시 강남구 언주로130길 12, 가동 3층 (논현동)",강남구,논현동,37.5147692,127.0365691
877,체력단련장업,엠엔휘트니스,영업중,서울특별시 강남구 논현동 165 서희빌딩,"서울특별시 강남구 강남대로 502, 에임하이타워 지하1층 (논현동)",강남구,논현동,37.5071677,127.0236869
878,체력단련장업,트라이앵글,영업중,서울특별시 강남구 청담동 88-1 하늘빌딩,"서울특별시 강남구 도산대로55길 26, 하늘빌딩 4층 (청담동)",강남구,청담동,37.5252611,127.040778
879,체력단련장업,고알레 클럽하우스,영업중,서울특별시 강남구 논현동 93 대동타워,"서울특별시 강남구 도산대로 326, 대동타워 지하1층 (논현동)",강남구,논현동,37.5223191,127.0377427
880,체력단련장업,Health in,영업중,서울특별시 강남구 삼성동 51,"서울특별시 강남구 삼성로 605, 지하1층 (삼성동)",강남구,삼성동,37.5135167,127.0527215
881,체력단련장업,리미트리스 짐,영업중,서울특별시 강남구 역삼동 784-13번지 동우빌딩,"서울특별시 강남구 도곡로37길 14, B1층 (역삼동, 동우빌딩)",강남구,역삼동,37.4948089,127.0451301
882,체력단련장업,로그짐 삼성점,영업중,서울특별시 강남구 삼성동 153-55 심스빌딩,"서울특별시 강남구 테헤란로87길 39, 심스빌딩 B2층 (삼성동)",강남구,삼성동,37.5103882,127.0576631
883,체력단련장업,올댓바스켓,영업중,서울특별시 강남구 대치동 988-15번지,"서울특별시 강남구 도곡로 505, 지하2,3층 (대치동)",강남구,대치동,37.4995633,127.0616676
884,체력단련장업,짐로드,영업중,서울특별시 강남구 청담동 32-5,"서울특별시 강남구 삼성로133길 12, 지하1층 (청담동)",강남구,청담동,37.5196516,127.0485063
885,체력단련장업,우리짐 청담점,영업중,서울특별시 강남구 청담동 92-22 드림빌딩,"서울특별시 강남구 압구정로80길 35, 드림빌딩 지하1층 (청담동)",강남구,청담동,37.5244165,127.0437917
886,체력단련장업,(주)피기블라인더스,영업중,서울특별시 강남구 청담동 87-5,"서울특별시 강남구 도산대로 413, 지하2층 (청담동)",강남구,청담동,37.5237795,127.0407028
887,체력단련장업,카노(KANO),영업중,서울특별시 강남구 역삼동 672-32,서울특별시 강남구 언주로93길 32-8 (역삼동),강남구,역삼동,37.5037704,127.0392671
888,체력단련장업,주식회사 무브옵,영업중,서울특별시 강남구 청담동 118-18 대청빌딩,"서울특별시 강남구 도산대로81길 17, 대청빌딩 3층 (청담동)",강남구,청담동,37.5254577,127.0474639
889,체력단련장업,호짐,영업중,서울특별시 강남구 일원동 619-1 현대빌딩,"서울특별시 강남구 개포로 628, 현대빌딩 지하1층 (일원동)",강남구,일원동,37.49407679999999,127.0815885
890,체력단련장업,드래곤짐,영업중,서울특별시 강남구 논현동 3-15,"서울특별시 강남구 도산대로6길 15, 지하1층 (논현동)",강남구,논현동,37.5158004,127.0219678
891,체력단련장업,도넛 PT 스튜디오,영업중,서울특별시 강남구 논현동 230-18,"서울특별시 강남구 언주로113길 16, 지하1층 (논현동)",강남구,논현동,37.5093271,127.0359861
892,체력단련장업,바디스짐 언주역점,영업중,서울특별시 강남구 논현동 192-4,"서울특별시 강남구 논현로 611, 지하1층 (논현동)",강남구,논현동,37.5082467,127.0331112
893,체력단련장업,(주)더프리마,영업중,서울특별시 강남구 청담동 56-17,서울특별시 강남구 도산대로102길 10 (청담동),강남구,청담동,37.5238967,127.0528318
894,체력단련장업,TABFIT,영업중,서울특별시 강남구 대치동 912-10번지,"서울특별시 강남구 역삼로 458, 지하1층 (대치동, 영미빌딩)",강남구,대치동,37.5024983,127.0574222
895,체력단련장업,한마음(125),영업중,서울특별시 강남구 대치동 961번지 창진빌딩 7층,"서울특별시 강남구 삼성로 352 (대치동,창진빌딩 7층)",강남구,대치동,37.5030162,127.059019
896,체력단련장업,상아(129),영업중,서울특별시 강남구 역삼동 831번지 한국빌딩 지하2층,"서울특별시 강남구 강남대로 354  (역삼동,한국빌딩 지하2층)",강남구,역삼동,37.5000995,127.033466
897,체력단련장업,클럽케이 서울 휘트니스,영업중,서울특별시 강남구 삼성동 140-3번지 대림아크로텔 B201,"서울특별시 강남구 선릉로 524 (삼성동,대림아크로텔 B201)",강남구,삼성동,37.5067648,127.0480846
898,체력단련장업,미도헬스클럽(55),영업중,서울특별시 강남구 대치동 511번지,서울특별시 강남구 남부순환로 3032  (대치동),강남구,대치동,37.493668,127.0619
899,체력단련장업,휘트니스클럽 36.5(288),영업중,"서울특별시 강남구 대치동 1022-2번지 402,502","서울특별시 강남구 도곡로 442 (대치동,402,502)",강남구,대치동,37.4979348,127.0588248
900,체력단련장업,잭스 피트니스,영업중,서울특별시 강남구 논현동 228-4번지,서울특별시 강남구 논현로116길 6 (논현동),강남구,논현동,37.5164007,127.0374433
901,체력단련장업,제이원 휘트니스,영업중,서울특별시 강남구 역삼동 736-24 엘지 에클라트 지하 1층,"서울특별시 강남구 테헤란로20길 19 (역삼동,엘지 에클라트 지하 1층)",강남구,역삼동,37.498543,127.0350412
902,체력단련장업,(주)케이에스 스포짐컴퍼니,영업중,서울특별시 강남구 대치동 1024번지 지하1층,"서울특별시 강남구 도곡로 408 (대치동, 지하1층)",강남구,대치동,37.4966877,127.0552639
903,체력단련장업,유성 스포츠센터,영업중,서울특별시 강남구 신사동 614-2번지,서울특별시 강남구 압구정로 208 (신사동),강남구,신사동,37.5275362,127.029897
904,체력단련장업,바디랑 필라테스 스튜디오,영업중,서울특별시 강남구 논현동 237-8번지 윤원빌딩,"서울특별시 강남구 봉은사로37길 8, 2층 (논현동, 윤원빌딩)",강남구,논현동,37.5089919,127.0371279
905,체력단련장업,크로스핏 압구정(344),영업중,서울특별시 강남구 신사동 612-1번지 지하1층,서울특별시 강남구 논현로176길 14 (신사동),강남구,신사동,37.5268464,127.0297393
906,체력단련장업,에이디스짐(337),영업중,서울특별시 강남구 청담동 6-2번지 201호,"서울특별시 강남구 삼성로149길 10, 201호 (청담동)",강남구,청담동,37.5234799,127.0467179
907,체력단련장업,(주)인어스휘트니스,영업중,서울특별시 강남구 삼성동 107 미켈란 107 지하2층,서울특별시 강남구 영동대로 602 (삼성동),강남구,삼성동,37.5148855,127.0604126
908,체력단련장업,핏엔젤1호,영업중,서울특별시 강남구 역삼동 616-4번지,"서울특별시 강남구 강남대로110길 32, 2층 (역삼동)",강남구,역삼동,37.5036827,127.0274631
909,체력단련장업,참짐(475),영업중,서울특별시 강남구 역삼동 786-24번지,"서울특별시 강남구 도곡로 229 (역삼동, 오성빌딩)",강남구,역삼동,37.49129509999999,127.0382713
910,체력단련장업,BNB 퍼스널 트레이닝 스튜디오,영업중,서울특별시 강남구 신사동 642-20,"서울특별시 강남구 압구정로46길 35, 2층 (신사동)",강남구,신사동,37.5262441,127.0363025
911,체력단련장업,멤버쉽 휘트니스 플레이 바이 어스,영업중,서울특별시 강남구 개포동 1197-2 5층,"서울특별시 강남구 논현로10길 29, 5층 (개포동)",강남구,개포동,37.4752892,127.0504113
912,체력단련장업,마음가짐,영업중,서울특별시 강남구 삼성동 151-20번지,"서울특별시 강남구 테헤란로81길 51, 3층 (삼성동)",강남구,삼성동,37.5104341,127.0556671
913,체력단련장업,BM,영업중,서울특별시 강남구 신사동 663-17번지 압구정빌딩,"서울특별시 강남구 선릉로157길 14-7, 압구정빌딩 4층 (신사동)",강남구,신사동,37.5265565,127.038713
914,체력단련장업,나아짐,영업중,서울특별시 강남구 신사동 608-13 성우 에이치,"서울특별시 강남구 압구정로34길 32, 성우 에이치 지하1층 (신사동)",강남구,신사동,37.5260396,127.0305058
915,체력단련장업,린 필라테스 앤 엑서프리(343),영업중,서울특별시 강남구 청담동 119-1번지 3층,서울특별시 강남구 압구정로 467 (청담동),강남구,청담동,37.5247753,127.0473947
916,체력단련장업,라인에 반하다(305),영업중,서울특별시 강남구 대치동 500번지 그랑프리엔상가 301호,"서울특별시 강남구 남부순환로 2912  (대치동,그랑프리엔상가 301호)",강남구,대치동,37.4908388,127.0572409
917,체력단련장업,맥스 퍼스널 트레이닝&테라피 스튜디오(440),영업중,서울특별시 강남구 도곡동 467-24번지 우성캐릭터119 129호,"서울특별시 강남구 언주로 118, 129호 (도곡동, 우성캐릭터199)",강남구,도곡동,37.4869073,127.0409621
918,체력단련장업,핏 투 핏,영업중,서울특별시 강남구 도곡동 942-1번지 B2층 중 일부,"서울특별시 강남구 도곡로 116, B2층 (도곡동, 꿈이룸 명진타워)",강남구,도곡동,37.4897993,127.0332897
919,체력단련장업,브이엠휘트니스 삼성점,영업중,서울특별시 강남구 삼성동 21-1 지하1층,"서울특별시 강남구 삼성로 633, 지하1층 (삼성동, 삼광빌딩)",강남구,삼성동,37.5145427,127.0636849
920,체력단련장업,주식회사 강남투엑스휘트니스(445),영업중,서울특별시 강남구 논현동 111-13번지 B2,"서울특별시 강남구 선릉로131길 8, B2층 (논현동, 노벨빌딩)",강남구,논현동,37.5179585,127.0402982
921,체력단련장업,서울시티크루,영업중,서울특별시 강남구 역삼동 738-28,"서울특별시 강남구 논현로 425 (역삼동, 마이다스빌딩)",강남구,역삼동,37.4981005,127.0379402
922,체력단련장업,WAGAGYM 압구정점,영업중,서울특별시 강남구 신사동 659-13번지,"서울특별시 강남구 압구정로50길 18, 5층 501호 (신사동)",강남구,신사동,37.5272547,127.0377493
923,체력단련장업,B&B(143),영업중,서울특별시 강남구 논현동 87-5 지상2층,"서울특별시 강남구 학동로 205  (논현동,지상2층)",강남구,논현동,37.5144893,127.0313323
924,체력단련장업,(의)성광의료재단 차움의원(444),영업중,서울특별시 강남구 청담동 4-1번지 3층 일부,"서울특별시 강남구 도산대로 442, 3층 일부호 (청담동, 피엔폴루스)",강남구,청담동,37.5233934,127.0436578
925,체력단련장업,엠엔휘트니스 3호점(447),영업중,서울특별시 강남구 대치동 961 B1층,"서울특별시 강남구 삼성로 352, B1층 (대치동, 창진빌딩)",강남구,대치동,37.5030162,127.059019
926,체력단련장업,크로스핏 강남(352),영업중,서울특별시 강남구 대치동 898번지,"서울특별시 강남구 선릉로 418, 지하 1층층 (대치동)",강남구,대치동,37.4991887,127.0633458
927,체력단련장업,힙업학원,영업중,서울특별시 강남구 논현동 254-17번지 영광빌딩,"서울특별시 강남구 선릉로 647, 영광빌딩 (논현동)",강남구,논현동,37.5143558,127.0420475
928,체력단련장업,성피티짐[SungPT Gym](354),영업중,서울특별시 강남구 청담동 134-20번지 205호,서울특별시 강남구 학동로101길 26 (청담동),강남구,청담동,37.5223046,127.0577361
929,체력단련장업,Ace private gym(355),영업중,서울특별시 강남구 도곡동 467-19번지 현대비전21 307호,서울특별시 강남구 언주로30길 10 (도곡동),강남구,도곡동,37.4873616,127.0513255
930,체력단련장업,엠엔휘트니스 2호점(436),영업중,서울특별시 강남구 청담동 76-5 B1~B2층,"서울특별시 강남구 학동로 501, B1~B2층 (청담동)",강남구,청담동,37.5192579,127.050501
931,체력단련장업,휘트니스모션,영업중,서울특별시 강남구 청담동 52-1번지,"서울특별시 강남구 도산대로 532, 청담동 (청담동)",강남구,청담동,37.5243529,127.051588
932,체력단련장업,바름PT,영업중,"서울특별시 강남구 도곡동 467-19번지 406-1호,407-2호","서울특별시 강남구 언주로30길 10, 406-1,407-2호 (도곡동, 현대비전21)",강남구,도곡동,37.4873616,127.0513255
933,체력단련장업,닥터피티,영업중,서울특별시 강남구 청담동 6-9번지,"서울특별시 강남구 도산대로78길 5, 3층 (청담동)",강남구,청담동,37.5236618,127.0471509
934,체력단련장업,페인스톰 청담(358),영업중,서울특별시 강남구 청담동 125-14번지 지하1층,서울특별시 강남구 도산대로 537 (청담동),강남구,청담동,37.5251955,127.052372
935,체력단련장업,코어짐(Core Gym),영업중,서울특별시 강남구 역삼동 707-18번지,"서울특별시 강남구 테헤란로48길 10, 지하B101~B108호호 (역삼동, 역삼동 우정에쉐르2)",강남구,역삼동,37.5026817,127.0458481
936,체력단련장업,라비아 피트니스,영업중,서울특별시 강남구 대치동 921-5번지,서울특별시 강남구 선릉로 328 (대치동),강남구,대치동,37.4991887,127.0633458
937,체력단련장업,모모스크린골프,영업중,서울특별시 강남구 신사동 572-2번지,서울특별시 강남구 압구정로20길 15 (신사동),강남구,신사동,37.5248229,127.0254241
938,체력단련장업,역삼역점 스포애니 (주)케이디스포츠,영업중,서울특별시 강남구 역삼동 736-6 현익빌딩,"서울특별시 강남구 테헤란로 146, 현익빌딩 지하2,,3층 (역삼동)",강남구,역삼동,37.4999942,127.0354155
939,체력단련장업,우성스포츠센터,영업중,서울특별시 강남구 일원동 615,서울특별시 강남구 개포로110길 15 (일원동),강남구,일원동,37.4922926,127.0783273
940,체력단련장업,바디핏 휘트니스,영업중,서울특별시 강남구 논현동 268-4 B1,"서울특별시 강남구 선릉로 619 (논현동,B1)",강남구,논현동,37.5136787,127.0317124
941,체력단련장업,짐어스,영업중,서울특별시 강남구 개포동 186-1번지 지상6층,"서울특별시 강남구 삼성로 38 (개포동,지상6층)",강남구,개포동,37.4886736,127.0668063
942,체력단련장업,피트니스 에비뉴[Fitness Avenue](454),영업중,서울특별시 강남구 역삼동 837번지 지하2층,"서울특별시 강남구 강남대로 318, 지하2층 (역삼동, TOWER837)",강남구,역삼동,37.4915808,127.0311894
943,체력단련장업,바디바이블(455),영업중,서울특별시 강남구 신사동 644-22번지 3층,"서울특별시 강남구 압구정로46길 32, 3층 (신사동, 삼일빌딩)",강남구,신사동,37.52654800000001,127.0359999
944,체력단련장업,SMFIT운동센터(479),영업중,서울특별시 강남구 역삼동 799-21번지,"서울특별시 강남구 도곡로 175 (역삼동, 창림빌딩)",강남구,역삼동,37.4919529,127.0385429
945,체력단련장업,NY GYM,영업중,서울특별시 강남구 역삼동 699-28번지,서울특별시 강남구 테헤란로43길 27 (역삼동),강남구,역삼동,37.5050394,127.0439817
946,체력단련장업,에클라트 휘트니스(484),영업중,서울특별시 강남구 삼성동 142-3번지,"서울특별시 강남구 테헤란로63길 12 (삼성동, LG 선릉에클라트 B)",강남구,삼성동,37.5064601,127.051103
947,체력단련장업,스타짐23,영업중,서울특별시 강남구 청담동 100-2번지,"서울특별시 강남구 압구정로71길 4, 지하1층 (청담동, 미산빌딩)",강남구,청담동,37.5268895,127.0457338
948,체력단련장업,ONE TO ONE GYM(473),영업중,서울특별시 강남구 대치동 932-2번지,"서울특별시 강남구 도곡로77길 14, 지하1층 (대치동, 양지빌딩)",강남구,대치동,37.4992667,127.0584636
949,체력단련장업,K.P.T(432),영업중,서울특별시 강남구 논현동 201-13번지 지하1층 일부호,"서울특별시 강남구 봉은사로 109, 지하1층 일부호 (논현동, 싼타홍메디컬타워)",강남구,논현동,37.5051258,127.0255844
950,체력단련장업,크로스핏 강남 삼성,영업중,서울특별시 강남구 대치동 996-14번지,"서울특별시 강남구 테헤란로108길 12 (대치동, 하나빌딩)",강남구,대치동,37.5086268,127.0657682
951,체력단련장업,미진휘트니스(64),영업중,서울특별시 강남구 역삼동 825-15번지 지하3층,"서울특별시 강남구 강남대로 390  (역삼동,지하3층)",강남구,역삼동,37.4978461,127.0286372
952,체력단련장업,바디랩,영업중,서울특별시 강남구 삼성동 48-13번지 4층,"서울특별시 강남구 선릉로112길 87, 4층 (삼성동, 명인빌딩)",강남구,삼성동,37.5132234,127.0505048
953,체력단련장업,보리스 짐,영업중,서울특별시 강남구 삼성동 140-28번지,"서울특별시 강남구 선릉로94길 7 (삼성동, 현죽빌딩)",강남구,삼성동,37.5158515,127.0428835
954,체력단련장업,킬러짐,영업중,서울특별시 강남구 역삼동 694-35 에본빌딩,"서울특별시 강남구 선릉로 549, 에본빌딩 지하1층 (역삼동)",강남구,역삼동,37.50767889999999,127.0456194
955,체력단련장업,핏플로우 짐,영업중,서울특별시 강남구 청담동 120-13번지,"서울특별시 강남구 압구정로79길 14, 4층 (청담동)",강남구,청담동,37.52500879999999,127.0482049
956,체력단련장업,JP Station,영업중,서울특별시 강남구 신사동 550-1 원영빌딩,"서울특별시 강남구 논현로175길 69, 원영빌딩 3층 (신사동)",강남구,신사동,37.5238505,127.0234579
957,체력단련장업,GOTO 논현,영업중,서울특별시 강남구 논현동 50-1번지 논현빌딩,"서울특별시 강남구 강남대로 556, 논현빌딩 지하1층 (논현동)",강남구,논현동,37.5135304,127.0315341
958,체력단련장업,화이트짐,영업중,서울특별시 강남구 역삼동 797-22번지 (B1),"서울특별시 강남구 논현로 319 (역삼동,(B1))",강남구,역삼동,37.4938282,127.0398105
959,체력단련장업,엠투헬스클럽(70),영업중,서울특별시 강남구 논현동 221-5번지,서울특별시 강남구 논현로 626  (논현동),강남구,논현동,37.5095391,127.0332328
960,체력단련장업,웰씨짐 휘트니스,영업중,서울특별시 강남구 역삼동 765-2,서울특별시 강남구 선릉로63길 9 (역삼동),강남구,역삼동,37.4971227,127.0514407
961,체력단련장업,제임스짐(100),영업중,서울특별시 강남구 삼성동 159-9번지 도심공항타워 지하2층,서울특별시 강남구 테헤란로87길 36 (삼성동),강남구,삼성동,37.5125207,127.0588194
962,체력단련장업,행복한 눈물 퍼스널 트레이닝,영업중,서울특별시 강남구 논현동 181-12번지,"서울특별시 강남구 강남대로118길 39, 4층 (논현동)",강남구,논현동,37.5073492,127.0262623
963,체력단련장업,GYM HOLEEDAY,영업중,서울특별시 강남구 논현동 60-12번지,"서울특별시 강남구 논현로150길 15, B102층 (논현동)",강남구,논현동,37.5195005,127.0297292
964,체력단련장업,아트지짐,영업중,서울특별시 강남구 논현동 206-14,"서울특별시 강남구 봉은사로 163, 지하1층 (논현동, 마르세움)",강남구,논현동,37.5070558,127.0322295
965,체력단련장업,TEAM ANSWER PT SHOP,영업중,서울특별시 강남구 신사동 638-5번지 고려빌딩,"서울특별시 강남구 압구정로 310, 지하1층 (신사동)",강남구,신사동,37.5287785,127.0352862
966,체력단련장업,더바른몸,영업중,서울특별시 강남구 논현동 201-16번지 지하1층,"서울특별시 강남구 봉은사로 107, 지하1층 (논현동)",강남구,논현동,37.5050063,127.025397
967,체력단련장업,짐퍼스트 휘트니스 수서,영업중,서울특별시 강남구 수서동 724번지 로즈데일오피스텔,"서울특별시 강남구 광평로 280, 로즈데일오피스텔 101호 (수서동)",강남구,수서동,37.4873425,127.1030015
968,체력단련장업,바디스쿨(350),영업중,서울특별시 강남구 청담동 22-16번지 2층,서울특별시 강남구 선릉로146길 15 (청담동),강남구,청담동,37.5206227,127.0449584
969,체력단련장업,광혜헬스스포츠센타(111),영업중,서울특별시 강남구 대치동 995-25번지,서울특별시 강남구 영동대로86길 9  (대치동),강남구,대치동,37.5080758,127.0648087
970,체력단련장업,휘슬러휘트니스(112),영업중,서울특별시 강남구 역삼동 837-11번지 유니온빌딩 지하2층,"서울특별시 강남구 강남대로 310 (역삼동,유니온빌딩 지하2층)",강남구,역삼동,37.4910282,127.0316127
971,체력단련장업,알통맨 휘트니스크럽(119),영업중,서울특별시 강남구 개포동 1229-5번지,서울특별시 강남구 논현로 80 (개포동),강남구,개포동,37.4802905,127.0626272
972,체력단련장업,PT하우스(253),영업중,서울특별시 강남구 청담동 84번지 4층,"서울특별시 강남구 선릉로 842  (청담동,4층)",강남구,청담동,37.52695569999999,127.0407097
973,체력단련장업,크라운육체미도장(88),영업중,서울특별시 강남구 논현동 112-14번지,서울특별시 강남구 선릉로131길 18 (논현동),강남구,논현동,37.5123856,127.0304153
974,체력단련장업,헬스보이짐 선릉점,영업중,서울특별시 강남구 역삼동 702-19 지층,"서울특별시 강남구 테헤란로 317 (역삼동,지층)",강남구,역삼동,37.5039647,127.0457457
975,체력단련장업,엑슬휘트니스(203),영업중,서울특별시 강남구 역삼동 737번지 강남파이낸스센터 지층,서울특별시 강남구 테헤란로 152 (역삼동),강남구,역삼동,37.4998097,127.0366289
976,체력단련장업,크라크라짐,영업중,서울특별시 강남구 청담동 34-6,"서울특별시 강남구 선릉로132길 69, 지하1층 (청담동)",강남구,청담동,37.5190967,127.0469193
977,체력단련장업,모건필라테스&PT,영업중,서울특별시 강남구 대치동 986-4번지,서울특별시 강남구 도곡로93길 9 (대치동),강남구,대치동,37.5008373,127.0645016
978,체력단련장업,헤세드(274),영업중,서울특별시 강남구 청담동 132-3번지 204호,"서울특별시 강남구 학동로101길 33 (청담동, 청담상가)",강남구,청담동,37.5224166,127.0566641
979,체력단련장업,골든핏 프라이빗 짐(275),영업중,서울특별시 강남구 신사동 628-23 6층,"서울특별시 강남구 언주로 807 (신사동,6층)",강남구,신사동,37.522464,127.0330774
980,체력단련장업,(주)제이브로짐,영업중,서울특별시 강남구 청담동 3-11번지 지하1층,"서울특별시 강남구 선릉로148길 41 (청담동,지하1층)",강남구,청담동,37.5229463,127.0428893
981,체력단련장업,피트니스 카디오(380),영업중,서울특별시 강남구 역삼동 732-24번지 지하1층,서울특별시 강남구 역삼로 239 (역삼동),강남구,역삼동,37.4977415,127.0424726
982,체력단련장업,아크로짐 논현점,영업중,서울특별시 강남구 논현동 59-8 지하1층,서울특별시 강남구 논현로 752 (논현동),강남구,논현동,37.51917,127.0287078
983,체력단련장업,짐퍼스트 청담,영업중,서울특별시 강남구 삼성동 16번지 힐스테이트1단지 상가 4층,"서울특별시 강남구 학동로68길 7 (삼성동,힐스테이트1단지 상가 4층)",강남구,삼성동,37.5162276,127.0485407
984,체력단련장업,윤형준 트레이닝센터,영업중,서울특별시 강남구 개포동 186-14번지 청우빌딩,"서울특별시 강남구 개포로 506, 청우빌딩 5층 501호 (개포동)",강남구,개포동,37.4891361,127.067521
985,체력단련장업,운동장,영업중,서울특별시 강남구 신사동 626-70번지 태경빌딩,"서울특별시 강남구 언주로153길 12, 태경빌딩 2층 (신사동)",강남구,신사동,37.5228727,127.0322104
986,체력단련장업,투스타짐(2star gym),영업중,서울특별시 강남구 역삼동 784-4번지 로즈1타워,"서울특별시 강남구 언주로 311, 로즈1타워 201호 (역삼동)",강남구,역삼동,37.4952625,127.045625
987,체력단련장업,더스타일짐[386],영업중,서울특별시 강남구 역삼동 755번지 한솔필리아 2층 32호,"서울특별시 강남구 역삼로 310 (역삼동, 한솔필리아 2층 32호)",강남구,역삼동,37.499217,127.0484398
988,체력단련장업,GOTO 청담,영업중,서울특별시 강남구 삼성동 54-2번지 지하1층,서울특별시 강남구 학동로88길 12 (삼성동),강남구,삼성동,37.5183287,127.052587
989,체력단련장업,바운싱휘트니스[385],영업중,서울특별시 강남구 신사동 638-13번지,"서울특별시 강남구 언주로 874 (신사동, 쌍봉빌딩 지하1층)",강남구,신사동,37.5285405,127.0340485
990,체력단련장업,빌드업 운동센터,영업중,서울특별시 강남구 도곡동 942-2 세원빌딩,"서울특별시 강남구 도곡로 120, 세원빌딩 2층 (도곡동)",강남구,도곡동,37.4897952,127.0335496
991,체력단련장업,에이원짐,영업중,서울특별시 강남구 대치동 966-5 지하1층,"서울특별시 강남구 역삼로 542, 지하1층 (대치동, 신사에스앤지)",강남구,대치동,37.5039742,127.0624158
992,체력단련장업,주)애플짐 강남지점(452),영업중,"서울특별시 강남구 대치동 994-5번지 4,5층","서울특별시 강남구 영동대로 225, 4,5층 (대치동, 경희한방병원)",강남구,대치동,37.4992777,127.0676736
993,체력단련장업,식스 밸런스(SIX BALANCE),영업중,서울특별시 강남구 신사동 591번지 동양빌딩,"서울특별시 강남구 논현로 824, 동양빌딩 7층 703호 (신사동)",강남구,신사동,37.5219925,127.0284657
994,체력단련장업,함스짐(HAMS GYM)2호점,영업중,서울특별시 강남구 대치동 891-28 대치동 우정에쉐르1,"서울특별시 강남구 삼성로85길 38, 지하2층 (대치동, 대치동 우정에쉐르1)",강남구,대치동,37.5045644,127.0541516
995,체력단련장업,JADE GYM,영업중,서울특별시 강남구 역삼동 696-50 지하1층,서울특별시 강남구 테헤란로57길 21 (역삼동),강남구,역삼동,37.50592280000001,127.0473704
996,체력단련장업,에이 컵(A cub),영업중,"서울특별시 강남구 삼성동 58번지 2,3층","서울특별시 강남구 학동로 522 (삼성동,2,3층)",강남구,삼성동,37.5195566,127.0560193
997,체력단련장업,정직한 PT&필라테스(430),영업중,서울특별시 강남구 도곡동 544번지 지층 101호,"서울특별시 강남구 도곡로 184, 지층 101호 (도곡동, 신호빌딩)",강남구,도곡동,37.4917395,127.0396045
998,체력단련장업,J.bro(242),영업중,서울특별시 강남구 청담동 3-20번지 2층,"서울특별시 강남구 선릉로148길 27  (청담동,2층)",강남구,청담동,37.5230054,127.0402395
999,체력단련장업,크로스핏 볼케이노[388],영업중,서울특별시 강남구 대치동 1021-3번지 덕산빌딩 지하1층,"서울특별시 강남구 도곡로 450, 덕산빌딩 동 지하1층 (대치동)",강남구,대치동,37.4981124,127.0597594
1000,체력단련장업,짐 다운 GYM,영업중,서울특별시 강남구 역삼동 823-3번지 지하2층,"서울특별시 강남구 테헤란로8길 7, 지하2층 (역삼동)",강남구,역삼동,37.498425,127.0316961
1001,체력단련장업,테헤란로점 스포애니 (주)케이디스포츠,영업중,서울특별시 강남구 삼성동 144-24 지하1층,"서울특별시 강남구 테헤란로 441 (삼성동, 지하1층)",강남구,삼성동,37.5069033,127.0553818
1002,체력단련장업,피트니스나인,영업중,서울특별시 강남구 도곡동 957-11 스타클래스 지하2층,"서울특별시 강남구 남부순환로 2615 (도곡동,스타클래스 지하2층)",강남구,도곡동,37.4851442,127.0357571
1003,체력단련장업,애플짐 휘트니스(263),영업중,"서울특별시 강남구 대치동 908-20번지 대치EM프라자 B101,B102,B201","서울특별시 강남구 선릉로 340  (대치동,대치EM프라자 B101,B102,B201)",강남구,대치동,37.5001553,127.0513254
1004,체력단련장업,커브스 삼성클럽(264),영업중,서울특별시 강남구 삼성동 10-18 예우빌딩 3층,"서울특별시 강남구 선릉로126길 14  (삼성동,예우빌딩 3층)",강남구,삼성동,37.5152778,127.0432463
1005,체력단련장업,더블케이짐,영업중,서울특별시 강남구 신사동 535-9번지 지하1층,"서울특별시 강남구 도산대로11길 28 (신사동,지하1층)",강남구,신사동,37.519367,127.0225811
1006,체력단련장업,스타트레인(244),영업중,서울특별시 강남구 신사동 587번지 서울빌딩 3층,"서울특별시 강남구 논현로 804  (신사동,서울빌딩 3층)",강남구,신사동,37.520536,127.0284147
1007,체력단련장업,스포테라,영업중,서울특별시 강남구 대치동 1002 코스모타워 지하2층,"서울특별시 강남구 영동대로 416 (대치동,코스모타워 지하2층)",강남구,대치동,37.5066085,127.0653699
1008,체력단련장업,미도휘트니스(246),영업중,서울특별시 강남구 대치동 511번지 미도상가 202-2호,"서울특별시 강남구 남부순환로 3032 (대치동,미도상가 202-2호)",강남구,대치동,37.4933509,127.067324
1009,체력단련장업,"버핏그라운드 도곡, 팀버핏 도곡",영업중,서울특별시 강남구 도곡동 467-7 B201-2호,"서울특별시 강남구 언주로30길 21, B201-2호 (도곡동, 아카데미스위트)",강남구,도곡동,37.4886722,127.0521024
1010,체력단련장업,J Gym(249),영업중,서울특별시 강남구 대치동 924-1번지 요안빌딩 지하1층,"서울특별시 강남구 도곡로63길 34  (대치동,요안빌딩 지하1층)",강남구,대치동,37.4991366,127.0537643
1011,체력단련장업,MK 휘트니스(250),영업중,서울특별시 강남구 논현동 203번지 지하2층,"서울특별시 강남구 봉은사로 129-1 (논현동,지하2층)",강남구,논현동,37.5061087,127.0281855
1012,체력단련장업,청담 엑티브짐,영업중,서울특별시 강남구 청담동 122번지 3층,"서울특별시 강남구 도산대로85길 30, 3층 (청담동)",강남구,청담동,37.5264323,127.0496672
1013,체력단련장업,JACEANNA Personal training(269),영업중,서울특별시 강남구 역삼동 671-12번지 2층,서울특별시 강남구 테헤란로33길 31 (역삼동),강남구,역삼동,37.5037736,127.0386361
1014,체력단련장업,맥스 퍼스널 트레이닝 스튜디오(271),영업중,서울특별시 강남구 역삼동 761-18번지 강남프라자 501호,"서울특별시 강남구 언주로 314,  501호 (역삼동,강남프라자)",강남구,역삼동,37.4959548,127.0466573
1015,체력단련장업,비나이더 수서점,영업중,서울특별시 강남구 개포동 12-4 석탑프라자 7층,"서울특별시 강남구 개포로 615 (개포동,석탑프라자 7층)",강남구,개포동,37.4926936,127.0756284
1016,체력단련장업,휘트니스2.0,영업중,서울특별시 강남구 신사동 566-31,"서울특별시 강남구 도산대로27길 43, 지하 1,2층 (신사동)",강남구,신사동,37.5227805,127.0273804
1017,체력단련장업,휘트니스 클리닉(294),영업중,서울특별시 강남구 역삼동 790-2 B1,"서울특별시 강남구 역삼로 170 (역삼동,B1)",강남구,역삼동,37.4951056,127.0377386
1018,체력단련장업,포에테스(272),영업중,서울특별시 강남구 도곡동 168번지 SK리더스뷰상가 2층 201호,"서울특별시 강남구 남부순환로 2763, 201호 (도곡동,SK리더스뷰상가 2층)",강남구,도곡동,37.4873663,127.0434354
1019,체력단련장업,어썸어스 스튜디오,영업중,서울특별시 강남구 대치동 890-60번지 B1,"서울특별시 강남구 테헤란로70길 12 (대치동,B1)",강남구,대치동,37.504759,127.0532549
1020,체력단련장업,머슬맥스튜디오(284),영업중,서울특별시 강남구 논현동 5번지 페이토빌딩 B02호,"서울특별시 강남구 도산대로 134, B02호 (논현동,페이토빌딩)",강남구,논현동,37.5173244,127.0234197
1021,체력단련장업,AC호텔 바이메리어트 서울강남,영업중,서울특별시 강남구 역삼동 642,서울특별시 강남구 테헤란로25길 10 (역삼동),강남구,역삼동,37.501255,127.0354559
1022,체력단련장업,JP Gym(255),영업중,서울특별시 강남구 신사동 663-16번지,서울특별시 강남구 선릉로157길 14-3 (신사동),강남구,신사동,37.5263901,127.0386543
1023,체력단련장업,베드로크리닉(413),영업중,서울특별시 강남구 도곡동 914-2번지 지층 B102호,"서울특별시 강남구 남부순환로 2633, 지층 B102호 (도곡동)",강남구,도곡동,37.4854474,127.0378324
1024,체력단련장업,대치 인,영업중,서울특별시 강남구 대치동 316번지 은마상가 편의동 103호,"서울특별시 강남구 삼성로 212, 편의동 103호 (대치동, 은마상가)",강남구,대치동,37.4974176,127.0653272
1025,체력단련장업,투엑스 휘트니스(293),영업중,서울특별시 강남구 대치동 507-2번지 B2,"서울특별시 강남구 삼성로 155 (대치동,B2)",강남구,대치동,37.4938284,127.062941
1026,체력단련장업,저스트짐,영업중,서울특별시 강남구 역삼동 834-34,"서울특별시 강남구 역삼로8길 15, 지하1층, 1층 (역삼동)",강남구,역삼동,37.4931369,127.0342293
1027,체력단련장업,STEADY(스테디),영업중,서울특별시 강남구 신사동 600-6,"서울특별시 강남구 도산대로35길 39, 지하1층 (신사동)",강남구,신사동,37.52349299999999,127.0303445
1028,체력단련장업,슬림앤스트롱(328),영업중,서울특별시 강남구 청담동 125-4번지 5층,서울특별시 강남구 압구정로79길 54 (청담동),강남구,청담동,37.5253723,127.051604
1029,체력단련장업,헬스 IHL PT studio,영업중,서울특별시 강남구 청담동 68-8번지 키즈12 빌딩 6층,"서울특별시 강남구 학동로97길 42 (청담동,키즈12 빌딩 6층)",강남구,청담동,37.5224946,127.0547327
1030,체력단련장업,그레이스 프라이빗 짐(427),영업중,서울특별시 강남구 역삼동 645-19번지 401호,"서울특별시 강남구 테헤란로19길 12, 401호 (역삼동)",강남구,역삼동,37.5009285,127.0336665
1031,체력단련장업,발레핏 코리아(424),영업중,서울특별시 강남구 삼성동 108-2번지 B101호,"서울특별시 강남구 영동대로112길 24, B101호 (삼성동, 동구싼타빌)",강남구,삼성동,37.51517,127.062263
1032,체력단련장업,주식회사 애플짐 역삼,영업중,서울특별시 강남구 역삼동 755번지 지하1층,"서울특별시 강남구 역삼로 310, 지하1층 (역삼동, 한솔필리아)",강남구,역삼동,37.4991554,127.0483257
1033,체력단련장업,드림팩토리짐,영업중,서울특별시 강남구 역삼동 641-11 2층,"서울특별시 강남구 논현로 513 (역삼동,2층)",강남구,역삼동,37.5024385,127.035857
1034,체력단련장업,논현역점 스포애니 주)케이디스포츠,영업중,"서울특별시 강남구 논현동 122-8 동화상가1 B01,B03,B04,B05호","서울특별시 강남구 학동로4길 15, B01호, B03호, B04호, B05호호 (논현동, 동화상가1)",강남구,논현동,37.5105327,127.0235227
1035,체력단련장업,역삼 스포애니 주)케이디스포츠,영업중,서울특별시 강남구 역삼동 788-16 원경빌딩 B1,"서울특별시 강남구 도곡로 205 (역삼동,원경빌딩 B1)",강남구,역삼동,37.493112,127.041268
1036,체력단련장업,일모션(329),영업중,서울특별시 강남구 역삼동 708-32번지 3층,서울특별시 강남구 테헤란로52길 17 (역삼동),강남구,역삼동,37.503001,127.0481674
1037,체력단련장업,코지짐(330),영업중,서울특별시 강남구 대치동 623번지 남서울종합시장 3층8호,서울특별시 강남구 남부순환로 2921 (대치동),강남구,대치동,37.4936059,127.0597001
1038,체력단련장업,최용욱PTS(331),영업중,서울특별시 강남구 청담동 91-4번지,서울특별시 강남구 선릉로152길 32 (청담동),강남구,청담동,37.519785,127.0481768
1039,체력단련장업,앤드핏 청담,영업중,서울특별시 강남구 청담동 40-3번지,서울특별시 강남구 선릉로 718 (청담동),강남구,청담동,37.5189571,127.0409504
1040,체력단련장업,오브 휘트니스,영업중,서울특별시 강남구 역삼동 651-3 B2층,"서울특별시 강남구 봉은사로 214, B2층 (역삼동, 한솔빌딩)",강남구,역삼동,37.5075422,127.0357834
1041,체력단련장업,드림스타 휘트니스(323),영업중,서울특별시 강남구 논현동 87-8번지 구연빌딩 5층,서울특별시 강남구 학동로 201 (논현동),강남구,논현동,37.5143732,127.030946
1042,체력단련장업,엑스퍼티짐,영업중,서울특별시 강남구 역삼동 646-14,"서울특별시 강남구 테헤란로25길 7 (역삼동, 창성재단빌딩)",강남구,역삼동,37.5008162,127.035127
1043,체력단련장업,Felix Gym,영업중,서울특별시 강남구 삼성동 32-16 지하2층,서울특별시 강남구 봉은사로57길 42 (삼성동),강남구,삼성동,37.5134585,127.0443771
1044,체력단련장업,원바디 퍼스널 트레이닝 스튜디오(378),영업중,서울특별시 강남구 청담동 11-31번지 지하1층,서울특별시 강남구 삼성로147길 24 (청담동),강남구,청담동,37.5214693,127.0469488
1045,체력단련장업,모스트피티랩(379),영업중,서울특별시 강남구 청담동 11-17,"서울특별시 강남구 삼성로145길 11, 2층 (청담동)",강남구,청담동,37.52229,127.0471576
1046,체력단련장업,매드짐(MAD GYM),영업중,서울특별시 강남구 청담동 125-7번지,"서울특별시 강남구 압구정로79길 60, 3층 (청담동, 제일빌딩)",강남구,청담동,37.5254501,127.0522219
1047,체력단련장업,머슬마인드 강남구청점,영업중,서울특별시 강남구 논현동 119-2번지 HS TOWER,"서울특별시 강남구 선릉로 703, HS TOWER 지하1층 (논현동)",강남구,논현동,37.517705,127.0407807
1048,체력단련장업,1984PTstudio(461),영업중,서울특별시 강남구 삼성동 153-44번지 3층,"서울특별시 강남구 테헤란로87길 45, 3층 (삼성동, 보현빌딩)",강남구,삼성동,37.5106562,127.0575254
1049,체력단련장업,서프라이즈짐,영업중,서울특별시 강남구 도곡동 902-124번지 2층,"서울특별시 강남구 남부순환로365길 39, 2층 (도곡동)",강남구,도곡동,37.4880389,127.0397773
1050,체력단련장업,휘트니스 클리닉[399],영업중,서울특별시 강남구 삼성동 157-27 브이플렉스,"서울특별시 강남구 테헤란로 501, 브이플렉스 지하층 (삼성동)",강남구,삼성동,37.5074601,127.0567135
1051,체력단련장업,휴메이크 휘트니스,영업중,서울특별시 강남구 대치동 908-20번지 대치 EM 프라자,"서울특별시 강남구 선릉로 340, 대치 EM 프라자 지하1층층 (대치동)",강남구,대치동,37.5001553,127.0513254
1052,체력단련장업,"펫버닝(201호,202호)",영업중,서울특별시 강남구 대치동 889-56번지 더 나인 오피스텔 201호,"서울특별시 강남구 테헤란로64길 14, 더 나인 오피스텔 2층 201,202호 (대치동)",강남구,대치동,37.5039245,127.0509781
1053,체력단련장업,알파짐[Alpha Gym](456),영업중,서울특별시 강남구 역삼동 837-2번지 B1층,"서울특별시 강남구 강남대로66길 8, B1층 (역삼동, 카이로스빌딩)",강남구,역삼동,37.4917118,127.0316007
1054,체력단련장업,하와이짐(462),영업중,"서울특별시 강남구 논현동 257-17번지 지하1,2층","서울특별시 강남구 언주로122길 35, 지하1,2층 (논현동)",강남구,논현동,37.5118862,127.0388504
1055,체력단련장업,(주)제이브로짐,영업중,서울특별시 강남구 청담동 20-13번지 B1층,"서울특별시 강남구 선릉로148길 40, B1층 (청담동)",강남구,청담동,37.5227231,127.042785
1056,체력단련장업,No.1 GYM(402),영업중,서울특별시 강남구 신사동 662-11번지 3층,"서울특별시 강남구 언주로172길 59, 3층 (신사동)",강남구,신사동,37.5269839,127.0386577
1057,체력단련장업,바디트레인,영업중,서울특별시 강남구 역삼동 735-11번지 신일유토빌,"서울특별시 강남구 논현로87길 41, 신일유토빌 2층 201호 (역삼동)",강남구,역삼동,37.4988383,127.0334788
1058,체력단련장업,애니바디캔 크로스핏(403),영업중,서울특별시 강남구 역삼동 827-58,"서울특별시 강남구 테헤란로8길 30, 지하1층 (역삼동)",강남구,역삼동,37.4968735,127.031829
1059,체력단련장업,프라이멀짐(404),영업중,서울특별시 강남구 청담동 100-14번지 지하1층,"서울특별시 강남구 도산대로81길 41, 지하1층 (청담동)",강남구,청담동,37.5268708,127.0465304
1060,체력단련장업,바디스 20 EMS(406),영업중,서울특별시 강남구 논현동 61-6번지 3층,"서울특별시 강남구 도산대로 226, 3층 (논현동)",강남구,논현동,37.5204516,127.0317621
1061,체력단련장업,나누리운동센터(176),영업중,서울특별시 강남구 논현동 63-8번지 지상 3층,"서울특별시 강남구 언주로 731  (논현동,지상 3층)",강남구,논현동,37.5136787,127.0317124
1062,체력단련장업,겟업(GET UP),영업중,서울특별시 강남구 신사동 657-29번지 지하1층,"서울특별시 강남구 선릉로157길 15, 지하1층 (신사동)",강남구,신사동,37.5259228,127.0385246
1063,체력단련장업,모즈메디짐(409),영업중,서울특별시 강남구 청담동 92-22번지 5층,"서울특별시 강남구 압구정로80길 35, 5층 (청담동)",강남구,청담동,37.5244165,127.0437917
1064,체력단련장업,대치동점 스포애니 주)케이디스포츠,영업중,서울특별시 강남구 대치동 989-2 지하1층,"서울특별시 강남구 도곡로 510, 지하1층 (대치동)",강남구,대치동,37.4989119,127.0619546
1065,체력단련장업,엑티브짐(416),영업중,서울특별시 강남구 대치동 952-2번지 B102호,"서울특별시 강남구 역삼로 555, B102호 (대치동)",강남구,대치동,37.5050022,127.0633734
1066,체력단련장업,유나이티드스포츠센터(178),영업중,서울특별시 강남구 도곡동 957-14번지 12층,"서울특별시 강남구 남부순환로 2609  (도곡동,12층)",강남구,도곡동,37.4849647,127.0350888
1067,체력단련장업,아인스 휘트니스,영업중,서울특별시 강남구 논현동 221-5 M빌딩 B2,"서울특별시 강남구 논현로 626 (논현동,M빌딩 B2)",강남구,논현동,37.5095391,127.0332328
1068,체력단련장업,유휘트니스(123),영업중,서울특별시 강남구 압구정동 408번지,서울특별시 강남구 압구정로 113  (압구정동),강남구,압구정동,37.5239465,127.0182545
1069,체력단련장업,휴메이크 휘트니스(420),영업중,서울특별시 강남구 논현동 278-19번지 지하1층,"서울특별시 강남구 봉은사로 327, 지하1층 (논현동, 궁도빌딩)",강남구,논현동,37.510154,127.0427426
1070,체력단련장업,유니핏 선릉점,영업중,서울특별시 강남구 대치동 908-7번지 지하1층,"서울특별시 강남구 역삼로 414, 지하1층 (대치동)",강남구,대치동,37.500885,127.0524706
1071,체력단련장업,(주)올어바웃바디,영업중,"서울특별시 강남구 논현동 234-4번지 2,3층","서울특별시 강남구 봉은사로29길 11, 2,3층 (논현동)",강남구,논현동,37.50846629999999,127.0344152
1072,체력단련장업,헬스보이짐 강남역점,영업중,"서울특별시 강남구 역삼동 826-26 지하1,2층","서울특별시 강남구 테헤란로2길 27, 지하1,2층 (역삼동)",강남구,역삼동,37.4965546,127.0296354
1073,체력단련장업,강남역1호점 스포애니 주)케이디스포츠,영업중,서울특별시 강남구 역삼동 831-3 한국빌딩 지하2층,"서울특별시 강남구 강남대로78길 8 (역삼동,한국빌딩 지하2층)",강남구,역삼동,37.4947875,127.0300669
1074,체력단련장업,파프짐 도곡점,영업중,서울특별시 강남구 도곡동 467-10 우성리빙텔 B101호,서울특별시 강남구 언주로30길 27 (도곡동),강남구,도곡동,37.488445,127.0525603
1075,체력단련장업,하프 앤 더블(319),영업중,서울특별시 강남구 삼성동 120-17번지 지하1층,서울특별시 강남구 삼성로103길 6 (삼성동),강남구,삼성동,37.5167876,127.0446809
1076,체력단련장업,업투 압구정로데오역점,영업중,서울특별시 강남구 신사동 665-1,서울특별시 강남구 선릉로 823 (신사동),강남구,신사동,37.5233874,127.0291182
1077,체력단련장업,투엑스휘트니스컨설팅(주),영업중,서울특별시 강남구 개포동 655-3번지 2층,"서울특별시 강남구 언주로 101  (개포동,2층)",강남구,개포동,37.48272,127.0748706
1078,체력단련장업,팔로우짐,영업중,"서울특별시 강남구 세곡동 281-4 강남리더스프라자 501,502,503호",서울특별시 강남구 헌릉로 569 (세곡동),강남구,세곡동,37.4657816,127.1011914
1079,체력단련장업,루카(LK)스포츠,영업중,서울특별시 강남구 논현동 111-13번지,"서울특별시 강남구 선릉로131길 8, 5층 502호 (논현동, 노벨빌딩)",강남구,논현동,37.5179802,127.0402658
1080,체력단련장업,이엠핏&필라테스,영업중,서울특별시 강남구 대치동 908-20번지 대치 EM 프라자,"서울특별시 강남구 선릉로 340, 9층 (대치동, 대치 EM 프라자)",강남구,대치동,37.5001553,127.0513254
1081,체력단련장업,건강한너,영업중,서울특별시 강남구 논현동 149-17,"서울특별시 강남구 학동로12길 43, 지하1층 (논현동)",강남구,논현동,37.5101164,127.0277006
1082,체력단련장업,슈퍼코어,영업중,서울특별시 강남구 대치동 901-67 성도빌딩,"서울특별시 강남구 역삼로77길 23, 성도빌딩 2층 (대치동)",강남구,대치동,37.5039449,127.0558684
1083,체력단련장업,에스화인센터(194),영업중,서울특별시 강남구 도곡동 542번지 2층,"서울특별시 강남구 도곡로 216  (도곡동,2층)",강남구,도곡동,37.492586,127.0427521
1084,체력단련장업,프라이어강남점(195),영업중,서울특별시 강남구 역삼동 837-19번지 역삼르메이에르타운 지층,"서울특별시 강남구 도곡로3길 13  (역삼동,역삼르메이에르타운 지층)",강남구,역삼동,37.491045,127.0326608
1085,체력단련장업,힐리언스코어운동센타(삼성점)(196),영업중,서울특별시 강남구 삼성동 163번지 에스빌딩 2층,"서울특별시 강남구 봉은사로 640  (삼성동,에스빌딩 2층)",강남구,삼성동,37.5148487,127.0653386
1086,체력단련장업,THE GYM,영업중,서울특별시 강남구 대치동 938-16번지 B101호,서울특별시 강남구 도곡로 413 (대치동),강남구,대치동,37.4975956,127.0557613
1087,체력단련장업,킹핏(334),영업중,서울특별시 강남구 신사동 664-10번지 태영빌딩,"서울특별시 강남구 선릉로 833, 태영빌딩 4층 (신사동)",강남구,신사동,37.5265111,127.0399376
1088,체력단련장업,더핏(335),영업중,서울특별시 강남구 도곡동 467-6번지 대림아크로텔 2층,"서울특별시 강남구 언주로30길 13 (도곡동, 대림아크로텔 2층)",강남구,도곡동,37.4881202,127.0510778
1089,체력단련장업,TDI-SSC스포츠클리닉(184),영업중,서울특별시 강남구 도곡동 542번지 2층,"서울특별시 강남구 도곡로 216  (도곡동,2층)",강남구,도곡동,37.492586,127.0427521
1090,체력단련장업,헬스파르타클럽(369),영업중,서울특별시 강남구 대치동 932-9번지 지하1층 101호,서울특별시 강남구 삼성로63길 17 (대치동),강남구,대치동,37.4995695,127.0587383
1091,체력단련장업,휴메이크 휘트니스,영업중,서울특별시 강남구 논현동 120-4번지 삼양빌딩 지하2층,서울특별시 강남구 강남대로 546 (논현동),강남구,논현동,37.5136787,127.0317124
1092,체력단련장업,바디스페이스(371),영업중,서울특별시 강남구 논현동 123-11번지 논현1호주차장,"서울특별시 강남구 학동로6길 19, 논현1호주차장 (논현동)",강남구,논현동,37.5106368,127.0245948
1093,체력단련장업,휴메이크 휘트니스,영업중,서울특별시 강남구 도곡동 545-14번지 양재벤처타워 지하2층,서울특별시 강남구 도곡로 182 (도곡동),강남구,도곡동,37.4897473,127.0421252
1094,체력단련장업,본 스토리,영업중,서울특별시 강남구 신사동 660-18 원일,"서울특별시 강남구 압구정로46길 5-2, 원일 3층 (신사동)",강남구,신사동,37.5280518,127.0368914
1095,체력단련장업,삼성피트니스(217),영업중,서울특별시 강남구 삼성동 117번지 지하1층,"서울특별시 강남구 봉은사로 474, 지하1층 (삼성동)",강남구,삼성동,37.5123174,127.0518299
1096,체력단련장업,W 헬스(218),영업중,서울특별시 강남구 신사동 609-1번지 지하3층,"서울특별시 강남구 압구정로30길 23  (신사동,지하3층)",강남구,신사동,37.52594819999999,127.0294613
1097,체력단련장업,바디스페이스(219),영업중,서울특별시 강남구 역삼동 702-10번지 지하101호,서울특별시 강남구 테헤란로 311 (역삼동),강남구,역삼동,37.5038296,127.044828
1098,체력단련장업,크로스핏 강남 논현(222),영업중,서울특별시 강남구 논현동 19-2번지 성현빌딩 지하1층,"서울특별시 강남구 강남대로 578 (논현동,성현빌딩 지하1층)",강남구,논현동,37.5133476,127.0208002
1099,체력단련장업,스타휘트니스(220),영업중,서울특별시 강남구 역삼동 736-56번지 지하2층,"서울특별시 강남구 테헤란로26길 12  (역삼동,지하2층)",강남구,역삼동,37.4994367,127.0358496
1100,체력단련장업,싸다휘트니스,영업중,서울특별시 강남구 역삼동 648-26 원빌딩,"서울특별시 강남구 테헤란로 121, 원빌딩 지하2층 (역삼동)",강남구,역삼동,37.4994303,127.0310558
1101,체력단련장업,마크짐(압구정역점),영업중,서울특별시 강남구 신사동 583-3번지 미소빌딩 지하2층,"서울특별시 강남구 논현로 841 (신사동,미소빌딩 지하2층)",강남구,신사동,37.5240574,127.0279161
1102,체력단련장업,피티 아지트(PT AZIT),영업중,서울특별시 강남구 역삼동 669-16,"서울특별시 강남구 논현로94길 11, 4층 (역삼동)",강남구,역삼동,37.5025884,127.0372094
1103,체력단련장업,U.N.D 퍼스널트레이닝,영업중,서울특별시 강남구 청담동 97-4번지 (2층),"서울특별시 강남구 도산대로 447 (청담동,(2층))",강남구,청담동,37.5242849,127.0450502
1104,체력단련장업,더바른케어(367),영업중,서울특별시 강남구 논현동 111-20번지,"서울특별시 강남구 선릉로 719, 지하2층 (논현동)",강남구,논현동,37.5189036,127.0404119
1105,체력단련장업,diamond fit,영업중,서울특별시 강남구 대치동 900-41번지,"서울특별시 강남구 선릉로76길 36, 2층 (대치동, 명신빌딩)",강남구,대치동,37.5019629,127.0519462
1106,체력단련장업,(주)마이다스(362),영업중,"서울특별시 강남구 삼성동 50-2번지 힐스테이트2단지 상가동 501, 502호",서울특별시 강남구 봉은사로 471 (삼성동),강남구,삼성동,37.5127521,127.0512302
1107,체력단련장업,파프짐(365),영업중,"서울특별시 강남구 대치동 622번지 B101,B102호","서울특별시 강남구 남부순환로 2927, B101,B102호 (대치동, 대치클래시아)",강남구,대치동,37.49391,127.060213
1108,체력단련장업,엠브이엠,영업중,서울특별시 강남구 삼성동 157-8번지,"서울특별시 강남구 삼성로96길 6, 지하1층 (삼성동, LG트윈텔1)",강남구,삼성동,37.5084824,127.0565864
1109,체력단련장업,에듀게이트,영업중,서울특별시 강남구 대치동 611번지,"서울특별시 강남구 삼성로51길 11, 지하1층 (대치동, 강남대학교카이로스빌딩)",강남구,대치동,37.4961919,127.0606459
1110,체력단련장업,김성훈 골프아카데미,영업중,서울특별시 강남구 청담동 112-28번지,"서울특별시 강남구 도산대로85길 39, 지하1층 (청담동)",강남구,청담동,37.5271667,127.0494897
1111,체력단련장업,MADFIT.PRO(366),영업중,서울특별시 강남구 역삼동 641-3번지 노바빌딩 지하2층,서울특별시 강남구 논현로 523 (역삼동),강남구,역삼동,37.5030584,127.035436
1112,체력단련장업,바디셀프,영업중,서울특별시 강남구 삼성동 70-7,"서울특별시 강남구 삼성로 612, 지하1층 (삼성동)",강남구,삼성동,37.5143631,127.0529042
1113,체력단련장업,반듯핏,영업중,서울특별시 강남구 논현동 101-8번지,"서울특별시 강남구 선릉로145길 5-12, 2층 (논현동, 상조빌딩)",강남구,논현동,37.520766,127.0393051
1114,체력단련장업,엠퍼스널 트레이닝,영업중,서울특별시 강남구 역삼동 828-22번지,"서울특별시 강남구 논현로85길 59, 6층 (역삼동)",강남구,역삼동,37.4976175,127.0332825
1115,체력단련장업,Golden time studio,영업중,서울특별시 강남구 신사동 525-20번지,"서울특별시 강남구 압구정로8길 10, 지하1층 (신사동, BOGO빌딩)",강남구,신사동,37.5227673,127.0213374
1116,체력단련장업,GYM609,영업중,"서울특별시 강남구 역삼동 609-1번지 DY빌딩, 지하2층","서울특별시 강남구 논현로105길 13 (역삼동, DY빌딩, 지하2층)",강남구,역삼동,37.5057492,127.0331265
1117,체력단련장업,다이나믹,영업중,서울특별시 강남구 논현동 16-46번지,"서울특별시 강남구 강남대로146길 23, 3층 (논현동)",강남구,논현동,37.5151729,127.0220135
1118,체력단련장업,골드짐24시(71),영업중,서울특별시 강남구 역삼동 700-33번지 4층,"서울특별시 강남구 테헤란로43길 17, 4층 (역삼동)",강남구,역삼동,37.5044415,127.0436869
1119,체력단련장업,젠틀짐(GENTLE GYM),영업중,서울특별시 강남구 신사동 532-4번지,"서울특별시 강남구 압구정로10길 13, B2층 (신사동)",강남구,신사동,37.5226249,127.0220783
1120,체력단련장업,우리동네PT샵,영업중,서울특별시 강남구 논현동 174-1,"서울특별시 강남구 논현로119길 23, B1층 (논현동)",강남구,논현동,37.5096689,127.030839
1121,체력단련장업,Awaken Strength,영업중,서울특별시 강남구 논현동 158-34,"서울특별시 강남구 학동로6길 51, 지층 (논현동)",강남구,논현동,37.5093446,127.0266642
1122,체력단련장업,에스핏 퍼스널 트레이닝,영업중,서울특별시 강남구 청담동 123-17번지 청맥빌딩,"서울특별시 강남구 도산대로89길 25, 청맥빌딩 지하1층 (청담동)",강남구,청담동,37.5261522,127.0512691
1123,체력단련장업,주식회사 기븐,영업중,서울특별시 강남구 청담동 91-5번지,"서울특별시 강남구 선릉로152길 34, 지하1층 (청담동)",강남구,청담동,37.5242454,127.0423943
1124,체력단련장업,미도핏,영업중,서울특별시 강남구 대치동 511번지 한보미도맨션,"서울특별시 강남구 삼성로 150, 319호 (대치동, 한보미도맨션)",강남구,대치동,37.4950778,127.0662857
1125,체력단련장업,Success Gym,영업중,서울특별시 강남구 역삼동 756-14번지,"서울특별시 강남구 선릉로 323, 6층 (역삼동)",강남구,역삼동,37.498365,127.0515642
1126,체력단련장업,로그짐 PT 선릉점,영업중,서울특별시 강남구 대치동 890-59 롯데골드로즈2,"서울특별시 강남구 선릉로86길 31, 롯데골드로즈2 2층 214호 (대치동)",강남구,대치동,37.5041507,127.0520978
1127,체력단련장업,CD BOXING FIT,영업중,서울특별시 강남구 역삼동 798-18번지 상운빌딩,"서울특별시 강남구 도곡로 191, 상운빌딩 3층 (역삼동)",강남구,역삼동,37.4924339,127.0402156
1128,체력단련장업,(주)일원투엑스휘트니스,영업중,서울특별시 강남구 일원동 717번지 삼성생명 일원동 빌딩,"서울특별시 강남구 일원로 115, 삼성생명 일원동 빌딩 B202호 (일원동)",강남구,일원동,37.4840007,127.0844516
1129,체력단련장업,JW Motion Science Lab.(정원 움직임 과학 연구소),영업중,서울특별시 강남구 청담동 99-3 가당빌딩,"서울특별시 강남구 도산대로75길 26, 가당빌딩 (청담동)",강남구,청담동,37.5258743,127.0455474
1130,체력단련장업,컴앤씨,영업중,서울특별시 강남구 신사동 613-5 캐럴라인타워,"서울특별시 강남구 압구정로32길 11, 캐럴라인타워 (신사동)",강남구,신사동,37.5269161,127.0302159
1131,체력단련장업,원픽,영업중,서울특별시 강남구 대치동 891-37,"서울특별시 강남구 선릉로90길 64, 201호 (대치동)",강남구,대치동,37.505331,127.0543737
1132,체력단련장업,S&R맞춤운동센터,영업중,서울특별시 강남구 청담동 11-14,"서울특별시 강남구 도산대로78길 23-1, 4층 (청담동)",강남구,청담동,37.5222656,127.0467619
1133,체력단련장업,애니타임피트니스 역삼점,영업중,서울특별시 강남구 역삼동 734-3 다영빌딩,"서울특별시 강남구 논현로 406, 다영빌딩 1~2층 (역삼동)",강남구,역삼동,37.4965135,127.0392942
1134,체력단련장업,프라이빗 짐,영업중,서울특별시 강남구 자곡동 56-115 훼미리타운,"서울특별시 강남구 밤고개로 231, 훼미리타운 에이동 208호 (자곡동)",강남구,자곡동,37.4738184,127.107303
1135,체력단련장업,슈퍼바디짐,영업중,서울특별시 강남구 신사동 572,"서울특별시 강남구 압구정로22길 10, 양남빌딩 지하1층 (신사동)",강남구,신사동,37.525013,127.0257716
1136,체력단련장업,쏘.핏,영업중,서울특별시 강남구 개포동 158 일영빌딩,"서울특별시 강남구 선릉로 28, 일영빌딩 지하1층 (개포동)",강남구,개포동,37.4823209,127.0613457
1137,체력단련장업,라이트짐(LIGHT GYM),영업중,서울특별시 강남구 일원동 684 남경빌딩,"서울특별시 강남구 일원로 35, 남경빌딩 지하1층 (일원동)",강남구,일원동,37.4906406,127.0812097
1138,체력단련장업,AML(Athletic Movement Lab),영업중,서울특별시 강남구 논현동 242-14 GOOD,"서울특별시 강남구 선릉로127길 10, GOOD 401호 (논현동)",강남구,논현동,37.5156048,127.0408528
1139,체력단련장업,리얼핏짐,영업중,서울특별시 강남구 신사동 553-25,"서울특별시 강남구 도산대로25길 43, 3층 (신사동)",강남구,신사동,37.5223412,127.0258159
1140,체력단련장업,Zerone Gym,영업중,서울특별시 강남구 논현동 193-8,"서울특별시 강남구 논현로113길 13, 지하1층 (논현동)",강남구,논현동,37.5082788,127.0320779
1141,체력단련장업,에이블짐 삼성중앙역점,영업중,서울특별시 강남구 삼성동 145,"서울특별시 강남구 봉은사로 502, 지하1층 (삼성동)",강남구,삼성동,37.5128028,127.0537382
1142,체력단련장업,멸치탈출연구소,영업중,서울특별시 강남구 역삼동 799-21 창림빌딩,"서울특별시 강남구 도곡로 175, 창림빌딩 B01호 (역삼동)",강남구,역삼동,37.4919529,127.0385429
1143,체력단련장업,(주)에이치코어랩,영업중,서울특별시 강남구 역삼동 615-33,서울특별시 강남구 봉은사로16길 32 (역삼동),강남구,역삼동,37.5044808,127.0288063
1144,체력단련장업,(주)앤트홀딩스/앤트짐(ANT GYM),영업중,서울특별시 강남구 논현동 85 BOB빌딩,"서울특별시 강남구 언주로133길 31, BOB빌딩 지하 1층 (논현동)",강남구,논현동,37.5157974,127.0326633
1145,체력단련장업,로그짐 양재역점,영업중,서울특별시 강남구 도곡동 954,"서울특별시 강남구 남부순환로351길 14, 지하 1층 (도곡동)",강남구,도곡동,37.4857311,127.0345702
1146,체력단련장업,주식회사 데일리앤핏,영업중,서울특별시 강남구 역삼동 765-25 다른빌딩,"서울특별시 강남구 도곡로 323, 다른빌딩 지하1층 (역삼동)",강남구,역삼동,37.496028,127.0512443
1147,체력단련장업,피티공간,영업중,서울특별시 강남구 일원동 684-6 대청빌딩,"서울특별시 강남구 일원로 47, 대청빌딩 지하1층 b2호 (일원동)",강남구,일원동,37.4896572,127.0815449
