,brand,store,gu,dong,address_1,address_2,lat,lng
0,GS25,GS25DXLAB점,강남구,역삼동,"역삼동 677-25, 큰길타워빌딩","강남구 테헤란로223, 1층 101호",37.50235508,127.04069826
1,GS25,GS25R서울강남4점,강남구,청담동,"청담동 125-17, KRA프라자","강남구 도산대로529, 4층",37.5250955,127.05158476
2,GS25,GS25R선릉7점,강남구,대치동,"대치동 890-8, 연봉빌딩","강남구 테헤란로416, 마사회선릉지사 7층",37.50502169,127.05179352
3,GS25,GS25S9봉은사역점,강남구,삼성동,삼성동 111-8,"강남구 봉은사로지하 601, , 9호선봉은사역 내",37.51442446,127.06028283
4,GS25,GS25S9삼성중앙역점,강남구,삼성동,삼성동 111-147,강남구 봉은사로지하 501,37.51164542,127.04855386
5,GS25,GS25S9신논현역점,강남구,역삼동,역삼동,"강남구 봉은사로지하 102, 9호선 신논현역 지하 상가",37.50662704,127.03197969
6,GS25,GS25S9언주역점,강남구,논현동,"논현동 279-165, 9호선 언주역","강남구 봉은사로지하 201, 지하 1층 926-1호",37.50748345,127.03423077
7,GS25,GS25SI타워점,강남구,역삼동,역삼동 679-4,"강남구 테헤란로203, 1층",37.50144648,127.03755445
8,GS25,GS25S강남구청역점,강남구,삼성동,강남구 삼성동1 7호선강남구청역내,강남구 삼성동1 7호선강남구청역내,37.51697895,127.04177805
9,GS25,GS25S강남역1호점,강남구,역삼동,"역삼동 825, 미진프라자","강남구 강남대로390, 지하1층 9호",37.49784131,127.02863248
10,GS25,GS25S강남역2호점,강남구,역삼동,역삼동 825,"강남구 강남대로390, B3층 38호",37.49784131,127.02863248
11,GS25,GS25S강남역3호점,강남구,역삼동,"역삼동 825, 신분당선","강남구 강남대로390, 지하3층",37.49784131,127.02863248
12,GS25,GS25S논현역점,강남구,논현동,논현역 상가1004,"강남구 학동로지하 102, 지하1층, GS25 S논현역점",37.51419073,127.03135035
13,GS25,GS25S매봉역점,강남구,도곡동,도곡동 179-2,"강남구 남부순환로지하 2744, 매봉역내 333-03호",37.48697736,127.04667313
14,GS25,GS25S역삼역점,강남구,역삼동,역삼동 804,"강남구 테헤란로지하 156, 역삼역 지하2층 221-216호",37.49981682,127.03660274
15,GS25,GS25S청담역점,강남구,청담동,7호선청담역,"강남구 학동로87길7,",37.51919311,127.05152372
16,GS25,GS25S학동역점,강남구,논현동,"논현동 279-67, 지하상가",강남구 학동로지하 180,37.51419073,127.03135035
17,GS25,GS25강남N타워점,강남구,역삼동,역삼동 648-17,"강남구 테헤란로129, 강남N타워 GF층 7호",37.49985525,127.03248557
18,GS25,GS25강남YBM점,강남구,역삼동,역삼동 818-14,강남구 강남대로94길9,37.49947669,127.02807975
19,GS25,GS25강남개포점,강남구,개포동,개포동 1244-14,"강남구 개포로15길10, 1층",37.47919916,127.04530212
20,GS25,GS25강남나누리점,강남구,논현동,논현동 63-19,"강남구 언주로147길10, 1층",37.52001905,127.03336784
21,GS25,GS25강남동원점,강남구,삼성동,"삼성2동 143-28, 동원빌딩",강남구 테헤란로77길7,37.50690916,127.05457469
22,GS25,GS25강남드림하이점,강남구,세곡동,"세곡동 615, 드림하이오피스텔","강남구 헌릉로569길21-30, 104호",37.46633315,127.10057538
23,GS25,GS25강남로데오점,강남구,신사동,신사동 662-18,"강남구 압구정로54길16, 1층",37.52684299,127.03925339
24,GS25,GS25강남메트로점,강남구,역삼동,"역삼1동 821-1, 대우쇼핑타운","강남구 테헤란로101, A동 10호",37.49860238,127.02804585
25,GS25,GS25강남본점,강남구,역삼동,역삼동 825-1,"강남구 테헤란로2길8, 1층",37.4975896,127.0287036
26,GS25,GS25강남사랑점,강남구,역삼동,역삼동 749-5,강남구 역삼로15길20,37.4961496,127.03550765
27,GS25,GS25강남상록회관점,강남구,역삼동,역삼동 699-27,강남구 언주로98길25,37.50489517,127.04392313
28,GS25,GS25강남세곡점,강남구,자곡동,자곡동 361,"강남구 밤고개로21길25, 상가동 지상1층 103호, 104호",37.47535526,127.10803093
29,GS25,GS25강남시티힐점,강남구,역삼동,"역삼동 620-9, 시티힐빌딩","강남구 강남대로98길17, 지하1층",37.50098036,127.02794716
30,GS25,GS25강남신사점,강남구,신사동,신사동 619-3,강남구 언주로173길13,37.52802151,127.03240473
31,GS25,GS25강남쌍용점,강남구,역삼동,"역삼1동 826-37, 쌍용플래티넘","강남구 테헤란로4길46, 109호",37.49525324,127.0305772
32,GS25,GS25강남아트점,강남구,역삼동,역삼동 618-3,"강남구 강남대로102길40, 1층",37.50341667,127.02836798
33,GS25,GS25강남에이스타워점,강남구,자곡동,"자곡동 649, 강남에이스타워G9","강남구 자곡로174-10, 1동 107호, 108호",37.47260453,127.10294222
34,GS25,GS25강남역삼점,강남구,역삼동,역삼동 690-29,"강남구 봉은사로48길32, 지하1층 2호",37.5073942,127.04208155
35,GS25,GS25강남영동점,강남구,논현동,논현1동 5-19,강남구 논현로149길50,37.51735111,127.02449956
36,GS25,GS25강남유블레스점,강남구,자곡동,"자곡동 651, 강남유탑유블레스오피스텔","강남구 자곡로180, 111-2호",37.47366958,127.10317822
37,GS25,GS25강남쥬비스점,강남구,대치동,"대치동 942-4, 쥬비스타워","강남구 삼성로434, 1층",37.50569924,127.05764377
38,GS25,GS25강남청담점,강남구,청담동,청담동 46-9,"강남구 학동로441, 1층",37.51889408,127.04907271
39,GS25,GS25강남타운점,강남구,역삼동,"역삼1동 649-10, 서림빌딩","강남구 테헤란로115, 1층",37.49906792,127.02987194
40,GS25,GS25강남태강점,강남구,역삼동,"역삼1동 823-8, 태강빌딩","강남구 테헤란로10길14, 1층",37.49819591,127.03231472
41,GS25,GS25강남태양점,강남구,역삼동,역삼1동 812,"강남구 봉은사로4길29, 1층",37.50296272,127.02685832
42,GS25,GS25강남헤븐리치점,강남구,역삼동,역삼동 605-17,"강남구 봉은사로170, 상가 107호",37.50656191,127.03282882
43,GS25,GS25개나리SK점,강남구,역삼동,역삼동 716-4,"강남구 역삼로315, 107호",37.50054055,127.05031208
44,GS25,GS25개포경남점,강남구,개포동,개포1동 649,강남구 언주로110,37.4844794,127.05426943
45,GS25,GS25개포늘푸른점,강남구,일원동,일원동 611-1,"강남구 영동대로22, 상가 826동 S1B1-0102호",37.49003634,127.07557168
46,GS25,GS25개포럭키점,강남구,개포동,개포4동 1232,강남구 개포로20길12,37.47791728,127.04724049
47,GS25,GS25개포미래점,강남구,개포동,개포동 1212,"강남구 개포로244, 1층",37.47881671,127.04927553
48,GS25,GS25개포빌리지점,강남구,개포동,개포동 1227-11,"강남구 논현로16길6, 1층 일부",37.47604181,127.0470834
49,GS25,GS25개포사랑점,강남구,개포동,개포동 1187-6,"강남구 논현로8길21, 1층",37.47443791,127.05043896
50,GS25,GS25개포소망점,강남구,개포동,"개포2동 186-15, 소망빌딩","강남구 개포로508, 109호,110호",37.48920145,127.06793778
51,GS25,GS25개포타운점,강남구,개포동,개포동 1196-6,강남구 논현로12길13,37.47474388,127.04927059
52,GS25,GS25개포포레스트점,강남구,개포동,"개포동 656-4, 개포래미안포레스트","강남구 개포로264, 상가 A동 108호",37.48013963,127.05243592
53,GS25,GS25그랜드신협점,강남구,삼성동,삼성동 159-8,강남구 테헤란로521,37.5090411,127.06090456
54,GS25,GS25논현77점,강남구,논현동,논현동 77,강남구 학동로33길46,37.51773009,127.03223221
55,GS25,GS25논현경남점,강남구,논현동,논현2동 262-32,강남구 학동로42길73,37.51099032,127.03775994
56,GS25,GS25논현금옥점,강남구,논현동,논현1동 56,강남구 강남대로132길48,37.51294025,127.02502075
57,GS25,GS25논현누리점,강남구,논현동,논현동 112,"강남구 학동로47길16, 1층",37.51771066,127.03868044
58,GS25,GS25논현대지본점,강남구,논현동,논현동 143-23,강남구 강남대로124길5,37.50888865,127.02321846
59,GS25,GS25논현동국점,강남구,논현동,논현1동 37-16,강남구 논현로131길6,37.51464633,127.02977212
60,GS25,GS25논현동부점,강남구,논현동,논현2동 220-18,"강남구 학동로30길49, 101호",37.51105248,127.03323464
61,GS25,GS25논현동우점,강남구,논현동,논현동 232-5,"강남구 봉은사로37길13, 1층",37.5091778,127.03648245
62,GS25,GS25논현동현점,강남구,논현동,논현2동 99-19,강남구 도산대로50길27,37.5206133,127.03772687
63,GS25,GS25논현드림점,강남구,논현동,논현동 199-24,"강남구 봉은사로1길9, 1층",37.50541456,127.02479063
64,GS25,GS25논현마루점,강남구,논현동,논현1동 188,강남구 봉은사로11길26,37.50750869,127.02851854
65,GS25,GS25논현목련점,강남구,논현동,"논현1동 147, 영진빌딩","강남구 강남대로124길60, 1층",37.51047634,127.02671554
66,GS25,GS25논현무궁화점,강남구,논현동,"논현동 205-8, 운현오피스텔","강남구 봉은사로143, 102호",37.5064608,127.03038705
67,GS25,GS25논현미래점,강남구,논현동,논현1동 201-5,강남구 강남대로112길20,37.5055061,127.0260562
68,GS25,GS25논현보람점,강남구,논현동,강남구 논현동254-22번지 1층,강남구 논현동254-22번지 1층,37.51366582,127.04100597
69,GS25,GS25논현사랑점,강남구,논현동,논현1동 133-32,"강남구 논현로123길40, 1층",37.51080815,127.02871331
70,GS25,GS25논현삼익점,강남구,논현동,"논현1동 51, 로뎀빌딩","강남구 강남대로132길10, 101호",37.51217585,127.02193136
71,GS25,GS25논현성암점,강남구,논현동,"논현동 278-6, HJ빌딩","강남구 선릉로605, 1층",37.51086452,127.0433493
72,GS25,GS25논현스카이점,강남구,논현동,논현동 13-16,"강남구 도산대로8길15, 지하1층",37.51601841,127.02242419
73,GS25,GS25논현스타점,강남구,논현동,논현동 33,"강남구 도산대로26길23, 1층",37.51764297,127.02820617
74,GS25,GS25논현아크로점,강남구,논현동,논현동 275-5,"강남구 언주로114길9, 1층",37.51006684,127.03832604
75,GS25,GS25논현영동시장점,강남구,논현동,논현1동 166-4,"강남구 강남대로122길20, 101호",37.50804414,127.02460938
76,GS25,GS25논현영동점,강남구,논현동,"논현1동 141-7, 세일빌딩","강남구 학동로2길19, 1층",37.50995863,127.02294436
77,GS25,GS25논현우람점,강남구,논현동,논현1동 159-11,"강남구 학동로6길48, 1층",37.5092369,127.02610953
78,GS25,GS25논현으뜸점,강남구,논현동,논현1동 189-14,강남구 봉은사로21길21,37.50803042,127.03060427
79,GS25,GS25논현은선점,강남구,논현동,"논현동 242-13, 현진빌딩","강남구 선릉로127길12, 1층",37.51555526,127.04066506
80,GS25,GS25논현이편한점,강남구,논현동,"논현동 195-1, 논현e편한세상",강남구 봉은사로11길12,37.50689771,127.02873005
81,GS25,GS25논현정노점,강남구,논현동,논현동 176-11,"강남구 봉은사로25길37, 1층",37.5095351,127.03169329
82,GS25,GS25논현진실점,강남구,논현동,논현2동 218-22,강남구 언주로121길8,37.51169731,127.03495696
83,GS25,GS25논현초교점,강남구,논현동,논현동 181,"강남구 강남대로120길30, 1층",37.50746981,127.02598544
84,GS25,GS25논현타운점,강남구,논현동,논현1동 159,"강남구 강남대로124길36, 1층",37.50930422,127.02553179
85,GS25,GS25논현파라곤점,강남구,논현동,논현2동 246-3,강남구 언주로130길18,37.51496611,127.03691707
86,GS25,GS25논현평화점,강남구,논현동,논현1동 170-2,강남구 논현로115길69,37.50832028,127.02750136
87,GS25,GS25논현하니점,강남구,논현동,논현동 57-9,강남구 논현로131길31,37.51380108,127.02779221
88,GS25,GS25논현학동점,강남구,논현동,논현2동 66-35,강남구 논현로146길11,37.51822452,127.02989548
89,GS25,GS25논현한영점,강남구,논현동,"논현2동 229-26, 혜광빌딩","강남구 논현로114길11, B1호",37.50877247,127.03429334
90,GS25,GS25논현행운점,강남구,논현동,논현1동 1-5,강남구 강남대로150길11,37.51604086,127.02078366
91,GS25,GS25뉴개포영광점,강남구,개포동,개포동 1168,"강남구 논현로4길12, 1층",37.47257025,127.05125397
92,GS25,GS25뉴삼성아트점,강남구,삼성동,삼성동 169-25,"강남구 테헤란로103길8-10, 1층",37.5101468,127.06512107
93,GS25,GS25뉴역삼월드점,강남구,역삼동,역삼동 754-2,"강남구 역삼로52길14, 101호",37.49852102,127.04792876
94,GS25,GS25뉴역삼프라임,강남구,역삼동,역삼동 673-6,강남구 언주로97길25,37.50485783,127.03932031
95,GS25,GS25대치SK타운점,강남구,대치동,"대치동 612, 대치SK-VIEW아파트","강남구 삼성로51길25, 104,105호",37.49561364,127.05955733
96,GS25,GS25대치골드점,강남구,대치동,"대치4동 896-52, 동창빌딩",강남구 선릉로86길48,37.50408127,127.05362636
97,GS25,GS25대치대명점,강남구,대치동,"대치동 950, 우정에쉐르","강남구 영동대로85길17, B동 122호",37.50688037,127.06226628
98,GS25,GS25대치래미안점,강남구,대치동,"대치동 622, 대치 클래시아","강남구 남부순환로2927, 1층 117호",37.49390801,127.06035901
99,GS25,GS25대치명문점,강남구,대치동,"대치4동 891-23, 대우아이빌명문가","강남구 선릉로90길56, 1동 101호",37.50507151,127.05351207
100,GS25,GS25대치미래점,강남구,대치동,대치4동 900,"강남구 역삼로63길24, 1층 101호",37.50278866,127.05199141
101,GS25,GS25대치사랑점,강남구,대치동,대치4동 904-19,"강남구 역삼로77길7, 1층",37.50295803,127.05626447
102,GS25,GS25대치삼성점,강남구,대치동,"대치2동 945-10, KT&G코스모대치타워","강남구 테헤란로98길8, 1층",37.50768918,127.06199602
103,GS25,GS25대치삼성타운점,강남구,대치동,대치동 1014-3,"강남구 도곡로78길22, 상가동 112,113호",37.49733935,127.06014638
104,GS25,GS25대치삼호점,강남구,대치동,대치2동 997-9,강남구 테헤란로108길11,37.50871313,127.06613431
105,GS25,GS25대치선릉점,강남구,대치동,대치4동 897-33,"강남구 선릉로86길16, 1층",37.50325827,127.0510015
106,GS25,GS25대치스카이점,강남구,대치동,대치동 968,"강남구 역삼로558, 1층",37.50473321,127.06420459
107,GS25,GS25대치에이스점,강남구,대치동,대치4동 916-11,강남구 삼성로71길41,37.50120428,127.05555141
108,GS25,GS25대치오토웨이점,강남구,대치동,대치동 948,"강남구 영동대로417, 지하1층",37.50651022,127.06331149
109,GS25,GS25대치은마점,강남구,대치동,대치동 992-4,"강남구 영동대로57길16, 1층",37.50000852,127.0660844
110,GS25,GS25대치은마타운점,강남구,대치동,대치동 989-6,강남구 삼성로58길11,37.49878852,127.06222046
111,GS25,GS25대치은행점,강남구,대치동,대치2동 976-7,강남구 삼성로64길35,37.50063466,127.06322656
112,GS25,GS25대치제일점,강남구,대치동,대치4동 920-8,"강남구 선릉로72길20, 1층",37.50033555,127.05283672
113,GS25,GS25대치중앙점,강남구,대치동,대치4동 916-40,"강남구 역삼로78길26, 1층 101호",37.50076834,127.05737776
114,GS25,GS25대치타운점,강남구,대치동,"대치동 900-13, 진범빌딩","강남구 선릉로76길25, 1층",37.50200007,127.05253295
115,GS25,GS25대치타워점,강남구,대치동,"대치4동 890-47, 미소빌딩","강남구 선릉로90길36, 1층",37.50466393,127.05212604
116,GS25,GS25대치학여울점,강남구,대치동,대치2동 994-12,"강남구 영동대로213, 101호",37.49783025,127.06865612
117,GS25,GS25대치학원점,강남구,대치동,대치2동 988-17,강남구 도곡로511,37.49966246,127.06220953
118,GS25,GS25대치한티점,강남구,대치동,대치동 936-28,강남구 선릉로62길7,37.49736491,127.0531909
119,GS25,GS25대치희망점,강남구,대치동,대치4동 941-16,"강남구 삼성로307, 1층 101호",37.49940383,127.06027884
120,GS25,GS25도곡STX점,강남구,도곡동,도곡2동 450-5,강남구 논현로24길17,37.48189484,127.04437458
121,GS25,GS25도곡럭키본점,강남구,도곡동,도곡동 895-4,"강남구 남부순환로365길56, 104호",37.48910588,127.04024578
122,GS25,GS25도곡렉슬점,강남구,도곡동,"도곡동 527-3, 도곡렉슬상가","강남구 선릉로225, 지하층 비101,102호",37.4954324,127.05266116
123,GS25,GS25도곡매봉점,강남구,도곡동,"도곡2동 419-5, 석진빌딩","강남구 논현로30길51, 1층",37.48516776,127.04574631
124,GS25,GS25도곡센터점,강남구,도곡동,도곡동 959-26,강남구 남부순환로359길6,37.48551175,127.03705785
125,GS25,GS25도곡신호점,강남구,도곡동,"도곡1동 544, 신호빌딩","강남구 도곡로184, 1층 101호",37.49167896,127.03976053
126,GS25,GS25도곡아카데미점,강남구,도곡동,"도곡동 467-7, 아카데미스위트","강남구 언주로30길21, A동 1층 105호",37.48885827,127.05198656
127,GS25,GS25도곡양재점,강남구,도곡동,도곡1동 954,"강남구 남부순환로351길14, 1층",37.48572561,127.03455616
128,GS25,GS25도곡역점,강남구,대치동,"대치동 500, 그랑프리앤상가","강남구 남부순환로2912, 상가동 1층 104호",37.49089318,127.0563032
129,GS25,GS25도곡점,강남구,도곡동,도곡2동 411-16,강남구 남부순환로2730,37.48571786,127.04468772
130,GS25,GS25도곡타운점,강남구,도곡동,도곡동 515-5,"강남구 논현로30길7, 1층 일부",37.48310908,127.04299096
131,GS25,GS25도곡타워점,강남구,도곡동,"도곡동 467-12, 군인공제회관","강남구 남부순환로2806, 112호",37.48931719,127.05303241
132,GS25,GS25도곡푸른점,강남구,도곡동,"도곡1동 949-2, 도곡푸르지오","강남구 강남대로272, 102동 101호",37.48764035,127.03290321
133,GS25,GS25디에이치자이점,강남구,일원동,일원동 611-1,"강남구 영동대로22, 상가 827동 S2B1-0211호",37.49142547,127.07346253
134,GS25,GS25래미안포레스트점,강남구,개포동,"개포동 656, 개포래미안포레스트","강남구 개포로264, 상가 B동 101호",37.47751124,127.05502431
135,GS25,GS25로데오점,강남구,신사동,신사동 659-9,강남구 선릉로161길31,37.52754249,127.03773969
136,GS25,GS25무역센타점,강남구,삼성동,삼성1동 154-13,"강남구 테헤란로87길25, 1층 13호",37.50943411,127.05820761
137,GS25,GS25보금자리점,강남구,세곡동,"세곡동 579, 보금자리주택","강남구 헌릉로571길20, 상가 102호",37.46670121,127.10276406
138,GS25,GS25봉은사점,강남구,삼성동,"삼성동 77-23, 트리니티재활병원빌딩","강남구 봉은사로535, 1층",37.51424031,127.05865625
139,GS25,GS25삼성그린점,강남구,삼성동,삼성동 123-4,"강남구 삼성로107길31, 1층",37.51076838,127.05153985
140,GS25,GS25삼성메디슨점,강남구,삼성동,강남구 삼성로95길15(삼성2동 144),강남구 삼성로95길15(삼성2동 144),37.50725953,127.06576786
141,GS25,GS25삼성본점,강남구,삼성동,"삼성동 51-3, 현대빌딩","강남구 삼성로111길7, 1층",37.51329051,127.05255991
142,GS25,GS25삼성봉은점,강남구,삼성동,삼성2동 49-4,강남구 봉은사로71길6,37.5126677,127.05018106
143,GS25,GS25삼성선릉점,강남구,삼성동,삼성2동 144,강남구 삼성로95길15,37.50767363,127.05439538
144,GS25,GS25삼성센트럴점,강남구,삼성동,삼성동 24-25,"강남구 삼성로115길16-1, 1층",37.51466228,127.05058563
145,GS25,GS25삼성승리점,강남구,삼성동,삼성동 140-35,강남구 테헤란로63길17,37.50647608,127.05001068
146,GS25,GS25삼성언주점,강남구,삼성동,삼성2동 34-10,강남구 선릉로120길8,37.51374778,127.04333512
147,GS25,GS25삼성역점,강남구,삼성동,삼성1동 168,"강남구 영동대로510, 1층",37.51053449,127.06287662
148,GS25,GS25삼성영진점,강남구,삼성동,"삼성1동 153-63, 영진빌딩","강남구 테헤란로87길37, 1층",37.51021434,127.05774536
149,GS25,GS25삼성으뜸점,강남구,삼성동,삼성2동 35-20,"강남구 선릉로116길8, 1층",37.51245406,127.04380409
150,GS25,GS25삼성제일점,강남구,삼성동,"삼성1동 145-29, 삼성동스카이빌","강남구 봉은사로82길16, 1층",37.51204919,127.05507543
151,GS25,GS25삼성중앙점,강남구,삼성동,삼성동 121-23,"강남구 삼성로107길9, 1층",37.51134851,127.05309347
152,GS25,GS25삼성진우점,강남구,삼성동,삼성동 165-10,"강남구 봉은사로112길18, 1층",37.51370401,127.06487309
153,GS25,GS25삼성캐슬점,강남구,삼성동,삼성2동 10-21,"강남구 봉은사로57길67, 102호",37.51516375,127.04349804
154,GS25,GS25삼성터미널점,강남구,삼성동,삼성1동 157-10,"강남구 테헤란로81길26, 101호",37.50867503,127.05680329
155,GS25,GS25삼성한울점,강남구,삼성동,삼성동 26-17,강남구 삼성로119길37,37.51529469,127.04855278
156,GS25,GS25서울로봇고점,강남구,일원동,"일원동 739, 청솔빌리지","강남구 광평로10길50, 상가 1층 30호",37.48050215,127.08238271
157,GS25,GS25선릉로즈점,강남구,대치동,대치4동 889-52,"강남구 선릉로90길16, 1층",37.50412019,127.05061735
158,GS25,GS25세곡1단지점,강남구,수서동,강남구 수서동559번지 강남데시앙포레아파트 상가동,강남구 수서동559번지 강남데시앙포레아파트 상가동,37.48118109,127.09212086
159,GS25,GS25세곡래미안점,강남구,자곡동,자곡동,"강남구 자곡로101, 635동 B101,102호",37.47338765,127.0945667
160,GS25,GS25세곡리엔점,강남구,세곡동,"세곡동 525, 강남데시앙파크","강남구 헌릉로590길63, 104호",37.46007845,127.1015885
161,GS25,GS25세종고점,강남구,수서동,"수서동 711, 세종고등학교","강남구 광평로51길36, 내",37.48999235,127.10258732
162,GS25,GS25수서벤처점,강남구,수서동,"수서동 713, 현대벤쳐빌","강남구 밤고개로1길10, 1층 1177호",37.48800357,127.10174041
163,GS25,GS25신사강남점,강남구,신사동,신사동 526-9,강남구 압구정로2길9,37.52110376,127.01957491
164,GS25,GS25신사성원점,강남구,신사동,신사동 535-7,"강남구 도산대로11길34, 102호",37.51971326,127.02248911
165,GS25,GS25신사센터점,강남구,신사동,신사동 511-10,강남구 압구정로2길58,37.51817059,127.02117438
166,GS25,GS25신사자생점,강남구,신사동,신사동 636-10,강남구 압구정로42길24-10,37.52746092,127.03436925
167,GS25,GS25신사장터점,강남구,신사동,신사동 646-13,"강남구 언주로168길38, 1층",37.52580362,127.03665331
168,GS25,GS25신사제일점,강남구,신사동,신사동 537,"강남구 강남대로152길40, 1층",37.51798362,127.0225343
169,GS25,GS25신사중앙점,강남구,신사동,신사동 628-10,"강남구 언주로153길13, 1층",37.5224773,127.03206907
170,GS25,GS25신사중앙점,강남구,신사동,신사동 628-10,"강남구 언주로153길13, 1층",37.5224773,127.03206907
171,GS25,GS25신사증권점,강남구,신사동,신사동 597-2,"강남구 압구정로30길65, 1층",37.52305745,127.02919938
172,GS25,GS25신사진주점,강남구,신사동,신사동 666-20,강남구 도산대로53길10,37.52374589,127.03845594
173,GS25,GS25신사초롱점,강남구,신사동,신사동 555-13,강남구 논현로153길46,37.52048652,127.02447005
174,GS25,GS25신사코원점,강남구,신사동,신사동 523-24,"강남구 강남대로162길41-19, 1층",37.52192513,127.0208312
175,GS25,GS25신사타운점,강남구,신사동,"신사동 638-7, 서우빌딩","강남구 언주로174길17, 101호",37.52846057,127.03540855
176,GS25,GS25신사현대점,강남구,신사동,신사동 502-10,"강남구 강남대로152길5, 1층 101호",37.51720544,127.01996528
177,GS25,GS25신현대점,강남구,압구정동,"압구정동 426, 신현대상가","강남구 압구정로151, 1층 101호",37.52619003,127.02445235
178,GS25,GS25압구정CGV점,강남구,신사동,신사동 601,"강남구 압구정로32길49, 1층",37.52437851,127.02987237
179,GS25,GS25압구정사랑점,강남구,압구정동,압구정동 481,"강남구 압구정로309, 에이-105호, 에이-104호",37.53119093,127.03542996
180,GS25,GS25압구정시티점,강남구,신사동,"신사동 579, 카로시티2","강남구 압구정로156, 107호",37.5259751,127.02679705
181,GS25,GS25압구정신구점,강남구,신사동,신사동 613-9,"강남구 압구정로34길24, 1층",37.52659189,127.03057909
182,GS25,GS25압구정신사점,강남구,신사동,신사동 588,강남구 도산대로33길8,37.52115625,127.03029872
183,GS25,GS25압구정역점,강남구,신사동,"신사동 577-12, 동헌빌딩",강남구 압구정로28길18,37.5254678,127.02756164
184,GS25,GS25압구정유림점,강남구,신사동,신사동 584-1,"강남구 압구정로28길49, 101호,102호",37.52327923,127.02768055
185,GS25,GS25압구정타운점,강남구,압구정동,"압구정동 369-1, 현대","강남구 압구정로29길71, 상가 2동 116호",37.53277047,127.02806649
186,GS25,GS25압구정현대점,강남구,압구정동,"압구정동 369-1, 현대아파트","강남구 압구정로29길71, 115,116호",37.53277047,127.02806649
187,GS25,GS25압구정화인점,강남구,신사동,신사동 565-19,"강남구 논현로155길8, 1층",37.52189751,127.02730253
188,GS25,GS25언주제일점,강남구,논현동,논현동 193-39,"강남구 논현로111길14, 1층",37.5076662,127.03233952
189,GS25,GS25역삼2점,강남구,역삼동,역삼1동 789-30,강남구 역삼로14길7,37.49411315,127.03549991
190,GS25,GS25역삼거북점,강남구,역삼동,역삼1동 667-18,강남구 논현로98길7,37.50374381,127.03640525
191,GS25,GS25역삼기쁨점,강남구,역삼동,역삼1동 640-13,강남구 테헤란로25길39,37.50306343,127.03474011
192,GS25,GS25역삼넥스빌점,강남구,역삼동,"역삼2동 706-20, 넥스빌빌딩","강남구 언주로86길11, 1층",37.50195223,127.0443565
193,GS25,GS25역삼대로점,강남구,역삼동,역삼2동 733-27,강남구 역삼로213,37.49659555,127.0404779
194,GS25,GS25역삼대홍점,강남구,역삼동,역삼1동 798-29,강남구 논현로63길19,37.49248652,127.03934308
195,GS25,GS25역삼덕원점,강남구,역삼동,역삼1동 637-19,강남구 테헤란로13길16,37.50075492,127.03231563
196,GS25,GS25역삼띵동점,강남구,역삼동,역삼동 699-2,"강남구 언주로98길7, 1층",37.50516247,127.04243806
197,GS25,GS25역삼르네상스점,강남구,역삼동,"역삼2동 719-21, MeMo빌딩",강남구 테헤란로38길6,37.50158485,127.0412736
198,GS25,GS25역삼명진점,강남구,역삼동,역삼1동 792-19,"강남구 역삼로18길22, 1층",37.49342771,127.0365265
199,GS25,GS25역삼미래점,강남구,역삼동,역삼1동 664-32,"강남구 테헤란로39길51, 1층",37.50570345,127.04025955
200,GS25,GS25역삼미소점,강남구,역삼동,역삼동 611-2,"강남구 논현로105길31, 1층",37.50564351,127.03181142
201,GS25,GS25역삼본점,강남구,역삼동,"역삼1동 678-19, 정안빌딩","강남구 테헤란로29길10, 1층",37.50234865,127.03879827
202,GS25,GS25역삼블루점,강남구,역삼동,"역삼동 796-26, 삼정빌딩","강남구 도곡로21길18, 1층",37.49328424,127.03882398
203,GS25,GS25역삼사랑점,강남구,역삼동,역삼1동 696-10,강남구 테헤란로55길27,37.50594357,127.0465451
204,GS25,GS25역삼상록점,강남구,역삼동,역삼1동 703-3,"강남구 테헤란로43길12, 101호",37.50408495,127.04401263
205,GS25,GS25역삼성보점,강남구,역삼동,"역삼2동 709, 역삼아이파크","강남구 테헤란로52길16, 상가 12호",37.50271404,127.04719691
206,GS25,GS25역삼성우점,강남구,역삼동,"역삼1동 832-33, 성우스타우스","강남구 역삼로4길16, 109호",37.49239048,127.03199383
207,GS25,GS25역삼센트럴점,강남구,역삼동,"103호,104호","강남구 언주로85길32, 719-24외 4필지 1층",37.5008673,127.04057027
208,GS25,GS25역삼소망점,강남구,역삼동,역삼동 608-12,강남구 봉은사로26길26,37.50540606,127.03362415
209,GS25,GS25역삼스타점,강남구,역삼동,역삼동 738-7,강남구 논현로85길5,37.49908153,127.03704195
210,GS25,GS25역삼싱아점,강남구,역삼동,"역삼동 769-8, MSPACE빌딩","강남구 논현로72길13, 1층",37.49588498,127.04063401
211,GS25,GS25역삼쌍마점,강남구,역삼동,역삼1동 828-23,"강남구 논현로85길57, 1층",37.49771847,127.03342919
212,GS25,GS25역삼쏘도베점,강남구,역삼동,역삼동 644-19,강남구 강남대로94길95,37.50108252,127.03491264
213,GS25,GS25역삼아람점,강남구,역삼동,역삼동 788-20,"강남구 논현로64길14, 1층",37.49357584,127.04144384
214,GS25,GS25역삼아르누보점,강남구,역삼동,"역삼1동 701-1, 역삼아르누보씨티","강남구 언주로506, 1층101호102호",37.50340844,127.04281108
215,GS25,GS25역삼아워홈점,강남구,역삼동,역삼동 830-28,"강남구 역삼로3길10, 1층",37.49425251,127.03160792
216,GS25,GS25역삼영동점,강남구,역삼동,역삼1동 658,강남구 봉은사로30길11,37.50680879,127.03547232
217,GS25,GS25역삼우리점,강남구,역삼동,역삼동 732,"강남구 역삼로33길10, 1층",37.49784952,127.04177373
218,GS25,GS25역삼이담점,강남구,역삼동,역삼동 735-24,강남구 테헤란로16길15,37.4985529,127.03409699
219,GS25,GS25역삼자이점,강남구,역삼동,"역삼동 711-6, 역삼자이","강남구 언주로408, 상가 1층 117호",37.5004719,127.04403608
220,GS25,GS25역삼제스트점,강남구,역삼동,역삼동 695,"강남구 테헤란로53길48, 102호",37.50680371,127.04482626
221,GS25,GS25역삼제일점,강남구,역삼동,역삼1동 688-1,강남구 언주로108길6,37.5077923,127.04006314
222,GS25,GS25역삼지에스점,강남구,역삼동,역삼동 668-21,"강남구 봉은사로30길78, 1층",37.50248717,127.03699821
223,GS25,GS25역삼충현점,강남구,역삼동,역삼1동 660-33,강남구 논현로102길33,37.50577302,127.03773643
224,GS25,GS25역삼캐피탈점,강남구,역삼동,"역삼1동 736-37, 소정빌딩","강남구 논현로87길23, 1층",37.4993616,127.03492348
225,GS25,GS25역삼코디점,강남구,역삼동,역삼동 644-3,"강남구 논현로95길29-13, 1층",37.50109435,127.03415473
226,GS25,GS25역삼타운점,강남구,역삼동,역삼2동 779,강남구 언주로69길7,37.49642269,127.04472101
227,GS25,GS25역삼태극점,강남구,역삼동,"역삼1동 826-37, 쌍용플래티넘밸류","강남구 테헤란로4길46, B110호",37.49539581,127.03038311
228,GS25,GS25역삼테헤란점,강남구,역삼동,역삼1동 678-28,"강남구 테헤란로33길7, 1층 A호",37.50229864,127.03929655
229,GS25,GS25역삼프리미엄점,강남구,역삼동,역삼동 678-5,"강남구 논현로94길32, 1층",37.50289971,127.03897217
230,GS25,GS25역삼하나점,강남구,역삼동,"역삼1동 835-68, 롯데캐슬노블아파트","강남구 도곡로13길19, 상가 102호",37.49233118,127.0357603
231,GS25,GS25역삼햇살점,강남구,역삼동,"역삼동 727-14, 평화빌딩","강남구 논현로412, 104호",37.49688174,127.03910584
232,GS25,GS25역삼행복점,강남구,역삼동,역삼동 778-6,"강남구 언주로67길34, 1층 2호",37.49540798,127.04292451
233,GS25,GS25역삼혜성점,강남구,역삼동,역삼2동 723,강남구 테헤란로34길17,37.50045341,127.04064342
234,GS25,GS25역삼홍인점,강남구,역삼동,역삼동 666-15,"강남구 봉은사로30길43, 지하1층",37.5047424,127.03621145
235,GS25,GS25역삼효성점,강남구,역삼동,"역삼1동 824-11, 한라클래식107,108,109호",강남구 강남대로84길23,37.49713467,127.03036063
236,GS25,GS25역삼흑룡점,강남구,역삼동,역삼1동 752-23,강남구 역삼로11길5,37.49482366,127.0342355
237,GS25,GS25오크우드점,강남구,삼성동,삼성1동 159,"강남구 테헤란로87길46, 지하1층 삼성동",37.51098314,127.05810897
238,GS25,GS25와인25플러스점,강남구,역삼동,역삼동 679,강남구 논현로508,37.50176474,127.03680391
239,GS25,GS25율현은하점,강남구,율현동,"율현동 101-13, 강남자동차매매장","강남구 헌릉로745길37, B동 101호",37.46995776,127.11882362
240,GS25,GS25일원대청점,강남구,일원동,일원동 663-7,"강남구 일원로3길54, 1층",37.49239236,127.08421625
241,GS25,GS25일원삼성점,강남구,일원동,"일원동 717, 삼성생명일원동빌딩","강남구 일원로115, 1층 118호",37.48399606,127.0844205
242,GS25,GS25일원센타점,강남구,일원동,일원1동 680-4,강남구 양재대로33길6,37.48996994,127.0832394
243,GS25,GS25일원스타점,강남구,일원동,일원동 644-11,강남구 양재대로55길5,37.49123964,127.08779243
244,GS25,GS25일원으뜸점,강남구,일원동,일원1동 682,"강남구 일원로5길6, 1층",37.49065034,127.08151223
245,GS25,GS25자곡라르고점,강남구,자곡동,일부,"강남구 자곡로201, 강남더샵라르고 1층 101호, 102호",37.47527538,127.10461749
246,GS25,GS25자곡베스트점,강남구,자곡동,"자곡동 621, 엘에이치강남3단지","강남구 자곡로3길22, 상가동 104호, 105호",37.47073776,127.09094708
247,GS25,GS25지에스강남점,강남구,역삼동,역삼1동 679,강남구 논현로508,37.50176474,127.03680391
248,GS25,GS25지에스본점,강남구,역삼동,"역삼동 642-5, 호양빌딩","강남구 논현로93길3, 1층",37.5018743,127.0358751
249,GS25,GS25지에스사랑점,강남구,역삼동,역삼동 718-16,"강남구 테헤란로28길3-10, 1층",37.50098452,127.03947172
250,GS25,GS25지에스스낵바점,강남구,역삼동,역삼동 679,강남구 논현로508,37.50176474,127.03680391
251,GS25,GS25지에스타워점,강남구,역삼동,역삼동 678-11,강남구 테헤란로27길12,37.5022613,127.03803032
252,GS25,GS25차병원본점,강남구,역삼동,"역삼동 650-9, 강남차병원","강남구 논현로566, 지하1층",37.50666663,127.03461454
253,GS25,GS25청담88점,강남구,청담동,청담동 88-3,"강남구 도산대로55길22, 지하1층",37.52493526,127.0406694
254,GS25,GS25청담골프존점,강남구,청담동,"청담동 68, 골프존센터알앤디센터","강남구 영동대로141길5, 지하2층",37.52329733,127.05432267
255,GS25,GS25청담미래점,강남구,청담동,"청담동 93-3, 라임빌딩","강남구 도산대로61길10, 1층",37.5245936,127.04298169
256,GS25,GS25청담빌리지점,강남구,청담동,청담동 15-5,"강남구 삼성로147길34, 1층",37.52081081,127.04652564
257,GS25,GS25청담사거리점,강남구,청담동,"1층,4호","강남구 도산대로510,",37.52393846,127.04888424
258,GS25,GS25청담삼익점,강남구,청담동,청담동 133-6,"강남구 학동로101길7, 1층 103호,104호",37.52085473,127.05761157
259,GS25,GS25청담센터점,강남구,청담동,청담동 83-9,"강남구 선릉로158길9, 지하1층",37.52570309,127.04090846
260,GS25,GS25청담여신점,강남구,청담동,청담동 98,"강남구 도산대로75길8, 1층",37.52476383,127.04620381
261,GS25,GS25청담우리본점,강남구,청담동,청담동 31-16,"강남구 학동로77길18, 2층",37.51984773,127.04889091
262,GS25,GS25청담자이점,강남구,청담동,청담동 131-14,"강남구 영동대로138길9, 108호",37.5227916,127.05643328
263,GS25,GS25청담중앙점,강남구,청담동,청담동 21-9,강남구 선릉로148길32,37.52263164,127.04215828
264,GS25,GS25청담진흥점,강남구,삼성동,"삼성1동 53-2, 진흥아파트","강남구 학동로88길5, 상가내 1층 5호",37.51899624,127.05281583
265,GS25,GS25청담칼릭스점,강남구,청담동,"청담동 125, 청담칼릭스빌","강남구 도산대로89길12, 105호",37.52526951,127.05081324
266,GS25,GS25청담타운점,강남구,청담동,"청담동 7-9, 청원빌딩","강남구 삼성로145길16, 1층",37.52258899,127.04691028
267,GS25,GS25코스모타워점,강남구,대치동,"대치2동 1002, 코스모타워","강남구 영동대로416, B1호 층107",37.50656229,127.06533543
268,GS25,GS25코엑스인터신협점,강남구,삼성동,삼성동 159,"강남구 봉은사로524, B3",37.51242144,127.05881483
269,GS25,GS25코엑스호텔점,강남구,삼성동,"삼성동 159, 코엑스인터컨티넨탈아케이드",강남구 봉은사로524,37.51242144,127.05881483
270,GS25,GS25파르나스몰점,강남구,삼성동,삼성동 159-8,"강남구 테헤란로521, 지하1층 R32, R33",37.5090411,127.06090456
271,GS25,GS25파르나스타워점,강남구,삼성동,T1,"강남구 테헤란로521, 1층",37.5090411,127.06090456
272,GS25,GS25포이그린점,강남구,개포동,개포4동 1255-6,강남구 개포로25길15,37.47997769,127.04798318
273,GS25,GS25포이점,강남구,개포동,개포4동 1219-5,"강남구 개포로22길40, 1층",37.47653727,127.0493044
274,GS25,GS25포이한라점,강남구,개포동,개포4동 1177-4,"강남구 논현로4길43, 1층",37.47417164,127.05318961
275,GS25,GS25학동공원점,강남구,논현동,논현1동 16-48,강남구 강남대로146길27,37.51526987,127.02234346
276,GS25,GS25학동제일점,강남구,논현동,"논현2동 88-5, 이룸빌딩",강남구 학동로33길7,37.51521855,127.03252481
277,GS25,GS25학동행복점,강남구,논현동,"논현동 215-3, 이세빌딩","강남구 학동로30길14, 1층",37.51321286,127.03187201
278,GS25,GS25한티단국점,강남구,대치동,대치동 1023-19,강남구 도곡로70길5,37.49700472,127.0565995
279,GS25,GS25한티역점,강남구,역삼동,역삼동 765-26,"강남구 도곡로325, 1층 일부",37.49617094,127.05149831
280,GS25,GS25학동공원점,강남구,논현동,논현1동 16-48,강남구 강남대로146길27,37.51526987,127.02234346
281,GS25,GS25학동제일점,강남구,논현동,"논현2동 88-5, 이룸빌딩",강남구 학동로33길7,37.51521855,127.03252481
282,GS25,GS25학동행복점,강남구,논현동,"논현동 215-3, 이세빌딩","강남구 학동로30길14, 1층",37.51321286,127.03187201
283,GS25,GS25한티단국점,강남구,대치동,대치동 1023-19,강남구 도곡로70길5,37.49700472,127.0565995
284,GS25,GS25한티역점,강남구,역삼동,역삼동 765-26,"강남구 도곡로325, 1층 일부",37.49617094,127.05149831
285,GS25,GS25현대압구정점,강남구,압구정동,압구정동 429,"강남구 압구정로165, B2",37.52731392,127.02743585
286,GS25,나만의냉장고,강남구,역삼동,역삼동 679,강남구 논현로508,37.50208899,127.03678844
287,CU,개포사랑점,강남구,개포동,서울특별시 강남구 선릉로10길 4,서울특별시 강남구 선릉로10길 4,37.4831042,127.0606611
288,CU,대청수성점,강남구,개포동,서울특별시 강남구 개포로109길 34,서울특별시 강남구 개포로109길 34,37.4942156,127.077617
289,CU,포이대원점,강남구,개포동,서울특별시 강남구 개포로22길 90,서울특별시 강남구 개포로22길 90,37.4750114,127.0527234
290,CU,포이점,강남구,개포동,서울특별시 강남구 개포로 233,서울특별시 강남구 개포로 233,37.47905739999999,127.0481149
291,CU,논현제일점,강남구,논현동,서울특별시 강남구 봉은사로33길 6 (논현동),서울특별시 강남구 봉은사로33길 6 (논현동),37.5084546,127.0358894
292,CU,강남거평점,강남구,논현동,서울특별시 강남구 봉은사로 129 거평타운 (논현동) 거평타운,서울특별시 강남구 봉은사로 129 거평타운 (논현동) 거평타운,37.5058765,127.0283552
293,CU,강남논현타운점,강남구,논현동,서울특별시 강남구 강남대로114길 25,서울특별시 강남구 강남대로114길 25,37.5062936,127.0263213
294,CU,논현APEX점,강남구,논현동,서울특별시 강남구 도산대로 158,서울특별시 강남구 도산대로 158,37.5184589,127.0260517
295,CU,논현SK점,강남구,논현동,서울특별시 강남구 학동로 342,서울특별시 강남구 학동로 342,37.5166861,127.0405907
296,CU,논현강남점,강남구,논현동,서울특별시 강남구 선릉로131길 25 1층,서울특별시 강남구 선릉로131길 25 1층,37.5171412,127.0389353
297,CU,논현경복점,강남구,논현동,서울특별시 강남구 봉은사로43길 14,서울특별시 강남구 봉은사로43길 14,37.51017179999999,127.0399169
298,CU,논현골드점,강남구,논현동,서울특별시 강남구 선릉로131길 9,서울특별시 강남구 선릉로131길 9,37.5174873,127.0400681
299,CU,논현광명점,강남구,논현동,서울특별시 강남구 강남대로 506 광명빌딩,서울특별시 강남구 강남대로 506 광명빌딩,37.5075072,127.0235049
300,CU,논현대승점,강남구,논현동,서울특별시 강남구 학동로43길 37,서울특별시 강남구 학동로43길 37,37.5185672,127.0376856
301,CU,논현동화점,강남구,논현동,서울특별시 강남구 학동로4길 15,서울특별시 강남구 학동로4길 15,37.5105327,127.0235227
302,CU,논현두산위브점,강남구,논현동,서울특별시 강남구 언주로122길 28 ME만남의집,서울특별시 강남구 언주로122길 28 ME만남의집,37.5119348,127.0380179
303,CU,논현선정릉점,강남구,논현동,서울특별시 강남구 봉은사로49길 7,서울특별시 강남구 봉은사로49길 7,37.5104078,127.0419456
304,CU,논현성덕점,강남구,논현동,서울특별시 강남구 강남대로114길 41 성덕빌딩 (논현동) 성덕빌딩,서울특별시 강남구 강남대로114길 41 성덕빌딩 (논현동) 성덕빌딩,37.51282,127.0278273
305,CU,논현성원점,강남구,논현동,서울특별시 강남구 선릉로115길 27,서울특별시 강남구 선릉로115길 27,37.5116623,127.04078
306,CU,논현세관사거리점,강남구,논현동,서울특별시 강남구 논현동 248-2번지,서울특별시 강남구 논현동 248-2번지,37.5147923,127.0363082
307,CU,논현세기점,강남구,논현동,서울특별시 강남구 학동로20길 33 (논현동),서울특별시 강남구 학동로20길 33 (논현동),37.5111267,127.0282024
308,CU,논현세원점,강남구,논현동,서울특별시 강남구 언주로125길 7,서울특별시 강남구 언주로125길 7,37.5129128,127.034619
309,CU,논현신우점,강남구,논현동,서울특별시 강남구 강남대로126길 26,서울특별시 강남구 강남대로126길 26,37.5097107,127.0246715
310,CU,논현역드림점,강남구,논현동,서울특별시 강남구 강남대로 570,서울특별시 강남구 강남대로 570,37.5128276,127.0209895
311,CU,논현영동점,강남구,논현동,서울특별시 강남구 도산대로12길 9,서울특별시 강남구 도산대로12길 9,37.5171087,127.0238901
312,CU,논현우람점,강남구,논현동,서울특별시 강남구 강남대로128길 81,서울특별시 강남구 강남대로128길 81,37.5125774,127.0280029
313,CU,논현윤진점,강남구,논현동,서울특별시 강남구 논현로119길 54,서울특별시 강남구 논현로119길 54,37.5081384,127.0291432
314,CU,논현제일점,강남구,논현동,서울특별시 강남구 봉은사로33길 6 (논현동),서울특별시 강남구 봉은사로33길 6 (논현동),37.5084546,127.0358894
315,CU,논현평화점,강남구,논현동,서울특별시 강남구 강남대로122길 56,서울특별시 강남구 강남대로122길 56,37.5091374,127.0273342
316,CU,논현학동점,강남구,논현동,서울특별시 강남구 학동로25길 11,서울특별시 강남구 학동로25길 11,37.5143573,127.0288501
317,CU,논현학사점,강남구,논현동,서울특별시 강남구 논현로149길 27,서울특별시 강남구 논현로149길 27,37.5179192,127.0264054
318,CU,논현한미점,강남구,논현동,서울특별시 강남구 봉은사로 179,서울특별시 강남구 봉은사로 179,37.5074822,127.0334248
319,CU,논현한진점,강남구,논현동,서울특별시 강남구 도산대로46길 21,서울특별시 강남구 도산대로46길 21,37.520717,127.0371476
320,CU,논현행복점,강남구,논현동,서울특별시 강남구 학동로24길 11,서울특별시 강남구 학동로24길 11,37.5125272,127.0290357
321,CU,논현혜성점,강남구,논현동,서울특별시 강남구 강남대로118길 8,서울특별시 강남구 강남대로118길 8,37.5061632,127.0244642
322,CU,논현힐탑점,강남구,논현동,서울특별시 강남구 학동로30길 39,서울특별시 강남구 학동로30길 39,37.5115907,127.0329942
323,CU,신사렉스점,강남구,논현동,서울특별시 강남구 강남대로 588,서울특별시 강남구 강남대로 588,37.51437080000001,127.0205398
324,CU,학동역점,강남구,논현동,서울특별시 강남구 학동로 224,서울특별시 강남구 학동로 224,37.5144524,127.0333326
325,CU,강남해성점,강남구,대치동,서울특별시 강남구 테헤란로 504,서울특별시 강남구 테헤란로 504,37.50655,127.0573817
326,CU,뉴대치플러스점,강남구,대치동,서울특별시 강남구 테헤란로84길 13 금원빌딩 (대치동) 금원빌딩,서울특별시 강남구 테헤란로84길 13 금원빌딩 (대치동) 금원빌딩,37.5063516,127.0588374
327,CU,대치금강점,강남구,대치동,서울특별시 강남구 테헤란로 410,서울특별시 강남구 테헤란로 410,37.5045497,127.0507308
328,CU,대치기량점,강남구,대치동,서울특별시 강남구 선릉로 406,서울특별시 강남구 선릉로 406,37.5011727,127.0508237
329,CU,대치동부점,강남구,대치동,서울특별시 강남구 테헤란로78길 8,서울특별시 강남구 테헤란로78길 8,37.5056259,127.0552143
330,CU,대치롯데점,강남구,대치동,서울특별시 강남구 선릉로64길 8,서울특별시 강남구 선릉로64길 8,37.4977228,127.0531038
331,CU,대치메가점,강남구,대치동,서울특별시 강남구 역삼로73길 13,서울특별시 강남구 역삼로73길 13,37.5028395,127.0550727
332,CU,대치메트로칸점,강남구,대치동,서울특별시 강남구 테헤란로88길 10,서울특별시 강남구 테헤란로88길 10,37.5068833,127.059437
333,CU,대치본점,강남구,대치동,서울특별시 강남구 도곡로 443,서울특별시 강남구 도곡로 443,37.4985911,127.0588285
334,CU,대치삼성점,강남구,대치동,서울특별시 강남구 도곡로 516,서울특별시 강남구 도곡로 516,37.4992034,127.0630995
335,CU,대치샤인점,강남구,대치동,서울특별시 강남구 도곡로63길 12,서울특별시 강남구 도곡로63길 12,37.4978196,127.0546022
336,CU,대치선경점,강남구,대치동,서울특별시 강남구 남부순환로 2936 (대치동,서울특별시 강남구 남부순환로 2936 (대치동,37.4933573,127.0619092
337,CU,대치세정점,강남구,대치동,서울특별시 강남구 삼성로 348,서울특별시 강남구 삼성로 348,37.5026803,127.0591664
338,CU,대치쌍용점,강남구,대치동,서울특별시 강남구 영동대로50길 10,서울특별시 강남구 영동대로50길 10,37.4985403,127.0699374
339,CU,대치역점,강남구,대치동,서울특별시 강남구 삼성로 223,서울특별시 강남구 삼성로 223,37.4968846,127.0616201
340,CU,대치예스점,강남구,대치동,서울특별시 강남구 선릉로86길 40,서울특별시 강남구 선릉로86길 40,37.503861,127.0529271
341,CU,대치예영점,강남구,대치동,서울특별시 강남구 삼성로63길 5,서울특별시 강남구 삼성로63길 5,37.499872,127.059668
342,CU,대치은마동문점,강남구,대치동,서울특별시 강남구 영동대로 219 정궁빌딩 (대치동) 정궁빌딩,서울특별시 강남구 영동대로 219 정궁빌딩 (대치동) 정궁빌딩,37.4983564,127.0682936
343,CU,대치은마센트럴점,강남구,대치동,서울특별시 강남구 삼성로 212 1층 124,서울특별시 강남구 삼성로 212 1층 124,37.4974176,127.0653272
344,CU,대치은마점,강남구,대치동,서울특별시 강남구 삼성로 237,서울특별시 강남구 삼성로 237,37.4983679,127.060863
345,CU,대치점,강남구,대치동,서울특별시 강남구 테헤란로98길 15,서울특별시 강남구 테헤란로98길 15,37.507379,127.0627588
346,CU,대치타운점,강남구,대치동,서울특별시 강남구 삼성로67길 49,서울특별시 강남구 삼성로67길 49,37.4999305,127.0556143
347,CU,대치타운중앙점,강남구,대치동,서울특별시 강남구 역삼로69길 28,서울특별시 강남구 역삼로69길 28,37.5035057,127.0541319
348,CU,대치태양점,강남구,대치동,서울특별시 강남구 선릉로68길 9,서울특별시 강남구 선릉로68길 9,37.49914330000001,127.0524738
349,CU,대치한국점,강남구,대치동,서울특별시 강남구 선릉로86길 7,서울특별시 강남구 선릉로86길 7,37.503303,127.0503179
350,CU,대치현대점,강남구,대치동,서울특별시 강남구 삼성로 308 성원빌딩,서울특별시 강남구 삼성로 308 성원빌딩,37.4990445,127.0604634
351,CU,컬쳐랜드타워점,강남구,대치동,서울특별시 강남구 영동대로 326 컬쳐랜드타워 B1층,서울특별시 강남구 영동대로 326 컬쳐랜드타워 B1층,37.5037712,127.0664647
352,CU,강남세브란스점,강남구,도곡동,서울특별시 강남구 언주로 211,서울특별시 강남구 언주로 211,37.4925494,127.0465277
353,CU,도곡대원점,강남구,도곡동,서울특별시 강남구 논현로28길 30,서울특별시 강남구 논현로28길 30,37.4835644,127.0447584
354,CU,도곡럭키점,강남구,도곡동,서울특별시 강남구 도곡로18길 11 보나빌딩 (도곡동) 보나빌딩,서울특별시 강남구 도곡로18길 11 보나빌딩 (도곡동) 보나빌딩,37.4905443,127.0383738
355,CU,도곡아이파크점,강남구,도곡동,서울특별시 강남구 도곡로28길 8 도곡1차아이파크아파트,서울특별시 강남구 도곡로28길 8 도곡1차아이파크아파트,37.4921212,127.0432091
356,CU,도곡아크로타워점,강남구,도곡동,서울특별시 강남구 언주로30길 13 (도곡동) 대림아크로텔 지하1층 지하상가동 20,서울특별시 강남구 언주로30길 13 (도곡동) 대림아크로텔 지하1층 지하상가동 20,37.4881202,127.0510778
357,CU,도곡우성점,강남구,도곡동,서울특별시 강남구 언주로 118,서울특별시 강남구 언주로 118,37.4865165,127.0518831
358,CU,매봉산점,강남구,도곡동,서울특별시 강남구 남부순환로377길 6,서울특별시 강남구 남부순환로377길 6,37.4869682,127.0452155
359,CU,매봉역점,강남구,도곡동,서울특별시 강남구 논현로38길 46 (도곡동),서울특별시 강남구 논현로38길 46 (도곡동),37.487246,127.0421157
360,CU,양재디오빌점,강남구,도곡동,서울특별시 강남구 강남대로 256,서울특별시 강남구 강남대로 256,37.4864768,127.0335278
361,CU,양재점,강남구,도곡동,서울특별시 강남구 강남대로 238 스카이쏠라빌딩 (도곡동) 스카이쏠라빌딩,서울특별시 강남구 강남대로 238 스카이쏠라빌딩 (도곡동) 스카이쏠라빌딩,37.4849651,127.0347587
362,CU,타워팰리스점,강남구,도곡동,서울특별시 강남구 언주로30길 56,서울특별시 강남구 언주로30길 56,37.4882228,127.0544393
363,CU,BGF사옥점,강남구,삼성동,서울특별시 강남구 삼성동 141-10번지,서울특별시 강남구 삼성동 141-10번지,37.5058063,127.0502109
364,CU,강남로얄점,강남구,삼성동,서울특별시 강남구 봉은사로 443,서울특별시 강남구 봉은사로 443,37.5118175,127.0482248
365,CU,강남삼성점,강남구,삼성동,서울특별시 강남구 선릉로126길 14,서울특별시 강남구 선릉로126길 14,37.5152778,127.0432463
366,CU,삼성1호점,강남구,삼성동,서울특별시 강남구 테헤란로69길 9,서울특별시 강남구 테헤란로69길 9,37.5064971,127.052277
367,CU,삼성가멸점,강남구,삼성동,서울특별시 강남구 봉은사로73길 19 (삼성동),서울특별시 강남구 봉은사로73길 19 (삼성동),37.5136294,127.0503193
368,CU,삼성대웅점,강남구,삼성동,서울특별시 강남구 봉은사로 630,서울특별시 강남구 봉은사로 630,37.5147295,127.0643598
369,CU,삼성럭키점,강남구,삼성동,서울특별시 강남구 봉은사로59길 32,서울특별시 강남구 봉은사로59길 32,37.5130851,127.045244
370,CU,삼성로점,강남구,삼성동,서울특별시 강남구 삼성로103길 7,서울특별시 강남구 삼성로103길 7,37.5102204,127.0539712
371,CU,삼성리저브점,강남구,삼성동,서울특별시 강남구 삼성로 517,서울특별시 강남구 삼성로 517,37.5080135,127.0553957
372,CU,삼성마젤란점,강남구,삼성동,서울특별시 강남구 테헤란로87길 17 마젤란21아스테리움,서울특별시 강남구 테헤란로87길 17 마젤란21아스테리움,37.5087655,127.05838
373,CU,삼성백암점,강남구,삼성동,서울특별시 강남구 테헤란로113길 7 백암아트센터,서울특별시 강남구 테헤란로113길 7 백암아트센터,37.5105376,127.0659125
374,CU,삼성본점,강남구,삼성동,서울특별시 강남구 테헤란로81길 10 소석빌딩 (삼성동) 소석빌딩,서울특별시 강남구 테헤란로81길 10 소석빌딩 (삼성동) 소석빌딩,37.5079246,127.0572842
375,CU,삼성신코점,강남구,삼성동,서울특별시 강남구 봉은사로 627,서울특별시 강남구 봉은사로 627,37.5153295,127.0640535
376,CU,삼성아이파크점,강남구,삼성동,서울특별시 강남구 삼성로119길 14,서울특별시 강남구 삼성로119길 14,37.5160444,127.0503312
377,CU,삼성우주점,강남구,삼성동,서울특별시 강남구 영동대로118길 7,서울특별시 강남구 영동대로118길 7,37.5162264,127.0601627
378,CU,삼성위브점,강남구,삼성동,서울특별시 강남구 테헤란로83길 14,서울특별시 강남구 테헤란로83길 14,37.508477,127.0578869
379,CU,삼성한우리점,강남구,삼성동,서울특별시 강남구 삼성로104길 18,서울특별시 강남구 삼성로104길 18,37.5110075,127.0562549
380,CU,삼성햇살점,강남구,삼성동,서울특별시 강남구 봉은사로68길 45,서울특별시 강남구 봉은사로68길 45,37.5094876,127.0521053
381,CU,삼성현대점,강남구,삼성동,서울특별시 강남구 학동로68길 7,서울특별시 강남구 학동로68길 7,37.5174448,127.0467984
382,CU,선릉역점,강남구,삼성동,서울특별시 강남구 테헤란로 403,서울특별시 강남구 테헤란로 403,37.5051138,127.049552
383,CU,선정릉역점,강남구,삼성동,서울특별시 강남구 봉은사로 409,서울특별시 강남구 봉은사로 409,37.5108813,127.0447634
384,CU,청담블루밍점,강남구,삼성동,서울특별시 강남구 삼성로120길 7 삼경빌라,서울특별시 강남구 삼성로120길 7 삼경빌라,37.5167407,127.0521616
385,CU,세곡리엔점,강남구,세곡동,서울특별시 강남구 헌릉로590길 11,서울특별시 강남구 헌릉로590길 11,37.4637798,127.10441
386,CU,세곡지웰점,강남구,세곡동,서울특별시 강남구 헌릉로569길 9 (세곡동) 강남지웰파인즈 1층 109호,서울특별시 강남구 헌릉로569길 9 (세곡동) 강남지웰파인즈 1층 109호,37.4669731,127.1005262
387,CU,세곡푸르지오점,강남구,세곡동,서울특별시 강남구 자곡로 21,서울특별시 강남구 자곡로 21,37.46677890000001,127.0929671
388,CU,강남신동아점,강남구,수서동,서울특별시 강남구 광평로47길 17 신동아아파트,서울특별시 강남구 광평로47길 17 신동아아파트,37.4870719,127.0983474
389,CU,수서까치마을점,강남구,수서동,서울특별시 강남구 광평로19길 10 까치마을아파트,서울특별시 강남구 광평로19길 10 까치마을아파트,37.48465789999999,127.0875723
390,CU,수서나산점,강남구,수서동,서울특별시 강남구 광평로56길 10,서울특별시 강남구 광평로56길 10,37.4870959,127.1038039
391,CU,수서럭키점,강남구,수서동,서울특별시 강남구 광평로51길 49 주공아파트 1층,서울특별시 강남구 광평로51길 49 주공아파트 1층,37.4911322,127.1001778
392,CU,수서한아름점,강남구,수서동,서울특별시 강남구 광평로51길 22,서울특별시 강남구 광평로51길 22,37.4894697,127.1035761
393,CU,강남소망점,강남구,신사동,서울특별시 강남구 언주로159길 10,서울특별시 강남구 언주로159길 10,37.5245138,127.032077
394,CU,신사가로수길점,강남구,신사동,서울특별시 강남구 도산대로 139,서울특별시 강남구 도산대로 139,37.5182349,127.023705
395,CU,신사강남점,강남구,신사동,서울특별시 강남구 논현로151길 7,서울특별시 강남구 논현로151길 7,37.5202828,127.0274605
396,CU,신사드림점,강남구,신사동,서울특별시 강남구 압구정로4길 10,서울특별시 강남구 압구정로4길 10,37.5219922,127.0199736
397,CU,신사성환점,강남구,신사동,서울특별시 강남구 강남대로152길 14 1층,서울특별시 강남구 강남대로152길 14 1층,37.5171576,127.0206762
398,CU,신사세화점,강남구,신사동,서울특별시 강남구 언주로168길 15,서울특별시 강남구 언주로168길 15,37.5264494,127.0348867
399,CU,신사신구점,강남구,신사동,서울특별시 강남구 압구정로36길 12,서울특별시 강남구 압구정로36길 12,37.5276627,127.0313419
400,CU,신사에비뉴점,강남구,신사동,서울특별시 강남구 압구정로14길 6 (신사동),서울특별시 강남구 압구정로14길 6 (신사동),37.5238624,127.0229512
401,CU,신사월드점,강남구,신사동,서울특별시 강남구 압구정로 162,서울특별시 강남구 압구정로 162,37.5262974,127.0274473
402,CU,신사중앙점,강남구,신사동,서울특별시 강남구 논현로152길 38,서울특별시 강남구 논현로152길 38,37.5215466,127.0312417
403,CU,신사프리미어점,강남구,신사동,서울특별시 강남구 논현로157길 41,서울특별시 강남구 논현로157길 41,37.5214653,127.0248455
404,CU,신사한남점,강남구,신사동,서울특별시 강남구 압구정로 110,서울특별시 강남구 압구정로 110,37.5229663,127.0209482
405,CU,신사현대점,강남구,신사동,서울특별시 강남구 논현로176길 20,서울특별시 강남구 논현로176길 20,37.5272323,127.0301438
406,CU,압구정CGV점,강남구,신사동,서울특별시 강남구 압구정로30길 45,서울특별시 강남구 압구정로30길 45,37.5243422,127.0294113
407,CU,압구정거리점,강남구,신사동,서울특별시 강남구 도산대로49길 36,서울특별시 강남구 도산대로49길 36,37.5253065,127.0371817
408,CU,압구정로데오점,강남구,신사동,서울특별시 강남구 언주로172길 59,서울특별시 강남구 언주로172길 59,37.5269839,127.0386577
409,CU,압구정신사점,강남구,신사동,서울특별시 강남구 논현로158길 7,서울특별시 강남구 논현로158길 7,37.5221995,127.0290654
410,CU,압구정역점,강남구,신사동,서울특별시 강남구 압구정로30길 12,서울특별시 강남구 압구정로30길 12,37.5266823,127.0290724
411,CU,압구정미성점,강남구,압구정동,서울특별시 강남구 압구정로 113,서울특별시 강남구 압구정로 113,37.5239465,127.0182545
412,CU,한강잠원1호점,강남구,압구정동,서울특별시 강남구 압구정동 386번지,서울특별시 강남구 압구정동 386번지,37.5272927,127.0188676
413,CU,강남스타일점,강남구,역삼동,서울특별시 강남구 역삼로 109 (역삼동) 1층 101,서울특별시 강남구 역삼로 109 (역삼동) 1층 101,37.49366029999999,127.0310159
414,CU,역삼우리점,강남구,역삼동,서울특별시 강남구 역삼로19길 14 노블스위트,서울특별시 강남구 역삼로19길 14 노블스위트,37.4960919,127.0373445
415,CU,역삼세명점,강남구,역삼동,서울특별시 강남구 역삼로 230,서울특별시 강남구 역삼로 230,37.4968936,127.0419635
416,CU,한티래미안점,강남구,역삼동,서울특별시 강남구 선릉로63길 13 (역삼동),서울특별시 강남구 선릉로63길 13 (역삼동),37.4970269,127.051139
417,CU,강남스타일점,강남구,역삼동,서울특별시 강남구 역삼로 109 (역삼동) 1층 101,서울특별시 강남구 역삼로 109 (역삼동) 1층 101,37.49366029999999,127.0310159
418,CU,강남시티점,강남구,역삼동,서울특별시 강남구 선릉로93길 50,서울특별시 강남구 선릉로93길 50,37.5043176,127.044641
419,CU,강남푸르지오점,강남구,역삼동,서울특별시 강남구 테헤란로4길 6,서울특별시 강남구 테헤란로4길 6,37.4977256,127.0292972
420,CU,선릉SK허브점,강남구,역삼동,서울특별시 강남구 선릉로 431,서울특별시 강남구 선릉로 431,37.5035485,127.0490615
421,CU,선릉디오빌점,강남구,역삼동,서울특별시 강남구 선릉로89길 16,서울특별시 강남구 선릉로89길 16,37.503433,127.0478147
422,CU,선릉제일점,강남구,역삼동,서울특별시 강남구 선릉로93길 8,서울특별시 강남구 선릉로93길 8,37.5055906,127.0476985
423,CU,역삼가화점,강남구,역삼동,서울특별시 강남구 역삼로34길 19,서울특별시 강남구 역삼로34길 19,37.4960125,127.0426953
424,CU,역삼강남점,강남구,역삼동,서울특별시 강남구 강남대로94길 23,서울특별시 강남구 강남대로94길 23,37.4997686,127.0291746
425,CU,역삼건화점,강남구,역삼동,서울특별시 강남구 논현로64길 18,서울특별시 강남구 논현로64길 18,37.493472,127.0419025
426,CU,역삼경남점,강남구,역삼동,서울특별시 강남구 언주로85길 13,서울특별시 강남구 언주로85길 13,37.5005712,127.0423112
427,CU,역삼경복점,강남구,역삼동,서울특별시 강남구 봉은사로44길 5,서울특별시 강남구 봉은사로44길 5,37.5087115,127.0404212
428,CU,역삼드림점,강남구,역삼동,서울특별시 강남구 테헤란로44길 7,서울특별시 강남구 테헤란로44길 7,37.5024185,127.0448884
429,CU,역삼디오빌점,강남구,역삼동,서울특별시 강남구 강남대로84길 33,서울특별시 강남구 강남대로84길 33,37.4975826,127.0311106
430,CU,역삼로즈점,강남구,역삼동,서울특별시 강남구 언주로 311,서울특별시 강남구 언주로 311,37.4952625,127.045625
431,CU,역삼목화점,강남구,역삼동,서울특별시 강남구 선릉로107길 17 미지허브 (역삼동) 미지허브,서울특별시 강남구 선릉로107길 17 미지허브 (역삼동) 미지허브,37.5089476,127.0427722
432,CU,역삼미래점,강남구,역삼동,서울특별시 강남구 테헤란로33길 32 SO근생주택빌딩,서울특별시 강남구 테헤란로33길 32 SO근생주택빌딩,37.5038452,127.038846
433,CU,역삼벚꽃길점,강남구,역삼동,서울특별시 강남구 도곡로7길 8(역삼동),서울특별시 강남구 도곡로7길 8(역삼동),37.4913319,127.0350973
434,CU,역삼본점,강남구,역삼동,서울특별시 강남구 강남대로110길 11,서울특별시 강남구 강남대로110길 11,37.5040843,127.0257203
435,CU,역삼사랑점,강남구,역삼동,서울특별시 강남구 언주로104길 6,서울특별시 강남구 언주로104길 6,37.5070296,127.0408256
436,CU,역삼삼부자점,강남구,역삼동,서울특별시 강남구 테헤란로51길 43,서울특별시 강남구 테헤란로51길 43,37.5057249,127.044148
437,CU,역삼세명점,강남구,역삼동,서울특별시 강남구 역삼로 230,서울특별시 강남구 역삼로 230,37.4968936,127.0419635
438,CU,역삼센타점,강남구,역삼동,서울특별시 강남구 역삼로9길 28,서울특별시 강남구 역삼로9길 28,37.4959595,127.033826
439,CU,역삼시티점,강남구,역삼동,서울특별시 강남구 테헤란로7길 7,서울특별시 강남구 테헤란로7길 7,37.4996222,127.0305148
440,CU,역삼신웅점,강남구,역삼동,서울특별시 강남구 테헤란로 216,서울특별시 강남구 테헤란로 216,37.50143,127.0401283
441,CU,역삼에클라트점,강남구,역삼동,서울특별시 강남구 테헤란로20길 19,서울특별시 강남구 테헤란로20길 19,37.498543,127.0350412
442,CU,역삼역촌점,강남구,역삼동,서울특별시 강남구 봉은사로26길 14,서울특별시 강남구 봉은사로26길 14,37.5059616,127.0331404
443,CU,역삼우인점,강남구,역삼동,서울특별시 강남구 강남대로84길 8,서울특별시 강남구 강남대로84길 8,37.4964685,127.0293367
444,CU,역삼유토빌점,강남구,역삼동,서울특별시 강남구 논현로87길 41,서울특별시 강남구 논현로87길 41,37.4988383,127.0334788
445,CU,역삼점,강남구,역삼동,서울특별시 강남구 테헤란로51길 10,서울특별시 강남구 테헤란로51길 10,37.5047612,127.0469874
446,CU,역삼제이점,강남구,역삼동,서울특별시 강남구 역삼로 152 올네이션빌딩 (역삼동) 올네이션빌딩,서울특별시 강남구 역삼로 152 올네이션빌딩 (역삼동) 올네이션빌딩,37.500326,127.036087
447,CU,역삼카이로스점,강남구,역삼동,서울특별시 강남구 강남대로66길 8,서울특별시 강남구 강남대로66길 8,37.4917118,127.0316007
448,CU,역삼타운점,강남구,역삼동,서울특별시 강남구 언주로75길 16,서울특별시 강남구 언주로75길 16,37.4987262,127.0430497
449,CU,역삼포스틸점,강남구,역삼동,서울특별시 강남구 테헤란로20길 10,서울특별시 강남구 테헤란로20길 10,37.49908509999999,127.0341478
450,CU,역삼푸르지오점,강남구,역삼동,서울특별시 강남구 언주로70길 10,서울특별시 강남구 언주로70길 10,37.4969456,127.0463746
451,CU,역삼푸른점,강남구,역삼동,서울특별시 강남구 도곡로1길 7,서울특별시 강남구 도곡로1길 7,37.4904546,127.032296
452,CU,역삼하나점,강남구,역삼동,서울특별시 강남구 테헤란로25길 59,서울특별시 강남구 테헤란로25길 59,37.5042741,127.0341751
453,CU,역삼한서점,강남구,역삼동,서울특별시 강남구 논현로80길 9,서울특별시 강남구 논현로80길 9,37.4982189,127.0390866
454,CU,역삼형지점,강남구,역삼동,서울특별시 강남구 논현로 327,서울특별시 강남구 논현로 327,37.4944508,127.0396341
455,CU,역삼황제펭귄점,강남구,역삼동,서울특별시 강남구 논현로106길 31,서울특별시 강남구 논현로106길 31,37.5067902,127.0369388
456,CU,한티래미안점,강남구,역삼동,서울특별시 강남구 선릉로63길 13 (역삼동),서울특별시 강남구 선릉로63길 13 (역삼동),37.4970269,127.051139
457,CU,율현중앙점,강남구,율현동,서울특별시 강남구 밤고개로 252,서울특별시 강남구 밤고개로 252,37.4717963,127.1068936
458,CU,한양수자인점,강남구,율현동,서울특별시 강남구 자곡로 260 (자곡동) ,서울특별시 강남구 자곡로 260 (자곡동) ,37.4758377,127.1126859
459,CU,강남일원점,강남구,일원동,서울특별시 강남구 일원로3길 89,서울특별시 강남구 일원로3길 89,37.4934743,127.086496
460,CU,강남행복점,강남구,일원동,서울특별시 강남구 양재대로55길 6 수서1단지아파트상가 1층,서울특별시 강남구 양재대로55길 6 수서1단지아파트상가 1층,37.4913369,127.0884053
461,CU,개포루체하임점,강남구,일원동,서울특별시 강남구 일원동 690-2번지,서울특별시 강남구 일원동 690-2번지,37.48997,127.0774559
462,CU,미가마트점,강남구,일원동,서울특별시 강남구 일원로 81 (일원동) 삼성서울병원)본관 지하1층,서울특별시 강남구 일원로 81 (일원동) 삼성서울병원)본관 지하1층,37.4881193,127.0849885
463,CU,삼성암센터점,강남구,일원동,서울특별시 강남구 일원로 81,서울특별시 강남구 일원로 81,37.4886619,127.0859826
464,CU,일원가람점,강남구,일원동,서울특별시 강남구 일원로 127,서울특별시 강남구 일원로 127,37.4824343,127.0853806
465,CU,일원다솜점,강남구,일원동,서울특별시 강남구 양재대로43길 6,서울특별시 강남구 양재대로43길 6,37.4906163,127.0853903
466,CU,일원마루공원점,강남구,일원동,서울특별시 강남구 개포로 656 영빌딩,서울특별시 강남구 개포로 656 영빌딩,37.4950228,127.084491
467,CU,일원우성점,강남구,일원동,서울특별시 강남구 개포로110길 15 우성7차아파트,서울특별시 강남구 개포로110길 15 우성7차아파트,37.4922926,127.0783273
468,CU,일원한솔점,강남구,일원동,서울특별시 강남구 광평로10길 6,서울특별시 강남구 광평로10길 6,37.4818897,127.0775108
469,CU,강남남명학사점,강남구,자곡동,서울특별시 강남구 자곡로 114 (자곡동) 서강플라자 1층 101,서울특별시 강남구 자곡로 114 (자곡동) 서강플라자 1층 101,37.47202230000001,127.0960065
470,CU,강남자곡점,강남구,자곡동,서울특별시 강남구 자곡로 175,서울특별시 강남구 자곡로 175,37.4746612,127.1014323
471,CU,수서행복점,강남구,자곡동,서울특별시 강남구 밤고개로 165 수서역세권 A1BL 1층 S001동 1호,서울특별시 강남구 밤고개로 165 수서역세권 A1BL 1층 S001동 1호,37.4782653,127.1049674
472,CU,자곡현대점,강남구,자곡동,서울특별시 강남구 자곡로 202,서울특별시 강남구 자곡로 202,37.4747354,127.1048177
473,CU,자곡힐스테이트점,강남구,자곡동,서울특별시 강남구 자곡로3길 21,서울특별시 강남구 자곡로3길 21,37.4712792,127.0886878
474,CU,한양수자인점,강남구,자곡동,서울특별시 강남구 자곡로 260 (자곡동) ,서울특별시 강남구 자곡로 260 (자곡동) ,37.4758377,127.1126859
475,CU,강남청담점,강남구,청담동,서울특별시 강남구 학동로101길 21,서울특별시 강남구 학동로101길 21,37.5218028,127.0571224
476,CU,청담강변점,강남구,청담동,서울특별시 강남구 압구정로79길 25,서울특별시 강남구 압구정로79길 25,37.5253366,127.0491546
477,CU,청담경원점,강남구,청담동,서울특별시 강남구 도산대로 446,서울특별시 강남구 도산대로 446,37.5235822,127.0451275
478,CU,청담노아점,강남구,청담동,서울특별시 강남구 압구정로80길 26,서울특별시 강남구 압구정로80길 26,37.5248042,127.0446044
479,CU,청담보람점,강남구,청담동,서울특별시 강남구 선릉로 844,서울특별시 강남구 선릉로 844,37.5272532,127.0407452
480,CU,청담삼환점,강남구,청담동,서울특별시 강남구 학동로77길 49,서울특별시 강남구 학동로77길 49,37.5215822,127.0475812
481,CU,청담엘점,강남구,청담동,서울특별시 강남구 도산대로85길 45,서울특별시 강남구 도산대로85길 45,37.52760019999999,127.0497452
482,CU,청담영동점,강남구,청담동,서울특별시 강남구 도산대로101길 3,서울특별시 강남구 도산대로101길 3,37.5252913,127.0525534
483,CU,청담오션점,강남구,청담동,서울특별시 강남구 학동로63길 8,서울특별시 강남구 학동로63길 8,37.5185516,127.0450114
484,CU,청담자이점,강남구,청담동,서울특별시 강남구 영동대로142길 8,서울특별시 강남구 영동대로142길 8,37.5247197,127.0556505
485,CU,청담진흥점,강남구,청담동,서울특별시 강남구 삼성로134길 8,서울특별시 강남구 삼성로134길 8,37.5200697,127.0503141
486,CU,청담청아점,강남구,청담동,서울특별시 강남구 학동로 431,서울특별시 강남구 학동로 431,37.5188198,127.04814
487,CU,청담카운티점,강남구,청담동,서울특별시 강남구 도산대로90길 17 소양빌딩 (청담동) 소양빌딩,서울특별시 강남구 도산대로90길 17 소양빌딩 (청담동) 소양빌딩,37.52331909999999,127.0490472
488,CU,청담현대점,강남구,청담동,서울특별시 강남구 도산대로101길 29 청담현대3차아파트,서울특별시 강남구 도산대로101길 29 청담현대3차아파트,37.5269087,127.0535056
489,이마트24,논현개나리점,강남구,논현동,서울특별시 강남구 논현동 131-23,서울특별시 강남구 학동로26길 25 ,37.5117835,127.0301775
490,이마트24,선릉청운점,강남구,삼성동,서울특별시 강남구 삼성동 112 태정빌딩,서울특별시 강남구 선릉로 578(삼성동) 태정빌딩,37.5100487,127.0441423
491,이마트24,청담하나점,강남구,청담동,서울특별시 강남구 청담동 11-10,서울특별시 강남구 도산대로78길 31(청담동) ,37.5222224,127.0463642
492,이마트24,대치휘문점,강남구,대치동,서울특별시 강남구 대치동 953-15 청우빌딩,서울특별시 강남구 역삼로 531(대치동) 청우빌딩,37.5040778,127.0610134
493,이마트24,역삼승리점,강남구,역삼동,서울특별시 강남구 역삼동 636-22,서울특별시 강남구 강남대로94길 55 ,37.5005371,127.0316616
494,이마트24,강남역점,강남구,역삼동,서울특별시 강남구 역삼동 858 강남역,서울특별시 강남구 강남대로 지하 396 F-2호,37.5061648,127.0257813
495,이마트24,포이사거리점,강남구,개포동,서울특별시 강남구 개포동 1238 석인빌딩,서울특별시 강남구 개포로 202(개포동) ,37.4781644,127.0449892
496,이마트24,논현청학점,강남구,논현동,서울특별시 강남구 논현동 62-3 청학아파트,"서울특별시 강남구 도산대로 232(논현동, 청학아파트) ",37.5205692,127.0328266
497,이마트24,청담본점,강남구,청담동,서울특별시 강남구 청담동 91-15,서울특별시 강남구 도산대로 57길 22 지하 1층,37.5250891,127.0417094
498,이마트24,삼성119점,강남구,삼성동,서울특별시 강남구 삼성동 119,서울특별시 강남구 봉은사로 478 1층 109호,37.5125638,127.0528037
499,이마트24,포스코센터점,강남구,대치동,서울특별시 강남구 대치동 892 포스코센터,서울특별시 강남구 테헤란로 440 ,37.50579,127.0561533
500,이마트24,역삼은성점,강남구,역삼동,서울특별시 강남구 역삼동 781,서울특별시 강남구 논현로68길 12 1층,37.4946047,127.0409676
501,이마트24,역삼초교점,강남구,역삼동,서울특별시 강남구 역삼동 834-27 성욱빌딩,서울특별시 강남구 역삼로8길 21 ,37.4927889,127.0342863
502,이마트24,개포래미안점,강남구,개포동,서울특별시 강남구 개포동 140,서울특별시 강남구 선릉로 8 201동 왼쪽코너,37.4863523,127.0518779
503,이마트24,연세장례식장강남점,강남구,도곡동,서울특별시 강남구 도곡동 146-92 강남세브란스병원,서울특별시 강남구 언주로 211 연세대학교 장례식장 지하2층,37.4925494,127.0465277
504,이마트24,삼성에이스점,강남구,삼성동,서울특별시 강남구 삼성동 87 아이파크삼성,서울특별시 강남구 영동대로 640 ,37.5182869,127.05934
505,이마트24,청담아이어스점,강남구,청담동,서울특별시 강남구 청담동 85-7,서울특별시 강남구 선릉로152길 7 ,37.5242594,127.0401648
506,이마트24,역삼서희점,강남구,역삼동,서울특별시 강남구 역삼동 837-18 서희스타힐스오피스텔,서울특별시 강남구 도곡로3길 19 1층 109호,37.4913729,127.0325246
507,이마트24,강남개포점,강남구,개포동,서울특별시 강남구 개포동 649 경남아파트,서울특별시 강남구 언주로 110 1층 101-나호,37.4845146,127.054174
508,이마트24,삼성래미안점,강남구,삼성동,서울특별시 강남구 삼성동 92-7 조안빌딩,서울특별시 강남구 봉은사로109길 35 ,37.5170515,127.0628238
509,이마트24,역삼신한점,강남구,역삼동,서울특별시 강남구 역삼동 790-5,서울특별시 강남구 역삼로 176 ,37.4953326,127.0384877
510,이마트24,대치삼성점,강남구,대치동,서울특별시 강남구 대치동 1015,서울특별시 강남구 삼성로57길 35 ,37.4972945,127.0582453
511,이마트24,대치SK점,강남구,대치동,서울특별시 강남구 대치동 611 강남대학교 카이로스빌딩,서울특별시 강남구 삼성로51길 11 강남대학교 카이로스빌딩,37.4961919,127.0606459
512,이마트24,영동대로점,강남구,청담동,서울특별시 강남구 청담동 131-10 청담빌딩,서울특별시 강남구 영동대로 732 ,37.5233698,127.0558719
513,이마트24,R대치역점,강남구,대치동,서울특별시 강남구 대치동 599 재경빌딩,서울특별시 강남구 남부순환로 2947 대원빌딩 1층,37.4945248,127.062584
514,이마트24,R선릉아크로텔점,강남구,삼성동,서울특별시 강남구 삼성동 140-3 선릉대림아크로텔,서울특별시 강남구 선릉로 524 ,37.5067648,127.0480846
515,이마트24,강남압구정점,강남구,신사동,서울특별시 강남구 신사동 639-7,서울특별시 강남구 언주로174길 29 ,37.5281398,127.0364245
516,이마트24,R강남역삼점,강남구,역삼동,서울특별시 강남구 역삼동 815-4 만이빌딩,서울특별시 강남구 강남대로 428 ,37.5007737,127.0267129
517,이마트24,대웅제약점,강남구,삼성동,서울특별시 강남구 삼성동 163-3 대웅제약빌딩,서울특별시 강남구 봉은사로114길 12 ,37.5144857,127.0654791
518,이마트24,self위워크디자이너클럽점,강남구,청담동,서울특별시 강남구 청담동 85-4 디자이너 크럽,서울특별시 강남구 선릉로 818 ,37.5246839,127.0400876
519,이마트24,self위워크선릉3호점,강남구,대치동,서울특별시 강남구 대치동 889-41,서울특별시 강남구 선릉로 428 ,37.5034457,127.0498534
520,이마트24,self위워크삼성1호점,강남구,삼성동,서울특별시 강남구 삼성동 157-37 WeWork빌딩,서울특별시 강남구 테헤란로 507 ,37.5078089,127.0576374
521,이마트24,self위워크삼성2호점,강남구,대치동,서울특별시 강남구 대치동 944-31 한국섬유산업연합회,서울특별시 강남구 테헤란로 518 ,37.5074573,127.0606353
522,이마트24,self위워크선릉1호점,강남구,역삼동,서울특별시 강남구 역삼동 706 위워크타워,서울특별시 강남구 테헤란로 302 ,37.5023881,127.0434483
523,이마트24,self위워크선릉2호점,강남구,삼성동,서울특별시 강남구 삼성동 143-40 위워크타워,서울특별시 강남구 테헤란로 427 ,37.506363,127.0536495
524,이마트24,self위워크역삼2점,강남구,역삼동,서울특별시 강남구 역삼동 736-58,서울특별시 강남구 테헤란로26길 14 ,37.4992508,127.035933
525,이마트24,self위워크강남2점,강남구,역삼동,서울특별시 강남구 역삼동 819-5 KG Tower,서울특별시 강남구 테헤란로5길 7 ,37.4992638,127.0292461
526,이마트24,R논현점,강남구,논현동,서울특별시 강남구 논현동 98-2,서울특별시 강남구 언주로 728 지하1층,37.5198559,127.0348859
527,이마트24,E/D)대치은마점,강남구,대치동,서울특별시 강남구 대치동 316 은마아파트,서울특별시 강남구 삼성로 212 편의동 이마트에브리데이 대치은마점,37.4958849,127.0644191
528,이마트24,E/D)개포래미안포레스트점,강남구,개포동,서울특별시 강남구 개포동 1283 개포자이르네,서울특별시 강남구 언주로7길 6 개포자이르네 상가 지하1층,37.4784719,127.0553589
529,이마트24,E/O지마켓동탄(가),강남구,역삼동,서울특별시 강남구 역삼동 737 강남파이낸스센터,서울특별시 강남구 테헤란로 152 19층,37.4998097,127.0366289
530,이마트24,E/D)개포자이점,강남구,개포동,서울특별시 강남구 개포동 189,서울특별시 강남구 삼성로 14 개포자이스퀘어 지하 1층,37.4933303,127.0769501
531,이마트24,논현101점,강남구,논현동,서울특별시 강남구 논현동 101,서울특별시 강남구 선릉로145길 7 ,37.5213236,127.0389295
532,이마트24,강남리테일점,강남구,삼성동,서울특별시 강남구 삼성동 118-3 호경타워,서울특별시 강남구 봉은사로74길 15 ,37.5115428,127.0520441
533,이마트24,R역삼윤이점,강남구,역삼동,서울특별시 강남구 역삼동 798,서울특별시 강남구 논현로63길 7 ,37.4931523,127.0397005
534,이마트24,강남구청역점,강남구,논현동,서울특별시 강남구 논현동 111-22,서울특별시 강남구 선릉로 717 ,37.5186883,127.0404969
535,이마트24,self오피스디포역삼점,강남구,역삼동,서울특별시 강남구 역삼동 707-5 메트라이프타워,서울특별시 강남구 테헤란로 316 ,37.5031609,127.0456389
536,이마트24,스타필드코엑스몰1호점,강남구,삼성동,서울특별시 강남구 삼성동 159 코엑스,서울특별시 강남구 영동대로 513(삼성동) B1 P101호,37.5125207,127.0588194
537,이마트24,스타필드코엑스몰2호점,강남구,삼성동,서울특별시 강남구 삼성동 159 코엑스,서울특별시 강남구 영동대로 513(삼성동) B1F A105호,37.5125207,127.0588194
538,이마트24,스타필드코엑스몰4호점,강남구,삼성동,서울특별시 강남구 삼성동 159 코엑스,서울특별시 강남구 영동대로 513(삼성동) B1 C109호,37.5125207,127.0588194
539,이마트24,역삼중앙점,강남구,역삼동,서울특별시 강남구 역삼동 823-16,서울특별시 강남구 논현로85길 70 ,37.4977744,127.0324673
540,이마트24,역삼리테일점,강남구,역삼동,서울특별시 강남구 역삼동 656-34,서울특별시 강남구 언주로103길 10 ,37.5067659,127.0392622
541,이마트24,R개포국악점,강남구,개포동,서울특별시 강남구 개포동 1189-11,서울특별시 강남구 논현로6길 11 ,37.4734132,127.0504519
542,이마트24,self신세계프라퍼티점,강남구,역삼동,서울특별시 강남구 역삼동 676 센터필드,서울특별시 강남구 테헤란로 231 ,37.5032113,127.0414917
543,이마트24,도산대로점,강남구,신사동,서울특별시 강남구 신사동 630-23,서울특별시 강남구 도산대로 309 1층,37.52237969999999,127.0351738
544,이마트24,스마트코엑스점,강남구,삼성동,서울특별시 강남구 삼성동 159 코엑스,서울특별시 강남구 영동대로 513 H115호,37.5125207,127.0588194
545,이마트24,R센터필드점,강남구,역삼동,서울특별시 강남구 역삼동 676 센터필드,서울특별시 강남구 테헤란로 231 B1층,37.5032113,127.0414917
546,이마트24,R강남세무서점,강남구,청담동,서울특별시 강남구 청담동 34-7,서울특별시 강남구 학동로67길 14 ,37.5192426,127.0468262
547,이마트24,R논현TJ점,강남구,논현동,서울특별시 강남구 논현동 153,서울특별시 강남구 논현로121길 27 ,37.5101852,127.0303654
548,이마트24,R논현스타점,강남구,논현동,서울특별시 강남구 논현동 167,서울특별시 강남구 봉은사로1길 42 ,37.5074757,127.0241756
549,이마트24,R수서사이룩스점,강남구,수서동,서울특별시 강남구 수서동 716 사이룩스오피스텔,서울특별시 강남구 광평로 295 서관 103호,37.488456,127.10419
550,이마트24,R자곡시티점,강남구,자곡동,서울특별시 강남구 자곡동 655 강남푸르지오시티 2차,서울특별시 강남구 자곡로 192 ,37.4743933,127.1040668
551,이마트24,청담좋은날점,강남구,삼성동,서울특별시 강남구 삼성동 78-4 청구아파트,서울특별시 강남구 영동대로128길 5 청구상가 101-102호,37.5197767,127.0583634
552,이마트24,SMARTSSG점,강남구,역삼동,서울특별시 강남구 역삼동 676 센터필드,서울특별시 강남구 테헤란로 231 센터필드 east동 21층,37.5030426,127.041588
553,이마트24,SMART삼성S&J빌딩점,강남구,삼성동,서울특별시 강남구 삼성동 160-22 S&J 빌딩,서울특별시 강남구 영동대로106길 9 ,37.5135312,127.0618471
554,이마트24,R신사케이타워점,강남구,신사동,서울특별시 강남구 신사동 514-2,서울특별시 강남구 도산대로 119 ,37.5173048,127.0214745
555,이마트24,R청담라클래시점,강남구,삼성동,서울특별시 강남구 삼성동 189 래미안 라클래시,서울특별시 강남구 삼성로 651 ,37.5021244,127.05969
556,이마트24,R삼성에이타워점,강남구,삼성동,서울특별시 강남구 삼성동 144-5 에이타워2,서울특별시 강남구 테헤란로79길 11-1 ,37.5085789,127.0546392
557,이마트24,청담리테일점,강남구,청담동,서울특별시 강남구 청담동 71-20,서울특별시 강남구 영동대로137길 3 1층 102호,37.5217739,127.0552543
558,이마트24,뉴강남도곡점,강남구,도곡동,서울특별시 강남구 도곡동 412,서울특별시 강남구 논현로38길 8 ,37.4850952,127.0423669
559,이마트24,개포상록스타힐스점,강남구,일원동,서울특별시 강남구 일원동 688 상록 스타힐스,서울특별시 강남구 영동대로 16 상록스타힐스아파트 912동 102호,37.4882004,127.0758235
560,이마트24,R뉴청담본점,강남구,청담동,서울특별시 강남구 청담동 16-19,서울특별시 강남구 도산대로66길 43 101호,37.520683,127.0438927
561,이마트24,역삼센터점,강남구,역삼동,서울특별시 강남구 역삼동 722-2,서울특별시 강남구 테헤란로38길 40 ,37.5000256,127.0427906
562,이마트24,청담에이스점,강남구,청담동,서울특별시 강남구 청담동 53 542빌딩,서울특별시 강남구 도산대로 542 101호,37.5245818,127.0530151
563,이마트24,대치은마점,강남구,대치동,서울특별시 강남구 대치동 991-10,서울특별시 강남구 삼성로58길 39 1층 102~103호,37.4994486,127.0642747
564,이마트24,R역삼소나무점,강남구,역삼동,서울특별시 강남구 역삼동 836-37 알앤씨빌딩,서울특별시 강남구 강남대로62길 33 ,37.49106320000001,127.034196
565,이마트24,R역삼윤이점,강남구,역삼동,서울특별시 강남구 역삼동 798,서울특별시 강남구 논현로63길 7 ,37.4931523,127.0397005
566,이마트24,채널GP하나금융점,강남구,역삼동,서울특별시 강남구 역삼동 648-19 하나금융그룹 강남사옥,서울특별시 강남구 테헤란로 127 하나금융그룹 강남사옥 13층 라운지,37.4996243,127.032012
567,이마트24,강남BSD센터CFF점,강남구,논현동,서울특별시 강남구 논현동 192-4,서울특별시 강남구 논현로 611 ,37.5082467,127.0331112
568,이마트24,강남BSD센터점,강남구,논현동,서울특별시 강남구 논현동 192-4,서울특별시 강남구 논현로 611 ,37.5082467,127.0331112
569,이마트24,채널GP지마켓점,강남구,역삼동,서울특별시 강남구 역삼동 737 강남파이낸스센터,"서울특별시 강남구 테헤란로 152 강남파이낸스센터 34F, 지마켓글로벌 라운지",37.4999707,127.0364812
570,이마트24,채널조선호텔강남점,강남구,역삼동,서울특별시 강남구 역삼동 676 센터필드,서울특별시 강남구 테헤란로 231 ,37.5032113,127.0414917
571,이마트24,하이트진로직납센터,강남구,청담동,서울특별시 강남구 청담동 132-12 하이트진로빌딩,서울특별시 강남구 영동대로 714 ,37.5217235,127.0567904
572,세븐일레븐,강남대청점,강남구,개포동,서울특별시 강남구 개포동 12,서울특별시 강남구 개포로109길 9,37.4941844,127.0752156
573,세븐일레븐,강남도곡로점,강남구,도곡동,서울특별시 강남구 도곡동 545-19,서울특별시 강남구 논현로57길 24,37.4912893,127.0391253
574,세븐일레븐,강남도곡점,강남구,도곡동,서울특별시 강남구 도곡동 920-4,서울특별시 강남구 남부순환로361길 6,37.4857017,127.037528
575,세븐일레븐,강남롯데점,강남구,대치동,서울특별시 강남구 대치동 923-22,서울특별시 강남구 선릉로64길 15,37.4981389,127.0534401
576,세븐일레븐,강남목련타운점,강남구,일원동,서울특별시 강남구 일원동 716,서울특별시 강남구 광평로19길 15,37.4848508,127.085277
577,세븐일레븐,강남선릉점,강남구,역삼동,서울특별시 강남구 역삼동 704-29,서울특별시 강남구 언주로98길 37,37.5047397,127.0448197
578,세븐일레븐,강남스퀘어점,강남구,역삼동,서울특별시 강남구 역삼동 819-10,서울특별시 강남구 테헤란로1길 10,37.4989555,127.0282257
579,세븐일레븐,강남언주로점,강남구,역삼동,서울특별시 강남구 역삼동 693-5,서울특별시 강남구 테헤란로53길 62,37.5074215,127.0438224
580,세븐일레븐,강남인텔렉스점,강남구,논현동,서울특별시 강남구 논현동 261,서울특별시 강남구 언주로 620,37.5115897,127.0362884
581,세븐일레븐,강남자곡점,강남구,자곡동,서울특별시 강남구 자곡동 670,서울특별시 강남구 밤고개로 223,37.4737808,127.1065697
582,세븐일레븐,강남청담점,강남구,삼성동,서울특별시 강남구 삼성동 64,서울특별시 강남구 학동로82길 21,37.5176185,127.0519612
583,세븐일레븐,강남파이낸스점,강남구,역삼동,서울특별시 강남구 역삼동 737,서울특별시 강남구 테헤란로 152,37.4998097,127.0366289
584,세븐일레븐,강남포레스트점,강남구,수서동,서울특별시 강남구 수서동 791,서울특별시 강남구 광평로34길 30,37.482202,127.0941635
585,세븐일레븐,강남푸르지오시티점,강남구,역삼동,서울특별시 강남구 역삼동 825-20,서울특별시 강남구 테헤란로4길 6,37.4977256,127.0292972
586,세븐일레븐,강남학동점,강남구,논현동,서울특별시 강남구 논현동 93-15,서울특별시 강남구 언주로150길 51,37.5221798,127.03835
587,세븐일레븐,강남힐즈점,강남구,자곡동,서울특별시 강남구 자곡동 440-19,서울특별시 강남구 자곡로7길 32-2,37.4732782,127.0972621
588,세븐일레븐,강남IBC점,강남구,역삼동,서울특별시 강남구 역삼동 648-1,서울특별시 강남구 테헤란로7길 8,37.4997517,127.031107
589,세븐일레븐,강남SLI점,강남구,역삼동,서울특별시 강남구 역삼동 756-11,서울특별시 강남구 선릉로69길 7,37.4984477,127.051206
590,세븐일레븐,강남YMCA점,강남구,논현동,서울특별시 강남구 논현동 231,서울특별시 강남구 봉은사로37길 28,37.5100534,127.0359577
591,세븐일레븐,개포1호점,강남구,개포동,서울특별시 강남구 개포동 168-11,서울특별시 강남구 선릉로 48,37.4835362,127.0750477
592,세븐일레븐,개포2호점,강남구,개포동,서울특별시 강남구 개포동 186-17,서울특별시 강남구 개포로 512,37.4892714,127.0688177
593,세븐일레븐,개포본점,강남구,개포동,서울특별시 강남구 개포동 1214-5,서울특별시 강남구 개포로28길 15,37.4781007,127.049966
594,세븐일레븐,개포주공점,강남구,개포동,서울특별시 강남구 개포동 186-1,서울특별시 강남구 삼성로 38,37.4886736,127.0668063
595,세븐일레븐,개포타운점,강남구,개포동,서울특별시 강남구 개포동 158-11,서울특별시 강남구 선릉로4길 5,37.482396,127.0616862
596,세븐일레븐,개포현대점,강남구,개포동,서울특별시 강남구 개포동 655-4,서울특별시 강남구 개포로 265,37.48094690000001,127.0529676
597,세븐일레븐,거평타운점,강남구,논현동,서울특별시 강남구 논현동 203-1,서울특별시 강남구 봉은사로 129,37.5058893,127.0282231
598,세븐일레븐,골드로즈점,강남구,대치동,서울특별시 강남구 대치동 890-59,서울특별시 강남구 선릉로86길 31,37.5041507,127.0520978
599,세븐일레븐,공항타워점,강남구,삼성동,서울특별시 강남구 삼성동 159 B2F,서울특별시 강남구 테헤란로87길 36 B2F,37.5125207,127.0588194
600,세븐일레븐,과학기술회관점,강남구,역삼동,서울특별시 강남구 역삼동 635-2 B1 107호,서울특별시 강남구 테헤란로7길 22 B1 107호,37.50070290000001,127.0307453
601,세븐일레븐,논현11호점,강남구,논현동,서울특별시 강남구 논현동 111-29,서울특별시 강남구 선릉로131길 4,37.512122,127.0299778
602,세븐일레븐,논현12호점,강남구,논현동,서울특별시 강남구 논현동 139,서울특별시 강남구 강남대로128길 48,37.5128964,127.0220034
603,세븐일레븐,논현13호점,강남구,논현동,서울특별시 강남구 논현동 113-15 1층,서울특별시 강남구 학동로43길 14 1층,37.5171808,127.0375694
604,세븐일레븐,논현14호점,강남구,논현동,서울특별시 강남구 논현동 10-6,서울특별시 강남구 논현로149길 35,37.5162711,127.0281457
605,세븐일레븐,논현4호점,강남구,논현동,서울특별시 강남구 논현동 80-17,서울특별시 강남구 논현로 720,37.5163782,127.02989
606,세븐일레븐,논현6호점,강남구,논현동,서울특별시 강남구 논현동 96,서울특별시 강남구 도산대로46길 11,37.5213123,127.036684
607,세븐일레븐,논현건설회관점,강남구,논현동,서울특별시 강남구 논현동 83-20,서울특별시 강남구 학동로37길 23,37.5168076,127.0343016
608,세븐일레븐,논현본점,강남구,논현동,서울특별시 강남구 논현동 59-11,서울특별시 강남구 도산대로30길 8,37.5193384,127.0292398
609,세븐일레븐,논현스타우스점,강남구,논현동,서울특별시 강남구 논현동 147-20,서울특별시 강남구 강남대로124길 46,37.5134723,127.0228062
610,세븐일레븐,논현아이파크점,강남구,논현동,서울특별시 강남구 논현동 225-6,서울특별시 강남구 언주로 615,37.5190272,127.0397837
611,세븐일레븐,논현영동점,강남구,논현동,서울특별시 강남구 논현동 139-32,서울특별시 강남구 강남대로128길 34,37.5104874,127.024898
612,세븐일레븐,논현제일점,강남구,논현동,서울특별시 강남구 논현동 254-29,서울특별시 강남구 선릉로 641,37.5136787,127.0317124
613,세븐일레븐,논현중앙점,강남구,논현동,서울특별시 강남구 논현동 240-12,서울특별시 강남구 선릉로129길 20,37.5161307,127.0398503
614,세븐일레븐,논현타운점,강남구,논현동,서울특별시 강남구 논현동 68,서울특별시 강남구 언주로147길 37,37.5147695,127.0289271
615,세븐일레븐,논현학나래점,강남구,논현동,서울특별시 강남구 논현동 20-15,서울특별시 강남구 강남대로136길 7,37.518621,127.0266574
616,세븐일레븐,논현한바위점,강남구,논현동,서울특별시 강남구 논현동 183-11,서울특별시 강남구 강남대로118길 30,37.5068471,127.0257788
617,세븐일레븐,논현한어울림점,강남구,논현동,서울특별시 강남구 논현동 149-36,서울특별시 강남구 학동로12길 47,37.5099882,127.0279062
618,세븐일레븐,논현한영점,강남구,논현동,서울특별시 강남구 논현동 235-7,서울특별시 강남구 봉은사로29길 4,37.5080744,127.0348791
619,세븐일레븐,논현혜인점,강남구,논현동,서울특별시 강남구 논현동 194,서울특별시 강남구 봉은사로13길 10,37.5067872,127.029591
620,세븐일레븐,논현흥산점,강남구,논현동,서울특별시 강남구 논현동 125-8,서울특별시 강남구 강남대로128길 69,37.5122978,127.0269723
621,세븐일레븐,논현힐탑점,강남구,논현동,서울특별시 강남구 논현동 175-1,서울특별시 강남구 논현로 639,37.5105758,127.0320667
622,세븐일레븐,뉴강남센터점,강남구,역삼동,서울특별시 강남구 역삼동 817-11,서울특별시 강남구 강남대로96길 9,37.49988010000001,127.027735
623,세븐일레븐,뉴대청역점,강남구,개포동,서울특별시 강남구 개포동 13-3,서울특별시 강남구 개포로 623,37.4940992,127.0796795
624,세븐일레븐,뉴역삼한은점,강남구,역삼동,서울특별시 강남구 역삼동 718-10,서울특별시 강남구 테헤란로28길 7,37.5010091,127.0387161
625,세븐일레븐,대치10호점,강남구,대치동,서울특별시 강남구 대치동 919-16,서울특별시 강남구 역삼로64길 25,37.4994977,127.0535786
626,세븐일레븐,대치11호점,강남구,대치동,서울특별시 강남구 대치동 995-23,서울특별시 강남구 테헤란로104길 12,37.5082758,127.0649445
627,세븐일레븐,대치16호점,강남구,대치동,서울특별시 강남구 대치동 900-8,서울특별시 강남구 역삼로63길 16,37.5022254,127.0522735
628,세븐일레븐,대치3호점,강남구,대치동,서울특별시 강남구 대치동 506,서울특별시 강남구 삼성로 151,37.4921261,127.0625653
629,세븐일레븐,대치4호점,강남구,대치동,"서울특별시 강남구 대치동 623 1층 127,128호","서울특별시 강남구 남부순환로 2921 남서울종합상가 1층 127,128호",37.4933145,127.0598675
630,세븐일레븐,대치6호점,강남구,대치동,서울특별시 강남구 대치동 894-3,서울특별시 강남구 삼성로85길 19,37.4968954,127.0746785
631,세븐일레븐,대치7호점,강남구,대치동,서울특별시 강남구 대치동 957-6,서울특별시 강남구 삼성로86길 16,37.4971209,127.0744475
632,세븐일레븐,대치공원점,강남구,대치동,서울특별시 강남구 대치동 932,서울특별시 강남구 삼성로63길 21,37.4977586,127.0749708
633,세븐일레븐,대치나인점,강남구,대치동,서울특별시 강남구 대치동 889-57 더 나인 오피스텔,서울특별시 강남구 테헤란로64길 14 더 나인 오피스텔,37.5040512,127.0510455
634,세븐일레븐,대치덕일점,강남구,대치동,서울특별시 강남구 대치동 967,서울특별시 강남구 역삼로 546,37.5042425,127.0628906
635,세븐일레븐,대치마루점,강남구,대치동,서울특별시 강남구 대치동 914-5,서울특별시 강남구 삼성로71길 13,37.4966263,127.0708462
636,세븐일레븐,대치본점,강남구,대치동,서울특별시 강남구 대치동 931-19,서울특별시 강남구 삼성로 331,37.5011637,127.0593306
637,세븐일레븐,대치삼성로점,강남구,대치동,서울특별시 강남구 대치동 900-67,서울특별시 강남구 역삼로69길 13,37.5025153,127.0538348
638,세븐일레븐,대치삼화점,강남구,대치동,서울특별시 강남구 대치동 999-2,서울특별시 강남구 테헤란로114길 20,37.5083387,127.0667104
639,세븐일레븐,대치선릉로점,강남구,대치동,서울특별시 강남구 대치동 900-52,서울특별시 강남구 테헤란로68길 33,37.5031952,127.0531199
640,세븐일레븐,대치아이파크점,강남구,대치동,서울특별시 강남구 대치동 888-1,서울특별시 강남구 선릉로 224,37.4953984,127.0535459
641,세븐일레븐,대치역삼로점,강남구,대치동,서울특별시 강남구 대치동 910,서울특별시 강남구 역삼로 428,37.5012827,127.0539228
642,세븐일레븐,대치역점,강남구,대치동,서울특별시 강남구 대치동 507-2,서울특별시 강남구 삼성로 155,37.4938284,127.062941
643,세븐일레븐,대치우성점,강남구,대치동,서울특별시 강남구 대치동 986-4,서울특별시 강남구 도곡로93길 9,37.5008373,127.0645016
644,세븐일레븐,대치으뜸점,강남구,대치동,서울특별시 강남구 대치동 960-15,서울특별시 강남구 삼성로76길 16,37.5040636,127.0596603
645,세븐일레븐,대치은마사거리점,강남구,대치동,서울특별시 강남구 대치동 989,서울특별시 강남구 삼성로 238,37.4986375,127.0614624
646,세븐일레븐,대치점,강남구,대치동,서울특별시 강남구 대치동 511,서울특별시 강남구 삼성로 150,37.4933928,127.0673501
647,세븐일레븐,대치코스모점,강남구,대치동,서울특별시 강남구 대치동 1001-6,서울특별시 강남구 영동대로86길 10,37.5077928,127.064922
648,세븐일레븐,대치한티점,강남구,대치동,서울특별시 강남구 대치동 934-26,서울특별시 강남구 도곡로69길 14,37.4982672,127.0559861
649,세븐일레븐,더스티븐청담점,강남구,청담동,서울특별시 강남구 청담동 79,서울특별시 강남구 압구정로 416,37.5269156,127.0424194
650,세븐일레븐,도곡2호,강남구,도곡동,서울특별시 강남구 도곡동 900-2,서울특별시 강남구 남부순환로365길 38,37.4877892,127.039948
651,세븐일레븐,도곡3호점,강남구,도곡동,서울특별시 강남구 도곡동 951-33,서울특별시 강남구 강남대로44길 21,37.4920256,127.0519949
652,세븐일레븐,도곡공원점,강남구,도곡동,서울특별시 강남구 도곡동 942-11,서울특별시 강남구 도곡로4길 5,37.4896056,127.0333908
653,세븐일레븐,도곡렉슬점,강남구,도곡동,서울특별시 강남구 도곡동 527-3,서울특별시 강남구 선릉로 225,37.4953504,127.0527143
654,세븐일레븐,도곡본점,강남구,도곡동,서울특별시 강남구 도곡동 414-16,서울특별시 강남구 논현로34길 34,37.4847083,127.0447142
655,세븐일레븐,도곡센트레빌점,강남구,대치동,서울특별시 강남구 대치동 670,서울특별시 강남구 선릉로 206,37.4925092,127.0559479
656,세븐일레븐,도곡시네마점,강남구,도곡동,서울특별시 강남구 도곡동 174-40,서울특별시 강남구 남부순환로 2747,37.4871611,127.0465645
657,세븐일레븐,도곡중앙점,강남구,도곡동,서울특별시 강남구 도곡동 951,서울특별시 강남구 남부순환로351길 30,37.4867102,127.0340468
658,세븐일레븐,롯데캐논점,강남구,삼성동,서울특별시 강남구 삼성동 168-12,서울특별시 강남구 테헤란로 607,37.5094924,127.0639701
659,세븐일레븐,르네상스점,강남구,역삼동,서울특별시 강남구 역삼동 677-6,서울특별시 강남구 테헤란로37길 15,37.5031621,127.040414
660,세븐일레븐,리갈펠리스점,강남구,신사동,서울특별시 강남구 신사동 626,서울특별시 강남구 도산대로35길 46,37.5237472,127.030717
661,세븐일레븐,매봉점,강남구,도곡동,서울특별시 강남구 도곡동 422-4,서울특별시 강남구 논현로28길 56,37.4846222,127.0463902
662,세븐일레븐,삼성10호점,강남구,삼성동,서울특별시 강남구 삼성동 27-17,서울특별시 강남구 삼성로115길 46,37.513696,127.0480768
663,세븐일레븐,삼성8호점,강남구,삼성동,서울특별시 강남구 삼성동 41-21,서울특별시 강남구 봉은사로63길 11,37.5121587,127.0468847
664,세븐일레븐,삼성국순당점,강남구,삼성동,서울특별시 강남구 삼성동 110,서울특별시 강남구 봉은사로111길 8,37.5157963,127.0654289
665,세븐일레븐,삼성대웅점,강남구,삼성동,서울특별시 강남구 삼성동 162-13,서울특별시 강남구 봉은사로 638,37.5148174,127.0650806
666,세븐일레븐,삼성동래미안점,강남구,삼성동,서울특별시 강남구 삼성동 7-3,서울특별시 강남구 선릉로130길 20,37.5161513,127.0434365
667,세븐일레븐,삼성베스트점,강남구,삼성동,서울특별시 강남구 삼성동 152,서울특별시 강남구 삼성로104길 12,37.5108549,127.0557384
668,세븐일레븐,삼성봉은사점,강남구,삼성동,서울특별시 강남구 삼성동 147-2,서울특별시 강남구 봉은사로 516,37.5132359,127.0559719
669,세븐일레븐,삼성예술점,강남구,삼성동,서울특별시 강남구 삼성동 156-13,서울특별시 강남구 삼성로100길 8,37.5094695,127.0560524
670,세븐일레븐,삼성중앙점,강남구,삼성동,서울특별시 강남구 삼성동 166-8,서울특별시 강남구 영동대로96길 37,37.51169429999999,127.0655406
671,세븐일레븐,삼성페이토점,강남구,삼성동,서울특별시 강남구 삼성동 158-13,서울특별시 강남구 테헤란로87길 9,37.5084536,127.0587153
672,세븐일레븐,삼성플러스원점,강남구,삼성동,서울특별시 강남구 삼성동 36-25,서울특별시 강남구 봉은사로57길 13,37.5116276,127.0449346
673,세븐일레븐,선릉스타점,강남구,역삼동,서울특별시 강남구 역삼동 683,서울특별시 강남구 봉은사로50길 19,37.5088831,127.0434531
674,세븐일레븐,선릉오성점,강남구,삼성동,서울특별시 강남구 삼성동 141-19,서울특별시 강남구 선릉로 510,37.5051676,127.0489466
675,세븐일레븐,세관사거리점,강남구,논현동,서울특별시 강남구 논현동 115-1,서울특별시 강남구 언주로 708,37.5213236,127.0389295
676,세븐일레븐,세븐포이3호점,강남구,개포동,서울특별시 강남구 개포동 1196,서울특별시 강남구 논현로12길 19-9,37.4753706,127.0486574
677,세븐일레븐,수서역사1호점,강남구,수서동,서울특별시 강남구 수서동 728 수서역사 지하1층 맞이방층,서울특별시 강남구 광평로 지하 270 수서역사 지하1층 맞이방층,37.4874685,127.1013245
678,세븐일레븐,수서역사5호점,강남구,수서동,서울특별시 강남구 수서동 728,서울특별시 강남구 광평로 지하 270,37.4856844,127.0958859
679,세븐일레븐,수서역점,강남구,수서동,서울특별시 강남구 수서동 724,서울특별시 강남구 광평로 280,37.4873425,127.1030015
680,세븐일레븐,수서효성점,강남구,수서동,서울특별시 강남구 수서동 715,서울특별시 강남구 광평로 281,37.4880028,127.1026639
681,세븐일레븐,신논현강남점,강남구,역삼동,서울특별시 강남구 역삼동 603-7,서울특별시 강남구 봉은사로 140,37.505933,127.0301274
682,세븐일레븐,신사4호점,강남구,신사동,서울특별시 강남구 신사동 541-19,서울특별시 강남구 도산대로15길 7,37.5187552,127.023813
683,세븐일레븐,신사5호점,강남구,신사동,서울특별시 강남구 신사동 524-13,서울특별시 강남구 강남대로162길 45,37.5211282,127.0219944
684,세븐일레븐,신사대로점,강남구,신사동,서울특별시 강남구 신사동 561-31,서울특별시 강남구 도산대로 157,37.519028,127.0256272
685,세븐일레븐,신사로데오점,강남구,신사동,서울특별시 강남구 신사동 637-18,서울특별시 강남구 언주로172길 15,37.52785799999999,127.0351712
686,세븐일레븐,신사만남점,강남구,신사동,서울특별시 강남구 신사동 514-21,서울특별시 강남구 강남대로152길 26,37.5175626,127.0215687
687,세븐일레븐,신사무지개점,강남구,신사동,서울특별시 강남구 신사동 559-28,서울특별시 강남구 도산대로19길 16,37.51987560000001,127.0253058
688,세븐일레븐,신사본점,강남구,논현동,서울특별시 강남구 논현동 4-1,서울특별시 강남구 도산대로 124,37.51686309999999,127.0223722
689,세븐일레븐,신사소망점,강남구,신사동,서울특별시 강남구 신사동 606,서울특별시 강남구 논현로172길 26,37.5253567,127.0306896
690,세븐일레븐,신사한나래점,강남구,신사동,서울특별시 강남구 신사동 567-23,서울특별시 강남구 논현로159길 10,37.5231372,127.0274336
691,세븐일레븐,압구정11호점,강남구,신사동,서울특별시 강남구 신사동 573-2,서울특별시 강남구 압구정로18길 5,37.5246005,127.0244014
692,세븐일레븐,압구정2점,강남구,신사동,서울특별시 강남구 신사동 576-7,서울특별시 강남구 압구정로28길 28,37.5247787,127.027515
693,세븐일레븐,압구정로데오본점,강남구,신사동,서울특별시 강남구 신사동 657-28,서울특별시 강남구 도산대로51길 44,37.525994,127.0383821
694,세븐일레븐,압구정로데오점,강남구,신사동,서울특별시 강남구 신사동 664,서울특별시 강남구 압구정로 344,37.5276883,127.0398541
695,세븐일레븐,압구정로데오현대점,강남구,신사동,서울특별시 강남구 신사동 657-2,서울특별시 강남구 선릉로157길 31,37.5262495,127.0371775
696,세븐일레븐,압구정스퀘어점,강남구,신사동,서울특별시 강남구 신사동 620,서울특별시 강남구 압구정로34길 11,37.5273895,127.030957
697,세븐일레븐,압구정칼릭스점,강남구,신사동,서울특별시 강남구 신사동 594-33,서울특별시 강남구 논현로164길 38,37.52265149999999,127.0312263
698,세븐일레븐,역삼10호점,강남구,역삼동,서울특별시 강남구 역삼동 645-21,서울특별시 강남구 테헤란로19길 10,37.5007785,127.0337136
699,세븐일레븐,역삼14호점,강남구,역삼동,서울특별시 강남구 역삼동 614-20,서울특별시 강남구 논현로105길 53,37.5051674,127.0300345
700,세븐일레븐,역삼15호점,강남구,역삼동,서울특별시 강남구 역삼동 838-7,서울특별시 강남구 강남대로62길 18,37.490455,127.0330547
701,세븐일레븐,역삼18호점,강남구,역삼동,서울특별시 강남구 역삼동 784-13,서울특별시 강남구 도곡로37길 14,37.4948089,127.0451301
702,세븐일레븐,역삼22호점,강남구,역삼동,서울특별시 강남구 역삼동 773,서울특별시 강남구 언주로71길 9,37.4973421,127.0442752
703,세븐일레븐,역삼5호점,강남구,역삼동,서울특별시 강남구 역삼동 751-10,서울특별시 강남구 역삼로 151,37.4949838,127.0356269
704,세븐일레븐,역삼8호점,강남구,역삼동,서울특별시 강남구 역삼동 813-18,서울특별시 강남구 강남대로102길 11,37.5019478,127.0267345
705,세븐일레븐,역삼개나리점,강남구,역삼동,서울특별시 강남구 역삼동 754,서울특별시 강남구 역삼로 306,37.498551,127.0464387
706,세븐일레븐,역삼래미안점,강남구,역삼동,서울특별시 강남구 역삼동 761-19,서울특별시 강남구 언주로 314,37.4959548,127.0466573
707,세븐일레븐,역삼명랑점,강남구,역삼동,서울특별시 강남구 역삼동 738-28 1층 104호,서울특별시 강남구 논현로 425 1층 104호,37.4981005,127.0379402
708,세븐일레븐,역삼발렌타인점,강남구,역삼동,서울특별시 강남구 역삼동 832-10,서울특별시 강남구 강남대로66길 7,37.4919158,127.031437
709,세븐일레븐,역삼선릉로점,강남구,역삼동,서울특별시 강남구 역삼동 684,서울특별시 강남구 봉은사로48길 13,37.5086586,127.0416939
710,세븐일레븐,역삼세브란스점,강남구,역삼동,서울특별시 강남구 역삼동 782-28,서울특별시 강남구 논현로64길 33,37.4940618,127.0432267
711,세븐일레븐,역삼스마일점,강남구,역삼동,서울특별시 강남구 역삼동 663-13,서울특별시 강남구 논현로102길 54,37.506081,127.0394916
712,세븐일레븐,역삼스타공원점,강남구,역삼동,서울특별시 강남구 역삼동 744,서울특별시 강남구 논현로79길 25,37.4973522,127.0361051
713,세븐일레븐,역삼언주로점,강남구,역삼동,서울특별시 강남구 역삼동 719-33,서울특별시 강남구 언주로85길 24,37.5010094,127.0412821
714,세븐일레븐,역삼우일점,강남구,역삼동,서울특별시 강남구 역삼동 690-2,서울특별시 강남구 봉은사로44길 39,37.5068384,127.0413824
715,세븐일레븐,역삼은석점,강남구,역삼동,서울특별시 강남구 역삼동 729,서울특별시 강남구 언주로79길 33,37.4985986,127.0414303
716,세븐일레븐,역삼은탑점,강남구,역삼동,서울특별시 강남구 역삼동 735-10,서울특별시 강남구 테헤란로14길 5,37.4990902,127.0332052
717,세븐일레븐,역삼진선점,강남구,역삼동,서울특별시 강남구 역삼동 708-34,서울특별시 강남구 선릉로85길 8,37.5029304,127.0488578
718,세븐일레븐,역삼창조점,강남구,역삼동,서울특별시 강남구 역삼동 739,서울특별시 강남구 논현로85길 13,37.49906,127.036246
719,세븐일레븐,역삼코넬점,강남구,역삼동,서울특별시 강남구 역삼동 673-24,서울특별시 강남구 언주로93길 28-8,37.50388760000001,127.0396225
720,세븐일레븐,역삼타운점,강남구,역삼동,서울특별시 강남구 역삼동 827-44,서울특별시 강남구 강남대로84길 28,37.4969697,127.0309307
721,세븐일레븐,역삼타워점,강남구,역삼동,서울특별시 강남구 역삼동 826-27,서울특별시 강남구 강남대로84길 16,37.4966779,127.0299896
722,세븐일레븐,역삼특허점,강남구,역삼동,서울특별시 강남구 역삼동 827-67,서울특별시 강남구 테헤란로8길 46,37.4958617,127.0322271
723,세븐일레븐,역삼프레스티점,강남구,역삼동,서울특별시 강남구 역삼동 831-24,서울특별시 강남구 강남대로78길 12,37.4948619,127.0303579
724,세븐일레븐,역삼피에스따점,강남구,역삼동,서울특별시 강남구 역삼동 637-41,서울특별시 강남구 테헤란로19길 29,37.5018776,127.0327308
725,세븐일레븐,역삼하이츠점,강남구,역삼동,서울특별시 강남구 역삼동 642-3 석암빌딩,서울특별시 강남구 테헤란로25길 6-9 석암빌딩,37.5012886,127.0359271
726,세븐일레븐,역삼한서점,강남구,역삼동,서울특별시 강남구 역삼동 720-21,서울특별시 강남구 테헤란로38길 11,37.5012916,127.0417799
727,세븐일레븐,역삼한은점,강남구,역삼동,서울특별시 강남구 역삼동 678-35 204,서울특별시 강남구 테헤란로 205 204,37.5010091,127.0387161
728,세븐일레븐,역삼해피점,강남구,역삼동,서울특별시 강남구 역삼동 655,서울특별시 강남구 언주로107길 29,37.5072367,127.0368921
729,세븐일레븐,역삼MG스타점,강남구,역삼동,서울특별시 강남구 역삼동 705-19 1층(역삼동),서울특별시 강남구 테헤란로 335 1층(역삼동),37.5046528,127.048292
730,세븐일레븐,일원미래점,강남구,일원동,서울특별시 강남구 일원동 662-1,서울특별시 강남구 일원로5길 58,37.4921574,127.0848625
731,세븐일레븐,일원상록수점,강남구,일원동,서울특별시 강남구 일원동 734,서울특별시 강남구 광평로10길 15,37.482024,127.0821324
732,세븐일레븐,일원석탑점,강남구,개포동,서울특별시 강남구 개포동 12-4,서울특별시 강남구 개포로 615,37.4926936,127.0756284
733,세븐일레븐,청담2점,강남구,청담동,서울특별시 강남구 청담동 40-24,서울특별시 강남구 선릉로132길 7,37.5181897,127.0417256
734,세븐일레븐,청담7호점,강남구,청담동,서울특별시 강남구 청담동 58-12,서울특별시 강남구 도산대로96길 13,37.5236717,127.050972
735,세븐일레븐,청담그린점,강남구,청담동,서울특별시 강남구 청담동 100-21 J.J 홀딩스,서울특별시 강남구 도산대로81길 39 J.J 홀딩스,37.5267097,127.0466618
736,세븐일레븐,청담대우점,강남구,청담동,서울특별시 강남구 청담동 109-14,서울특별시 강남구 도산대로99길 26,37.5263961,127.0512571
737,세븐일레븐,청담루나점,강남구,청담동,서울특별시 강남구 청담동 72-6 1층,서울특별시 강남구 학동로 523 1층,37.5200802,127.0559515
738,세븐일레븐,청담튼튼병원점,강남구,청담동,서울특별시 강남구 청담동 71-25,서울특별시 강남구 학동로97길 20,37.5212011,127.0554736
739,세븐일레븐,청담황해점,강남구,청담동,서울특별시 강남구 청담동 5-29,서울특별시 강남구 삼성로149길 32,37.519785,127.0481768
740,세븐일레븐,코엑스아셈타워점,강남구,삼성동,서울특별시 강남구 삼성동 159,서울특별시 강남구 영동대로 517,37.5130417,127.0597688
741,세븐일레븐,테헤란로점,강남구,대치동,서울특별시 강남구 대치동 891-8,서울특별시 강남구 테헤란로 428,37.5056874,127.054004
742,세븐일레븐,포이4호점,강남구,개포동,서울특별시 강남구 개포동 1235-11,서울특별시 강남구 개포로20길 24-16,37.48916699999999,127.066502
743,세븐일레븐,포이5호점,강남구,개포동,서울특별시 강남구 개포동 1218,서울특별시 강남구 개포로24길 6,37.4784585,127.048079
744,세븐일레븐,포이중앙점,강남구,개포동,서울특별시 강남구 개포동 1235,서울특별시 강남구 논현로18길 14,37.4942156,127.077617
745,세븐일레븐,학동사거리점,강남구,신사동,서울특별시 강남구 신사동 666-15,서울특별시 강남구 도산대로 335,37.5233796,127.0385201
746,세븐일레븐,한신점,강남구,역삼동,서울특별시 강남구 역삼동 707-26 한신인터밸리24빌딩,서울특별시 강남구 테헤란로 322 한신인터밸리24빌딩,37.5029732,127.0465325
747,세븐일레븐,DH아너힐즈점,강남구,개포동,서울특별시 강남구 개포동 1281,서울특별시 강남구 삼성로 11,37.48411050000001,127.0675212
748,세븐일레븐,KT강남점,강남구,역삼동,서울특별시 강남구 역삼동 675-3 102호202호,서울특별시 강남구 언주로 517 102호202호,37.5046469,127.0412634
749,세븐일레븐,L7강남점,강남구,삼성동,서울특별시 강남구 삼성동 142-41,서울특별시 강남구 테헤란로 415,37.5057015,127.0515509
750,세븐일레븐,S3일원역점,강남구,일원동,서울특별시 강남구 일원동 717 지하 338-102호,서울특별시 강남구 일원로 115 지하 338-102호,37.492994,127.112326
751,ministop,신강남신사점,강남구,신사동,서울특별시 강남구 신사동 509-7 남정빌딩,서울 강남구 도산대로1길 28,37.5185809,127.0198569
752,ministop,한강잠원2호점,강남구,압구정동,서울특별시 강남구 압구정동 380-2,서울 강남구 압구정로11길 37-30,37.5273455,127.0178679
753,ministop,삼성플러스원점,강남구,삼성동,서울특별시 강남구 삼성동 36-25 프러스원,서울 강남구 봉은사로57길 13,37.5116276,127.0449346
754,ministop,강남센터점,강남구,역삼동,서울특별시 강남구 역삼동 816-4,서울 강남구 강남대로96길 5,37.4998285,127.027454
755,ministop,대치시내점,강남구,대치동,서울특별시 강남구 대치동 940-6,서울 강남구 도곡로77길 7,37.4988033,127.0583171
756,ministop,압구정5점,강남구,신사동,서울특별시 강남구 신사동 653-18,서울 강남구 도산대로49길 18,37.5240648,127.0373461
757,ministop,자곡신영점,강남구,자곡동,서울특별시 강남구 자곡동 662 강남 지웰홈스,서울특별시 강남구 자곡로 204-5 근린생활시설동 104호,37.4742782,127.1054022
758,ministop,역삼태극점,강남구,역삼동,서울특별시 강남구 역삼동 831-3,서울 강남구 강남대로78길 8,37.4947875,127.0300669
759,ministop,역삼디오빌점,강남구,역삼동,서울특별시 강남구 역삼동 720-25 디오빌역삼,서울 강남구 언주로 427,37.5014561,127.0426891
760,ministop,대청역점,강남구,개포동,서울특별시 강남구 개포동 13-3 대청타워,서울 강남구 개포로 623,37.4943476,127.079616
761,ministop,대치멤버스점,강남구,대치동,서울특별시 강남구 대치동 891-26 대치동대우아이빌멤버스,서울 강남구 삼성로85길 42,37.5046324,127.053752
762,ministop,도곡공원점,강남구,도곡동,서울특별시 강남구 도곡동 942-11,서울 강남구 도곡로4길 5,37.4896056,127.0333908
763,ministop,역삼성지점,강남구,역삼동,서울특별시 강남구 역삼동 702-13 성지하이츠1,서울 강남구 테헤란로 313,37.5038117,127.0452472
764,ministop,메트로칸점,강남구,대치동,서울특별시 강남구 대치동 943-24 신안메트로칸,서울 강남구 테헤란로88길 10,37.5068833,127.059437
765,ministop,논현행운점,강남구,논현동,서울특별시 강남구 논현동 242-7,서울 강남구 선릉로129길 15,37.5159897,127.0403042
766,ministop,수서벤처점,강남구,수서동,서울특별시 강남구 수서동 713 수서현대벤쳐빌,서울 강남구 밤고개로1길 10,37.4880163,127.1018486
767,ministop,역삼태광점,강남구,역삼동,서울특별시 강남구 역삼동 719-9,서울 강남구 테헤란로34길 7,37.5010982,127.0402477
768,ministop,역삼만남점,강남구,역삼동,서울특별시 강남구 역삼동 827-70,서울 강남구 테헤란로6길 47,37.4956043,127.0318223
769,ministop,청담유시어터점,강남구,청담동,서울특별시 강남구 청담동 21-17,서울 강남구 도산대로58길 17,37.5220687,127.041532
770,ministop,신사증권점,강남구,신사동,서울특별시 강남구 신사동 610-4,"서울 강남구 압구정로30길 18, 1층",37.5263176,127.0290336
771,ministop,논현삼릉역점,강남구,논현동,서울특별시 강남구 논현동 278-19 궁도빌딩,서울 강남구 봉은사로 327,37.5101679,127.0425617
772,ministop,신사만남점,강남구,신사동,서울특별시 강남구 신사동 514-21 세현빌딩,서울 강남구 강남대로152길 26,37.5175626,127.0215687
773,ministop,도곡비전점,강남구,도곡동,서울특별시 강남구 도곡동 467-19 현대비전21,서울 강남구 언주로30길 10,37.4873616,127.0513255
